id,parent,name,level,hid,iso639_3,latitude,longitude,macroareas,countries,timespan,branch,parent_name,id.1,family,family_id,macroarea,nr_macroarea,Genus.wals,Area.autotyp,Family.wals
adyg1241,circ1239,Adyghe,language,ady,ady,44.0,39.33,['Eurasia'],"['Israel', 'Jordan', 'Russian Federation', 'Syrian Arab Republic', 'Turkey']",,Circassian,Circassian,adyg1241,Abkhaz-Adyge,abkh1242,Eurasia,1,Northwest Caucasian,Greater Mesopotamia,Northwest Caucasian
kaba1278,circ1239,Kabardian,language,kbd,kbd,43.5082,43.3918,['Eurasia'],"['Russian Federation', 'Turkey']",,Circassian,Circassian,kaba1278,Abkhaz-Adyge,abkh1242,Eurasia,1,Northwest Caucasian,Greater Mesopotamia,Northwest Caucasian
tach1250,atla1275,Tachelhit,language,shi,shi,29.7854,-7.77879,['Africa'],"['Algeria', 'Morocco']",,Atlas Berber,Atlas Berber,tach1250,Afro-Asiatic,afro1255,Africa,1,Berber,N Africa,Afro-Asiatic
kaby1243,kaby1244,Kabyle,language,kab,kab,36.4103,4.76137,['Africa'],['Algeria'],,Kabyle-Atlas Berber,Kabyle-Atlas Berber,kaby1243,Afro-Asiatic,afro1255,Africa,1,Berber,N Africa,Afro-Asiatic
tama1365,sout3263,Tamasheq,language,taq,taq,14.2038,-2.41269,['Africa'],"['Burkina Faso', 'Mali']",,Southern Tuareg,Southern Tuareg,tama1365,Afro-Asiatic,afro1255,Africa,1,Berber,African Savannah,Afro-Asiatic
tawa1286,sout3263,Tawallammat Tamajaq,language,ttq,ttq,13.9878,4.47692,['Africa'],"['Burkina Faso', 'Mali', 'Niger', 'Nigeria']",,Southern Tuareg,Southern Tuareg,tawa1286,Afro-Asiatic,afro1255,Africa,1,,,
muse1242,marb1244,Musey,language,mse,mse,9.81612,15.4115,['Africa'],"['Cameroon', 'Chad']",,Marba-Musey-Ham,Marba-Musey-Ham,muse1242,Afro-Asiatic,afro1255,Africa,1,,,
masa1322,masa1324,Masana,language,mcn,mcn,10.0606,15.4748,['Africa'],"['Cameroon', 'Chad']",,Masa-Gizey-Zumaya,Masa-Gizey-Zumaya,masa1322,Afro-Asiatic,afro1255,Africa,1,Masa,African Savannah,Afro-Asiatic
haus1257,west2718,Hausa,language,hau,hau,11.1513,8.7804,['Africa'],"['Burkina Faso', 'Benin', 'Cameroon', 'Niger', 'Nigeria', 'Chad']",,West Chadic A.1,West Chadic A.1,haus1257,Afro-Asiatic,afro1255,Africa,1,West Chadic,African Savannah,Afro-Asiatic
mwag1236,west2717,Mwaghavul,language,sur,sur,9.47205,8.96522,['Africa'],['Nigeria'],,West Chadic A.3,West Chadic A.3,mwag1236,Afro-Asiatic,afro1255,Africa,1,West Chadic,African Savannah,Afro-Asiatic
kamb1316,kamb1318,Kambaata,language,ktb,ktb,7.37582,37.9088,['Africa'],['Ethiopia'],,Kambaataic,Kambaataic,kamb1316,Afro-Asiatic,afro1255,Africa,1,,,
kons1243,kons1242,Konso,language,kxc,kxc,5.39111,37.53,['Africa'],['Ethiopia'],,Konsoid,Konsoid,kons1243,Afro-Asiatic,afro1255,Africa,1,,,
east2652,sout3218,Eastern Oromo,language,hae,hae,8.67428,41.4395,['Africa'],['Ethiopia'],,South-East-North Oromo,South-East-North Oromo,east2652,Afro-Asiatic,afro1255,Africa,1,Lowland East Cushitic,S Africa,Afro-Asiatic
soma1255,east2653,Somali,language,som,som,4.778704,45.152856,['Africa'],"['Djibouti', 'Ethiopia', 'Kenya', 'Somalia']",,Eastern Omo-Tana,Eastern Omo-Tana,soma1255,Afro-Asiatic,afro1255,Africa,1,Lowland East Cushitic,Greater Abyssinia,Afro-Asiatic
iraq1241,iraq1240,Iraqw,language,irk,irk,-4.19948,35.2939,['Africa'],"['Tanzania, United Republic of']",,Iraqwoid,Iraqwoid,iraq1241,Afro-Asiatic,afro1255,Africa,1,Southern Cushitic,S Africa,Afro-Asiatic
egyp1253,egyp1254,Egyptian Arabic,language,arz,arz,31.0,31.0,['Africa'],"['Egypt', 'Israel', 'Libya']",,Egypto-Sudanic Arabic,Egypto-Sudanic Arabic,egyp1253,Afro-Asiatic,afro1255,Africa,1,Semitic,N Africa,Afro-Asiatic
chad1249,suda1235,Chadian Arabic,language,shu,shu,14.67,13.5,['Africa'],"['Cameroon', 'Niger', 'Nigeria', 'Chad']",,Sudanese-Chadian Arabic,Sudanese-Chadian Arabic,chad1249,Afro-Asiatic,afro1255,Africa,1,Semitic,African Savannah,Afro-Asiatic
malt1254,malt1259,Maltese,language,mlt,mlt,35.8884,14.4508,['Eurasia'],['Malta'],,North African Arabic,Malta-Tunisian Arabic,malt1254,Afro-Asiatic,afro1255,Eurasia,1,Semitic,Europe,Afro-Asiatic
tuni1259,malt1259,Tunisian Arabic,language,aeb,aeb,33.7966,9.56156,['Africa'],"['Algeria', 'Libya', 'Tunisia']",,North African Arabic,Malta-Tunisian Arabic,tuni1259,Afro-Asiatic,afro1255,Africa,1,Semitic,N Africa,Afro-Asiatic
moro1292,moro1295,Moroccan Arabic,language,ary,ary,32.5,-7.5,['Africa'],"['Algeria', 'Western Sahara', 'Morocco']",,Moroccan-Andalusian Arabic,Moroccan-Andalusian Arabic,moro1292,Afro-Asiatic,afro1255,Africa,1,Semitic,N Africa,Afro-Asiatic
stan1318,arab1395,Standard Arabic,language,arb,arb,27.9625,43.8525,['Eurasia'],"['United Arab Emirates', 'Bahrain', 'Djibouti', 'Algeria', 'Egypt', 'Eritrea', 'Israel', 'Iraq', 'Jordan', 'Comoros', 'Kuwait', 'Lebanon', 'Libya', 'Morocco', 'Oman', 'Palestine, State of', 'Qatar', 'Saudi Arabia', 'Sudan', 'Somalia', 'Syrian Arab Republic', 'Chad', 'Tunisia', 'Tanzania, United Republic of', 'Yemen']",,Arabic,Arabic,stan1318,Afro-Asiatic,afro1255,Eurasia,1,Semitic,N Africa,Afro-Asiatic
assy1241,nort3241,Assyrian Neo-Aramaic,language,aii,aii,36.75,43.0,['Eurasia'],"['Iraq', 'Iran, Islamic Republic of', 'Syrian Arab Republic', 'Turkey']",,North-Eastern Neo-Aramaic,North-Eastern Neo-Aramaic,assy1241,Afro-Asiatic,afro1255,Eurasia,1,Semitic,Greater Mesopotamia,Afro-Asiatic
clas1252,east2680,Classical Syriac,language,syc,syc,37.1129,42.1432,['Eurasia'],['Turkey'],"{'start_year': 100, 'start_month': 1, 'start_day': 1, 'end_year': 800, 'end_month': 1, 'end_day': 1}",Eastern Aramaic,Eastern Aramaic,clas1252,Afro-Asiatic,afro1255,Eurasia,1,,,
anci1244,hebr1246,Ancient Hebrew,language,hbo,hbo,31.7761,35.1725,['Eurasia'],['Israel'],"{'start_year': -950, 'start_month': 1, 'start_day': 1, 'end_year': -950, 'end_month': 1, 'end_day': 1}",Hebrewic,Hebrewic,anci1244,Afro-Asiatic,afro1255,Eurasia,1,,,
hebr1245,hebr1246,Modern Hebrew,language,heb,heb,31.1056,35.0179,['Eurasia'],"['Israel', 'Jordan', 'Lebanon', 'Palestine, State of', 'Syrian Arab Republic']",,Hebrewic,Hebrewic,hebr1245,Afro-Asiatic,afro1255,Eurasia,1,Semitic,Greater Mesopotamia,Afro-Asiatic
amha1245,amha1244,Amharic,language,amh,amh,11.708182,39.543456,['Africa'],"['Djibouti', 'Ethiopia']",,Amharic-Argobba,Amharic-Argobba,amha1245,Afro-Asiatic,afro1255,Africa,1,Semitic,Greater Abyssinia,Afro-Asiatic
seba1251,ttgr1237,Sebat Bet Gurage,language,sgw,sgw,8.11879,37.9891,['Africa'],['Ethiopia'],,TT-Group,TT-Group,seba1251,Afro-Asiatic,afro1255,Africa,1,Semitic,Greater Abyssinia,Afro-Asiatic
tigr1271,ethi1244,Tigrinya,language,tir,tir,15.3359,38.9266,['Africa'],"['Djibouti', 'Eritrea', 'Ethiopia', 'Sudan']",,Ethiosemitic,Ethiosemitic,tigr1271,Afro-Asiatic,afro1255,Africa,1,Semitic,Greater Abyssinia,Afro-Asiatic
arap1274,arap1280,Arapaho,language,arp,arp,43.3879,-108.81,['North America'],['United States'],,Arapaho-Gros Ventre-Besawunena,Arapaho-Gros Ventre-Besawunena,arap1274,Algic,algi1248,North America,1,Algonquian,Basin and Plains,Algic
moos1236,cree1272,Moose Cree,language,crm,crm,51.0686,-80.6912,['North America'],['Canada'],,Cree,Cree,moos1236,Algic,algi1248,North America,1,,,
mikm1235,east2700,Mi'kmaq,language,mic,mic,46.0,-64.0,['North America'],"['Canada', 'United States']",,Eastern Algonquian,Eastern Algonquian,mikm1235,Algic,algi1248,North America,1,Algonquian,E North America,Algic
algo1255,seve1242,Algonquin,language,alq,alq,47.3876,-77.5258,['North America'],['Canada'],,Severn-Algonquin,Severn-Algonquin,algo1255,Algic,algi1248,North America,1,Algonquian,E North America,Algic
pota1247,ojib1240,Potawatomi,language,pot,pot,40.955,-89.1881,['North America'],"['Canada', 'United States']",,Ojibwa-Potawatomi,Ojibwa-Potawatomi,pota1247,Algic,algi1248,North America,1,Algonquian,E North America,Algic
anga1290,anga1289,Angaataha,language,agm,agm,-7.15012,146.352,['Papunesia'],['Papua New Guinea'],,,Angan,anga1290,Angan,anga1289,Papunesia,1,Angaataha,Interior New Guinea,Trans-New Guinea
baru1267,baru1271,Baruya,language,byr,byr,-6.89261,145.818,['Papunesia'],['Papua New Guinea'],,Baruya-Simbari,Baruya-Simbari,baru1267,Angan,anga1289,Papunesia,1,Nuclear Angan,Interior New Guinea,Trans-New Guinea
safe1240,nort3145,Safeyoka,language,apz,apz,-7.05417,146.09,['Papunesia'],['Papua New Guinea'],,Wojokesic,Wojokesic,safe1240,Angan,anga1289,Papunesia,1,Nuclear Angan,Interior New Guinea,Trans-New Guinea
anka1246,sout3130,Ankave,language,aak,aak,-7.19444,145.754,['Papunesia'],['Papua New Guinea'],,Ankave-Tainae-Akoye,Ankave-Tainae-Akoye,anka1246,Angan,anga1289,Papunesia,1,,,
mapu1245,arau1255,Mapudungun,language,arn,arn,-38.7392,-71.277,['South America'],"['Argentina', 'Chile']",,,Araucanian,mapu1245,Araucanian,arau1255,South America,1,Araucanian,Andean,Araucanian
gari1256,isla1279,Garifuna,language,cab,cab,15.3529,-86.9091,['North America'],"['Belize', 'Guatemala', 'Honduras', 'Nicaragua']",,Island Carib-Garifuna,Island Carib-Garifuna,gari1256,Arawakan,araw1281,North America,1,Antillean Arawakan,Mesoamerica,Arawakan
wayu1243,guaj1257,Wayuu,language,guc,guc,11.395566,-72.199791,['South America'],"['Colombia', 'Venezuela, Bolivarian Republic of']",,Guajiro-Paraujano,Guajiro-Paraujano,wayu1243,Arawakan,araw1281,South America,1,Guajiro-Paraujano,NE South America,Arawakan
pare1272,pare1273,Parecís,language,pab,pab,-14.5929,-57.4059,['South America'],['Brazil'],,Xaray,Xaray,pare1272,Arawakan,araw1281,South America,1,Central Arawakan,NE South America,Arawakan
acha1250,piap1247,Achagua,language,aca,aca,4.38649,-72.2005,['South America'],['Colombia'],,Piapoco-Achagua,Piapoco-Achagua,acha1250,Arawakan,araw1281,South America,1,Japura-Colombia,NE South America,Arawakan
piap1246,piap1247,Piapoco,language,pio,pio,4.37718,-68.5953,['South America'],"['Colombia', 'Venezuela, Bolivarian Republic of']",,Piapoco-Achagua,Piapoco-Achagua,piap1246,Arawakan,araw1281,South America,1,Japura-Colombia,NE South America,Arawakan
yucu1253,yucu1252,Yucuna,language,ycn,ycn,-0.76075,-71.0033,['South America'],"['Brazil', 'Colombia', 'Peru']",,Caqueta,Caqueta,yucu1253,Arawakan,araw1281,South America,1,Japura-Colombia,NE South America,Arawakan
wapi1253,wapi1254,Wapishana,language,wap,wap,2.58744,-59.8021,['South America'],"['Brazil', 'Guyana']",,Wapishanan,Wapishana-Atorai,wapi1253,Arawakan,araw1281,South America,1,Negro-Roraima,NE South America,Arawakan
pali1279,araw1281,Palikúr,language,plu,plu,3.63993,-51.6246,['South America'],"['Brazil', 'French Guiana']",,,Arawakan,pali1279,Arawakan,araw1281,South America,1,Palikur,NE South America,Arawakan
yane1238,kamp1244,Yanesha',language,ame,ame,-10.5454,-75.315,['South America'],['Peru'],,,Kampa-Amuesha,yane1238,Arawakan,araw1281,South America,1,Yanesha',Andean,Arawakan
apur1254,puru1265,Apurinã,language,apu,apu,-8.21692,-66.7714,['South America'],['Brazil'],,Purus,Purus,apur1254,Arawakan,araw1281,South America,1,Purus,NE South America,Arawakan
culi1244,madi1263,Culina,language,cul,cul,-8.55268,-70.6648,['South America'],"['Brazil', 'Peru']",,Madiha,Madiha,culi1244,Arawan,araw1282,South America,1,Arauan,NE South America,Arauan
paum1247,araw1282,Paumari,language,pad,pad,-5.78403,-64.2803,['South America'],['Brazil'],,,Arawan,paum1247,Arawan,araw1282,South America,1,Arauan,NE South America,Arauan
nava1243,west2810,Navajo,language,nav,nav,36.33,-109.38,['North America'],['United States'],,Western Southwestern Apachean,Western Southwestern Apachean,nava1243,Athabaskan-Eyak-Tlingit,atha1245,North America,1,Athapaskan,Basin and Plains,Na-Dene
west2615,west2810,Western Apache,language,apw,apw,33.8574,-110.123,['North America'],['United States'],,Western Southwestern Apachean,Western Southwestern Apachean,west2615,Athabaskan-Eyak-Tlingit,atha1245,North America,1,Athapaskan,Basin and Plains,Na-Dene
carr1249,carr1248,Central Carrier,language,crx,crx,54.3768,-124.328,['North America'],['Canada'],,Dakelh,Dakelh,carr1249,Athabaskan-Eyak-Tlingit,atha1245,North America,1,Athapaskan,Alaska-Oregon,Na-Dene
gwic1235,gwic1236,Gwich'in,language,gwi,gwi,67.4307,-142.963,['North America'],"['Canada', 'United States']",,Athabaskan,Gwichin-Han,gwic1235,Athabaskan-Eyak-Tlingit,atha1245,North America,1,Athapaskan,Alaska-Oregon,Na-Dene
beav1236,beav1237,Beaver,language,bea,bea,56.7984,-120.352,['North America'],['Canada'],,Athabaskan,Beaver-Sekani,beav1236,Athabaskan-Eyak-Tlingit,atha1245,North America,1,,,
dogr1252,hare1243,Dogrib,language,dgr,dgr,63.17,-117.25,['North America'],['Canada'],,Slaveyic,Slaveyic,dogr1252,Athabaskan-Eyak-Tlingit,atha1245,North America,1,,,
west2450,limb1267,West-Central Limba,language,lia,lia,9.52392,-12.3138,['Africa'],['Sierra Leone'],,Limba,Limba,west2450,Atlantic-Congo,atla1278,Africa,1,,,
sout2778,kiss1245,Southern Kisi,language,kss,kss,8.32448,-10.3377,['Africa'],"['Guinea', 'Liberia', 'Sierra Leone']",,Kissi,Kissi,sout2778,Atlantic-Congo,atla1278,Africa,1,Southern Mel,African Savannah,Niger-Congo
baga1272,temn1245,Baga Sitemu,language,bsp,bsp,10.4793,-14.4756,['Africa'],['Guinea'],,Northern Mel,Northern Mel,baga1272,Atlantic-Congo,atla1278,Africa,1,Northern Mel,African Savannah,Niger-Congo
timn1235,temn1245,Timne,language,tem,tem,8.90294,-12.3331,['Africa'],"['Guinea', 'Sierra Leone']",,Northern Mel,Northern Mel,timn1235,Atlantic-Congo,atla1278,Africa,1,Northern Mel,African Savannah,Niger-Congo
jola1262,fhjo1234,Jola-Esulalu,language,csk,csk,12.5089,-16.5539,['Africa'],"['Gambia', 'Guinea-Bissau', 'Senegal']",,FH-Jola,FH-Jola,jola1262,Atlantic-Congo,atla1278,Africa,1,Jola,African Savannah,Niger-Congo
kuwa1246,kwat1245,Kuwaataay,language,cwt,cwt,12.48255,-16.74835,['Africa'],['Senegal'],,Kwatay-Karon-Mlomp,Kwatay-Karon-Mlomp,kuwa1246,Atlantic-Congo,atla1278,Africa,1,,,
band1340,gusi1245,Bandial,language,bqj,bqj,12.5258,-16.4245,['Africa'],['Senegal'],,Gusilay-Bandial,Gusilay-Bandial,band1340,Atlantic-Congo,atla1278,Africa,1,,,
jola1263,jola1264,Jola-Fonyi,language,dyo,dyo,12.75752,-15.7354766667,['Africa'],"['Gambia', 'Guinea-Bissau', 'Senegal']",,Jola,Jola,jola1263,Atlantic-Congo,atla1278,Africa,1,Jola,African Savannah,Niger-Congo
mank1251,manj1250,Mankanya,language,knf,knf,12.2615066667,-15.74389,['Africa'],"['Guinea-Bissau', 'Senegal']",,Manjaku-Mankanya-Pepel,Manjaku-Mankanya-Pepel,mank1251,Atlantic-Congo,atla1278,Africa,1,Manjaku,African Savannah,Niger-Congo
borg1235,fula1264,Borgu Fulfulde,language,fue,fue,9.801,3.988,['Africa'],"['Benin', 'Nigeria']",,Fula,Fula,borg1235,Atlantic-Congo,atla1278,Africa,1,,,
adam1253,adam1260,Adamawa Fulfulde,language,fub,fub,8.140326,13.077338,['Africa'],"['Cameroon', 'Eritrea', 'Ethiopia', 'Nigeria', 'Sudan', 'Chad']",,Adamawa-Bagirmi Fulfulde,Adamawa-Bagirmi Fulfulde,adam1253,Atlantic-Congo,atla1278,Africa,1,Peul-Serer,African Savannah,Niger-Congo
cent2018,fula1265,Central-Eastern Niger Fulfulde,language,fuq,fuq,15.0907,8.43261,['Africa'],"['Mali', 'Niger', 'Nigeria', 'Chad']",,Eastern Fula,Eastern Fula,cent2018,Atlantic-Congo,atla1278,Africa,1,,,
nige1253,fula1265,Hausa States Fulfulde,language,fuv,fuv,10.9972,11.1188,['Africa'],"['Cameroon', 'Nigeria', 'Chad']",,Eastern Fula,Eastern Fula,nige1253,Atlantic-Congo,atla1278,Africa,1,Peul-Serer,African Savannah,Niger-Congo
maas1239,fula1264,Maasina Fulfulde,language,ffm,ffm,11.1324,-3.64763,['Africa'],"['Burkina Faso', ""Côte d'Ivoire"", 'Ghana', 'Mali', 'Mauritania', 'Niger']",,Fula,Fula,maas1239,Atlantic-Congo,atla1278,Africa,1,Peul-Serer,African Savannah,Niger-Congo
pula1262,fula1264,Pular,language,fuf,fuf,12.1826,-12.7338,['Africa'],"['Guinea', 'Guinea-Bissau', 'Mali', 'Sierra Leone', 'Senegal']",,Fula,Fula,pula1262,Atlantic-Congo,atla1278,Africa,1,Peul-Serer,African Savannah,Niger-Congo
west2454,fula1264,Western Niger Fulfulde,language,fuh,fuh,14.2471,-0.52004,['Africa'],"['Burkina Faso', 'Benin', 'Mali', 'Niger', 'Nigeria']",,Fula,Fula,west2454,Atlantic-Congo,atla1278,Africa,1,Peul-Serer,African Savannah,Niger-Congo
bass1258,bass1263,Bassari-Tanda,language,bsc,bsc,12.4529,-13.3495,['Africa'],"['Guinea', 'Guinea-Bissau', 'Senegal']",,Bassari-Bedik-Bapen,Bassari-Bedik-Bapen,bass1258,Atlantic-Congo,atla1278,Africa,1,Tenda,African Savannah,Niger-Congo
nucl1347,wolo1247,Wolof,language,wol,wol,15.2534,-15.383,['Africa'],"['Gambia', 'Guinea-Bissau', 'Mali', 'Mauritania', 'Senegal']",,Wolofic,Wolofic,nucl1347,Atlantic-Congo,atla1278,Africa,1,Wolof,African Savannah,Niger-Congo
came1252,east2806,Donga Mambila,language,mcu,mcu,6.43829,11.41953,['Africa'],"['Cameroon', 'Nigeria']",,Eastern Mambila,Eastern Mambila,came1252,Atlantic-Congo,atla1278,Africa,1,,,
nige1255,mamb1312,Western Mambila,language,mzk,mzk,6.69736,11.3161,['Africa'],"['Cameroon', 'Nigeria']",,Mambila,Mambila,nige1255,Atlantic-Congo,atla1278,Africa,1,,,
vute1244,vute1246,Vute,language,vut,vut,6.13603,11.8839,['Africa'],"['Cameroon', 'Nigeria']",,Vute-Wawa,Vute-Wawa,vute1244,Atlantic-Congo,atla1278,Africa,1,,,
tika1246,nort3168,Tikar,language,tik,tik,5.87004,11.6104,['Africa'],['Cameroon'],,Northern Bantoid,Northern Bantoid,tika1246,Atlantic-Congo,atla1278,Africa,1,Tikar,African Savannah,Niger-Congo
noon1243,noon1245,Noone,language,nhu,nhu,6.37256,10.5707,['Africa'],['Cameroon'],,Nooni-Ncane,Nooni-Ncane,noon1243,Atlantic-Congo,atla1278,Africa,1,Beboid,African Savannah,Niger-Congo
bekw1241,bend1256,Bekwarra,language,bkv,bkv,6.73737,8.86489,['Africa'],['Nigeria'],,Bendic,Bendic,bekw1241,Atlantic-Congo,atla1278,Africa,1,,,
ekaj1238,nnam1239,Ekajuk,language,eka,eka,6.45731,8.55058,['Africa'],['Nigeria'],,Bakor,Nnam-Ekajuk,ekaj1238,Atlantic-Congo,atla1278,Africa,1,,,
ejag1239,ejag1240,Ejagham,language,etu,etu,5.54442,8.90959,['Africa'],"['Cameroon', 'Nigeria']",,Bakor-Ejagham,Bakor-Ejagham,ejag1239,Atlantic-Congo,atla1278,Africa,1,Ekoid-Mbe,African Savannah,Niger-Congo
deny1238,kend1255,Denya,language,anv,anv,5.97237,9.39989,['Africa'],"['Cameroon', 'Nigeria']",,Kendem-Denya,Kendem-Denya,deny1238,Atlantic-Congo,atla1278,Africa,1,,,
keny1279,mamf1238,Kenyang,language,ken,ken,5.58288,9.55918,['Africa'],['Cameroon'],,Mamfe,Mamfe,keny1279,Atlantic-Congo,atla1278,Africa,1,Mamfe,African Savannah,Niger-Congo
bafi1243,lefa1243,Bafia,language,ksf,ksf,4.72603,11.0982,['Africa'],['Cameroon'],,Lefa-Bafia,Lefa-Bafia,bafi1243,Atlantic-Congo,atla1278,Africa,1,Bantu,African Savannah,Niger-Congo
bulu1251,yaun1239,Bulu (Cameroon),language,bum,bum,3.16141,11.6365,['Africa'],['Cameroon'],,Yaunde-Fang (A.70),Yaunde-Fang (A.70),bulu1251,Atlantic-Congo,atla1278,Africa,1,Bantu,African Savannah,Niger-Congo
akoo1248,cent2284,Akoose,language,bss,bss,4.9243,9.65522,['Africa'],['Cameroon'],,Central Manenguba,Central Manenguba,akoo1248,Atlantic-Congo,atla1278,Africa,1,,,
kako1242,maka1327,Kako,language,kkj,kkj,3.79989,15.6282,['Africa'],"['Central African Republic', 'Congo', 'Cameroon']",,Makaa-Njem (A.80),Makaa-Kako (A.80-90),kako1242,Atlantic-Congo,atla1278,Africa,1,,,
koon1245,njem1234,Koonzime,language,ozm,ozm,3.25933,13.54152,['Africa'],['Cameroon'],,Njemic,Njemic,koon1245,Atlantic-Congo,atla1278,Africa,1,,,
maka1304,nort3375,Makaa,language,mcp,mcp,4.15471,13.0789,['Africa'],['Cameroon'],,Makaaic,North-Central Makaaic,maka1304,Atlantic-Congo,atla1278,Africa,1,Bantu,African Savannah,Niger-Congo
mbun1249,mbwe1239,Mbunda,language,mck,mck,-14.603,21.9768,['Africa'],"['Angola', 'Zambia']",,Mbwela-Mbunda,Mbwela-Mbunda,mbun1249,Atlantic-Congo,atla1278,Africa,1,,,
zemb1238,here1252,Zemba,language,dhm,dhm,-17.2958,13.4424,['Africa'],"['Angola', 'Namibia']",,Herero (R.30),Herero (R.30),zemb1238,Atlantic-Congo,atla1278,Africa,1,,,
kuan1247,ndon1253,Kuanyama,language,kua,kua,-17.7176,16.58,['Africa'],"['Angola', 'Namibia']",,Ndonga (R.20),Ndonga (R.20),kuan1247,Atlantic-Congo,atla1278,Africa,1,,,
ndon1254,kwam1257,Ndonga,language,ndo,ndo,-17.22,17.35,['Africa'],"['Angola', 'Namibia']",,Kwambi-Ndonga,Kwambi-Ndonga,ndon1254,Atlantic-Congo,atla1278,Africa,1,Bantu,S Africa,Niger-Congo
kele1255,kele1265,Kele-Foma,language,khy,khy,0.36906,24.3098,['Africa'],"['Congo, The Democratic Republic of the']",,Kele-Lombo,Kele-Lombo,kele1255,Atlantic-Congo,atla1278,Africa,1,,,
mong1338,lomo1242,Mongo,language,lol,lol,-1.54228,20.4259,['Africa'],"['Congo, The Democratic Republic of the']",,Lomongo,Lomongo,mong1338,Atlantic-Congo,atla1278,Africa,1,Bantu,S Africa,Niger-Congo
ngom1268,ngom1274,Ngombe (Democratic Republic of Congo),language,ngc,ngc,1.45357,20.14148,['Africa'],"['Congo, The Democratic Republic of the', 'Central African Republic']",,Ngombe-Genja,Ngombe-Genja,ngom1268,Atlantic-Congo,atla1278,Africa,1,Bantu,S Africa,Niger-Congo
loba1239,loba1240,Lobala,language,loq,loq,2.04881,18.3667,['Africa'],"['Congo, The Democratic Republic of the', 'Congo']",,Ngiri Riverain Ubangi-Interieur,Lobalic,loba1239,Atlantic-Congo,atla1278,Africa,1,,,
ling1263,ling1269,Kinshasa Lingala,language,lin,lin,-4.409174,15.28532,['Africa'],"['Congo, The Democratic Republic of the', 'Central African Republic', 'Congo']",,Lingala-Bangala,Lingala-Bangala,ling1263,Atlantic-Congo,atla1278,Africa,1,Bantu,S Africa,Niger-Congo
beem1239,kiko1234,Beembe,language,beq,beq,-3.95895,14.1,['Africa'],['Congo'],,Nuclear Northern Kikongo,Kikongoic,beem1239,Atlantic-Congo,atla1278,Africa,1,Bantu,S Africa,Niger-Congo
laar1238,nort3267,Laari,language,ldi,ldi,-4.25,14.9,['Africa'],"['Angola', 'Congo, The Democratic Republic of the', 'Congo']",,Nuclear Northern Kikongo,Nuclear Northern Kikongo,laar1238,Atlantic-Congo,atla1278,Africa,1,,,
koon1244,koon1247,South-Central Koongo,language,kng,kng,-5.57722,14.4771,['Africa'],"['Angola', 'Congo, The Democratic Republic of the', 'Congo']",,Koongo-Kituba,Koongo-Kituba,koon1244,Atlantic-Congo,atla1278,Africa,1,,,
ilaa1246,kafu1239,Ila,language,ilb,ilb,-15.60807,26.45548,['Africa'],['Zambia'],,Kafue,Kafue,ilaa1246,Atlantic-Congo,atla1278,Africa,1,Bantu,S Africa,Niger-Congo
lenj1248,kafu1239,Lenje,language,leh,leh,-14.7192,28.2581,['Africa'],['Zambia'],,Kafue,Kafue,lenj1248,Atlantic-Congo,atla1278,Africa,1,,,
lamb1272,nyik1250,Lambya,language,lai,lai,-9.49372,33.15852,['Africa'],"['Malawi', 'Tanzania, United Republic of', 'Zambia']",,Nyika-Lambya,Nyika-Lambya,lamb1272,Atlantic-Congo,atla1278,Africa,1,,,
nyak1260,nyak1264,Nyakyusa-Ngonde,language,nyy,nyy,-9.71018,33.7763,['Africa'],"['Malawi', 'Tanzania, United Republic of']",,Nyakyusa-Ndali,Nyakyusa-Ndali,nyak1260,Atlantic-Congo,atla1278,Africa,1,,,
koti1238,maku1247,Koti,language,eko,eko,-16.4823,39.7602,['Africa'],['Mozambique'],,North Mozambique Bantu,North Mozambique Bantu,koti1238,Atlantic-Congo,atla1278,Africa,1,Bantu,S Africa,Niger-Congo
makh1261,maku1279,Makhuwa-Meetto,language,mgh,mgh,-11.9553,38.6874,['Africa'],"['Mozambique', 'Tanzania, United Republic of']",,Makua-Lomwe,Makua-Lomwe,makh1261,Atlantic-Congo,atla1278,Africa,1,,,
thar1283,nort3214,Tharaka,language,thk,thk,-0.13221,38.073,['Africa'],['Kenya'],,Northern Central Kenya Bantu,Northern Central Kenya Bantu,thar1283,Atlantic-Congo,atla1278,Africa,1,,,
kiku1240,kiku1241,Kikuyu,language,kik,kik,-0.29005,36.719,['Africa'],['Kenya'],,Kikuyu-Embu,Kikuyu-Embu,kiku1240,Atlantic-Congo,atla1278,Africa,1,Bantu,S Africa,Niger-Congo
gusi1247,nort3227,Gusii,language,guz,guz,-0.78872,34.76751,['Africa'],"['Kenya', 'Tanzania, United Republic of']",,North Mara,North Mara,gusi1247,Atlantic-Congo,atla1278,Africa,1,Bantu,S Africa,Niger-Congo
suba1238,nort3227,Suba,language,sxb,sxb,-0.95719,34.1033,['Africa'],"['Kenya', 'Uganda']",,North Mara,North Mara,suba1238,Atlantic-Congo,atla1278,Africa,1,,,
masa1299,nort3404,Masaaba,language,myx,myx,1.05906,34.2829,['Africa'],"['Kenya', 'Uganda']",,Saamia-Wanga-Bukusu,Northern Luyia,masa1299,Atlantic-Congo,atla1278,Africa,1,,,
saam1283,west2858,Saamia,language,lsm,lsm,0.3652,34.0335,['Africa'],"['Kenya', 'Uganda']",,Western Luyia,Western Luyia,saam1283,Atlantic-Congo,atla1278,Africa,1,,,
gand1255,nort3220,Ganda,language,lug,lug,0.66884,32.15153,['Africa'],['Uganda'],,North Nyanza,North Nyanza,gand1255,Atlantic-Congo,atla1278,Africa,1,Bantu,S Africa,Niger-Congo
nyan1307,nkor1241,Nyankole,language,nyn,nyn,-0.46364,30.548,['Africa'],"['Rwanda', 'Tanzania, United Republic of', 'Uganda']",,Nkore-Kiga,Nkore-Kiga,nyan1307,Atlantic-Congo,atla1278,Africa,1,Bantu,S Africa,Niger-Congo
nyor1246,nyor1247,Nyoro,language,nyo,nyo,0.95294,31.3493,['Africa'],['Uganda'],,Nyoro-Tooro,Nyoro-Tooro,nyor1246,Atlantic-Congo,atla1278,Africa,1,Bantu,S Africa,Niger-Congo
haya1250,sout3202,Haya,language,hay,hay,-1.70878,31.4846,['Africa'],"['Tanzania, United Republic of', 'Uganda']",,South Rutara,South Rutara,haya1250,Atlantic-Congo,atla1278,Africa,1,Bantu,S Africa,Niger-Congo
kiny1244,rwan1241,Kinyarwanda,language,kin,kin,-1.56771,29.6441,['Africa'],"['Burundi', 'Congo, The Democratic Republic of the', 'Rwanda', 'Tanzania, United Republic of', 'Uganda']",,West Highlands Kivu,West Highlands Kivu,kiny1244,Atlantic-Congo,atla1278,Africa,1,Bantu,S Africa,Niger-Congo
rund1242,rwan1241,Rundi,language,run,run,-2.94,29.97,['Africa'],"['Burundi', 'Congo, The Democratic Republic of the', 'Rwanda', 'Tanzania, United Republic of', 'Uganda']",,West Highlands Kivu,West Highlands Kivu,rund1242,Atlantic-Congo,atla1278,Africa,1,Bantu,S Africa,Niger-Congo
nand1264,konz1238,Nande,language,nnb,nnb,-0.24904,29.0243,['Africa'],"['Congo, The Democratic Republic of the', 'Uganda']",,Rwenzori,Rwenzori,nand1264,Atlantic-Congo,atla1278,Africa,1,Bantu,S Africa,Niger-Congo
moch1256,cent2286,Mochi,language,old,old,-3.33743,37.3357,['Africa'],"['Tanzania, United Republic of']",,Central Kilimanjaro,Central Kilimanjaro,moch1256,Atlantic-Congo,atla1278,Africa,1,,,
vunj1238,cent2286,Vunjo,language,vun,vun,-3.42531,37.5847,['Africa'],"['Kenya', 'Tanzania, United Republic of']",,Central Kilimanjaro,Central Kilimanjaro,vunj1238,Atlantic-Congo,atla1278,Africa,1,,,
mach1266,west2852,Machame,language,jmc,jmc,-3.29385,37.0703,['Africa'],"['Tanzania, United Republic of']",,West Kilimanjaro,West Kilimanjaro,mach1266,Atlantic-Congo,atla1278,Africa,1,,,
duru1249,nort3232,Duruma,language,dug,dug,-4.09629,39.322,['Africa'],"['Kenya', 'Tanzania, United Republic of']",,Northern Mijikenda,Northern Mijikenda,duru1249,Atlantic-Congo,atla1278,Africa,1,,,
giry1241,nort3232,Giryama,language,nyf,nyf,-3.30638,39.6648,['Africa'],['Kenya'],,Northern Mijikenda,Northern Mijikenda,giry1241,Atlantic-Congo,atla1278,Africa,1,,,
digo1243,sout3204,Digo,language,dig,dig,-4.62101,39.1752,['Africa'],"['Kenya', 'Tanzania, United Republic of']",,Southern Mijikenda,Southern Mijikenda,digo1243,Atlantic-Congo,atla1278,Africa,1,,,
poko1261,miji1240,Pokomo,language,pkb,pkb,-2.31587,40.2897,['Africa'],['Kenya'],,Mijikenda-Pokomo-Comorian,Mijikenda-Pokomo-Comorian,poko1261,Atlantic-Congo,atla1278,Africa,1,,,
mwan1247,saba1282,Mwani,language,wmw,wmw,-12.5821,40.4601,['Africa'],['Mozambique'],,Sabaki-Swahili,Sabaki-Swahili,mwan1247,Atlantic-Congo,atla1278,Africa,1,,,
swah1253,momb1256,Swahili,language,swh,swh,-8.25605,37.624,['Africa'],"['Burundi', 'Kenya', 'Mozambique', 'Rwanda', 'Somalia', 'Tanzania, United Republic of', 'Uganda']",,Mombasa-Lamu-Inland Swahili,Mombasa-Lamu-Inland Swahili,swah1253,Atlantic-Congo,atla1278,Africa,1,Bantu,S Africa,Niger-Congo
kutu1263,kutu1267,Kutu,language,kdc,kdc,-7.23789,37.8623,['Africa'],"['Tanzania, United Republic of']",,Kutu-Zaramo,Kutu-Zaramo,kutu1263,Atlantic-Congo,atla1278,Africa,1,,,
kwer1261,cent2287,Kwere,language,cwe,cwe,-6.50666,38.4449,['Africa'],"['Tanzania, United Republic of']",,Central East Ruvu,Central East Ruvu,kwer1261,Atlantic-Congo,atla1278,Africa,1,,,
lugu1238,east2756,Luguru,language,ruf,ruf,-6.86828,37.5557,['Africa'],"['Tanzania, United Republic of']",,East Ruvu,East Ruvu,lugu1238,Atlantic-Congo,atla1278,Africa,1,,,
kagu1239,ruvu1235,Kagulu,language,kki,kki,-6.38204,37.0534,['Africa'],"['Tanzania, United Republic of']",,Ruvu,Ruvu,kagu1239,Atlantic-Congo,atla1278,Africa,1,Bantu,S Africa,Niger-Congo
gogo1263,west2846,Gogo,language,gog,gog,-6.35951,35.4807,['Africa'],"['Tanzania, United Republic of']",,West Ruvu,West Ruvu,gogo1263,Atlantic-Congo,atla1278,Africa,1,,,
ngul1246,zigu1243,Ngulu,language,ngp,ngp,-5.79734,37.6823,['Africa'],"['Tanzania, United Republic of']",,Zigua-Nguu,Zigua-Nguu,ngul1246,Atlantic-Congo,atla1278,Africa,1,,,
zigu1244,zigu1243,Zigula-Mushungulu,language,ziw,ziw,-5.61864,38.41138,['Africa'],"['Tanzania, United Republic of']",,Zigua-Nguu,Zigua-Nguu,zigu1244,Atlantic-Congo,atla1278,Africa,1,,,
hehe1240,bena1273,Hehe,language,heh,heh,-7.71572,35.7255,['Africa'],"['Tanzania, United Republic of']",,Bena-Hehe,Bena-Hehe,hehe1240,Atlantic-Congo,atla1278,Africa,1,Bantu,S Africa,Niger-Congo
suku1261,nyam1286,Sukuma,language,suk,suk,-3.16082,32.8765,['Africa'],"['Tanzania, United Republic of']",,Nyamwezic,Nyamwezic,suku1261,Atlantic-Congo,atla1278,Africa,1,Bantu,S Africa,Niger-Congo
lega1250,lega1253,Lega-Mwenga,language,lgm,lgm,-3.39007,28.2621,['Africa'],"['Congo, The Democratic Republic of the']",,Lega,Lega,lega1250,Atlantic-Congo,atla1278,Africa,1,,,
nila1242,nyat1247,Nilamba,language,nim,nim,-4.50002,34.3068,['Africa'],"['Tanzania, United Republic of']",,Nyaturu-Nilamba,Nyaturu-Nilamba,nila1242,Atlantic-Congo,atla1278,Africa,1,,,
nyat1246,nyat1247,Nyaturu,language,rim,rim,-5.12263,34.6657,['Africa'],"['Tanzania, United Republic of']",,Nyaturu-Nilamba,Nyaturu-Nilamba,nyat1246,Atlantic-Congo,atla1278,Africa,1,Bantu,S Africa,Niger-Congo
ndam1239,pogo1242,Ndamba,language,ndj,ndj,-8.40485,36.0271,['Africa'],"['Tanzania, United Republic of']",,Kilombero,Kilombero,ndam1239,Atlantic-Congo,atla1278,Africa,1,,,
pogo1243,pogo1242,Pogolo,language,poy,poy,-8.72283,36.4148,['Africa'],"['Tanzania, United Republic of']",,Kilombero,Kilombero,pogo1243,Atlantic-Congo,atla1278,Africa,1,Bantu,S Africa,Niger-Congo
ngin1244,nden1251,Ngindo,language,nnq,nnq,-9.78145,37.9832,['Africa'],"['Tanzania, United Republic of']",,Ndendeule-Ngindo,Ndendeule-Ngindo,ngin1244,Atlantic-Congo,atla1278,Africa,1,,,
mako1251,mako1254,Makonde,language,kde,kde,-10.9906,39.5133,['Africa'],"['Mozambique', 'Tanzania, United Republic of']",,Makonde-Makwe,Makonde-Makwe,mako1251,Atlantic-Congo,atla1278,Africa,1,Bantu,S Africa,Niger-Congo
bemb1257,bemb1256,Bemba (Zambia),language,bem,bem,-10.6122,29.2993,['Africa'],"['Botswana', 'Congo, The Democratic Republic of the', 'Malawi', 'Zambia']",,Bemba (M.40),Bemba (M.40),bemb1257,Atlantic-Congo,atla1278,Africa,1,Bantu,S Africa,Niger-Congo
lamb1271,bisa1262,Lamba,language,lam,lam,-12.3366,27.9026,['Africa'],"['Congo, The Democratic Republic of the', 'Zambia']",,Bisa-Lamba (M.50),Bisa-Lamba (M.50),lamb1271,Atlantic-Congo,atla1278,Africa,1,Bantu,S Africa,Niger-Congo
nort2795,swat1244,Zimbabwean Ndebele,language,nde,nde,-20.2513,27.4096,['Africa'],"['Botswana', 'Zambia', 'Zimbabwe']",,Southern Ndebele-Lowland,Swatic,nort2795,Atlantic-Congo,atla1278,Africa,1,,,
swat1243,swat1244,Swati,language,ssw,ssw,-26.0,31.5,['Africa'],"['Lesotho', 'Mozambique', 'Eswatini', 'South Africa']",,Southern Ndebele-Lowland,Swatic,swat1243,Atlantic-Congo,atla1278,Africa,1,Bantu,S Africa,Niger-Congo
xhos1239,ngun1267,Xhosa,language,xho,xho,-31.0389,28.0769,['Africa'],"['Botswana', 'Lesotho', 'South Africa']",,Southern Ndebele-Lowland,Southern Ndebele-Lowland,xhos1239,Atlantic-Congo,atla1278,Africa,1,Bantu,S Africa,Niger-Congo
zulu1248,ngun1267,Zulu,language,zul,zul,-28.9,30.2,['Africa'],"['Botswana', 'Lesotho', 'Mozambique', 'Eswatini', 'South Africa']",,Southern Ndebele-Lowland,Southern Ndebele-Lowland,zulu1248,Atlantic-Congo,atla1278,Africa,1,Bantu,S Africa,Niger-Congo
gito1238,chop1242,Gitonga,language,toh,toh,-23.7964,35.1577,['Africa'],['Mozambique'],,Chopi (S.60),Chopi (S.60),gito1238,Atlantic-Congo,atla1278,Africa,1,,,
tson1249,tson1251,Tsonga,language,tso,tso,-23.5754,31.8105,['Africa'],"['Mozambique', 'Eswatini', 'South Africa', 'Zimbabwe']",,Tswa-Ronga (S.50),Tsongan,tson1249,Atlantic-Congo,atla1278,Africa,1,Bantu,S Africa,Niger-Congo
pedi1238,sepe1241,Pedi,language,nso,nso,-24.7993,29.4718,['Africa'],"['Botswana', 'South Africa']",,Sepedic,Sepedic,pedi1238,Atlantic-Congo,atla1278,Africa,1,Bantu,S Africa,Niger-Congo
lozi1239,seso1234,Lozi,language,loz,loz,-17.7052,24.7398,['Africa'],"['Botswana', 'Namibia', 'Zambia', 'Zimbabwe']",,Sesotho-Lozi,Sesotho-Lozi,lozi1239,Atlantic-Congo,atla1278,Africa,1,Bantu,S Africa,Niger-Congo
sout2807,seso1234,Southern Sotho,language,sot,sot,-28.78,27.89,['Africa'],"['Lesotho', 'South Africa']",,Sesotho-Lozi,Sesotho-Lozi,sout2807,Atlantic-Congo,atla1278,Africa,1,Bantu,S Africa,Niger-Congo
tswa1253,cent2406,Tswana,language,tsn,tsn,-24.368,24.7587,['Africa'],"['Botswana', 'Namibia', 'South Africa', 'Zambia', 'Zimbabwe']",,Sotho-Tswana (S.30),Central Sotho-Tswana,tswa1253,Atlantic-Congo,atla1278,Africa,1,Bantu,S Africa,Niger-Congo
vend1245,nucl1826,Venda,language,ven,ven,-22.188,29.9523,['Africa'],"['Botswana', 'South Africa', 'Zimbabwe']",,East Bantu,Nuclear Southern Bantu,vend1245,Atlantic-Congo,atla1278,Africa,1,Bantu,S Africa,Niger-Congo
ndau1241,core1255,Ndau,language,ndc,ndc,-20.1239,33.1739,['Africa'],"['Mozambique', 'Zimbabwe']",,Core Shona,Core Shona,ndau1241,Atlantic-Congo,atla1278,Africa,1,,,
shon1251,cent2310,Shona,language,sna,sna,-17.20849,29.75725,['Africa'],"['Botswana', 'South Africa', 'Zambia', 'Zimbabwe']",,Central Shona,Central Shona,shon1251,Atlantic-Congo,atla1278,Africa,1,Bantu,S Africa,Niger-Congo
kala1384,kala1405,Kalanga,language,kck,kck,-21.2887,27.401,['Africa'],"['Botswana', 'South Africa', 'Zimbabwe']",,Kalanga-Nambya,Kalanga-Nambya,kala1384,Atlantic-Congo,atla1278,Africa,1,Bantu,S Africa,Niger-Congo
nyan1308,nyan1319,Nyanja,language,nya,nya,-14.8047,32.8108,['Africa'],"['Malawi', 'Mozambique', 'Eswatini', 'Tanzania, United Republic of', 'Zambia', 'Zimbabwe']",,Nyanjaic,Nyanjaic,nyan1308,Atlantic-Congo,atla1278,Africa,1,Bantu,S Africa,Niger-Congo
nucl1396,sena1270,Sena,language,seh,seh,-19.7933,34.9829,['Africa'],"['Malawi', 'Mozambique']",,Senaic,Senaic,nucl1396,Atlantic-Congo,atla1278,Africa,1,Bantu,S Africa,Niger-Congo
nyun1248,sena1270,Nyungwe,language,nyu,nyu,-16.4757,33.0233,['Africa'],"['Malawi', 'Mozambique', 'Zimbabwe']",,Senaic,Senaic,nyun1248,Atlantic-Congo,atla1278,Africa,1,,,
tumb1250,tumb1252,Tumbuka,language,tum,tum,-11.3297,33.3738,['Africa'],"['Malawi', 'Zambia']",,Tumbukic,Tumbukic,tumb1250,Atlantic-Congo,atla1278,Africa,1,,,
noma1260,mand1474,Nomaande,language,lem,lem,4.5893,10.9157,['Africa'],['Cameroon'],,Mandi-Nyokon,Mandi-Nyokon,noma1260,Atlantic-Congo,atla1278,Africa,1,,,
limb1268,nkam1238,Limbum,language,lmp,lmp,6.58608,10.9802,['Africa'],"['Cameroon', 'Nigeria']",,Nkambe,Nkambe,limb1268,Atlantic-Congo,atla1278,Africa,1,,,
yamb1251,nkam1238,Yamba,language,yam,yam,6.535505,11.07711,['Africa'],"['Cameroon', 'Nigeria']",,Nkambe,Nkambe,yamb1251,Atlantic-Congo,atla1278,Africa,1,Wide Grassfields,African Savannah,Niger-Congo
ghom1247,east2862,Ghomálá',language,bbj,bbj,5.39619,10.352,['Africa'],['Cameroon'],,Bamileke,East Bamileke,ghom1247,Atlantic-Congo,atla1278,Africa,1,,,
bafu1246,mank1258,Bafut,language,bfd,bfd,6.14153,10.1194,['Africa'],['Cameroon'],,Ngembaic,Mankonic,bafu1246,Atlantic-Congo,atla1278,Africa,1,Wide Grassfields,African Savannah,Niger-Congo
mund1327,mund1338,Mundani,language,mnf,mnf,5.68073,9.91533,['Africa'],['Cameroon'],,Mundani-Njen,Mundani-Njen,mund1327,Atlantic-Congo,atla1278,Africa,1,Wide Grassfields,African Savannah,Niger-Congo
veng1238,babu1241,Vengo,language,bav,bav,6.11403,10.4137,['Africa'],['Cameroon'],,Babungoic,Babungoic,veng1238,Atlantic-Congo,atla1278,Africa,1,Wide Grassfields,African Savannah,Niger-Congo
izer1241,izer1242,Izere,language,izr,izr,9.5,8.7,['Africa'],['Nigeria'],,Izeric,Izeric,izer1241,Atlantic-Congo,atla1278,Africa,1,,,
bero1242,iten1244,Berom,language,bom,bom,9.67037,8.81221,['Africa'],['Nigeria'],,Iten-Cara-Berom,Iten-Cara-Berom,bero1242,Atlantic-Congo,atla1278,Africa,1,Benue-Congo Plateau,African Savannah,Niger-Congo
mada1282,ruku1240,Mada (Nigeria),language,mda,mda,9.02294,8.34119,['Africa'],['Nigeria'],,Ninzic,Rukubic,mada1282,Atlantic-Congo,atla1278,Africa,1,Benue-Congo Plateau,African Savannah,Niger-Congo
ninz1246,ruku1240,Ninzo,language,nin,nin,8.95791,8.47328,['Africa'],['Nigeria'],,Ninzic,Rukubic,ninz1246,Atlantic-Congo,atla1278,Africa,1,,,
yoru1245,lucu1239,Yoruba,language,yor,yor,7.15345,3.67225,['Africa'],"['Benin', 'Nigeria']",,Lucumi-Yoruba,Lucumi-Yoruba,yoru1245,Atlantic-Congo,atla1278,Africa,1,Defoid,African Savannah,Niger-Congo
efik1245,efik1244,Efik,language,efi,efi,4.89379,8.38121,['Africa'],"['Cameroon', 'Nigeria']",,Efik-Ibibio,Efik-Ibibio,efik1245,Atlantic-Congo,atla1278,Africa,1,Lower Cross,African Savannah,Niger-Congo
obol1243,obol1244,Obolo,language,ann,ann,4.62851,7.81985,['Africa'],['Nigeria'],,Oboloic,Oboloic,obol1243,Atlantic-Congo,atla1278,Africa,1,Lower Cross,African Savannah,Niger-Congo
goka1239,east2401,Gokana,language,gkn,gkn,4.61889,7.34457,['Africa'],['Nigeria'],,East Ogonoid,East Ogonoid,goka1239,Atlantic-Congo,atla1278,Africa,1,Ogonoid,African Savannah,Niger-Congo
kuke1242,kuke1241,Kukele,language,kez,kez,6.70286,8.39343,['Africa'],['Nigeria'],,Kukele-Uzekwe,Kukele-Uzekwe,kuke1242,Atlantic-Congo,atla1278,Africa,1,,,
gbag1258,gbag1256,Gbagyi,language,gbr,gbr,9.29842,6.90495,['Africa'],['Nigeria'],,Gbagyi-Gbari,Gbagyi-Gbari,gbag1258,Atlantic-Congo,atla1278,Africa,1,,,
ikaa1238,igbo1259,Ika,language,ikk,ikk,6.36423,6.31058,['Africa'],['Nigeria'],,Nuclear Igboid,Nuclear Igboid,ikaa1238,Atlantic-Congo,atla1278,Africa,1,,,
ikwe1242,igbo1259,Ikwere,language,ikw,ikw,5.04333,6.86651,['Africa'],['Nigeria'],,Nuclear Igboid,Nuclear Igboid,ikwe1242,Atlantic-Congo,atla1278,Africa,1,,,
izii1239,izie1238,Izi,dialect,izz,izz,6.33,8.0,['Africa'],['Nigeria'],,Nuclear Igboid,Izi-Ezaa-Ikwo-Mgbo,izii1239,Atlantic-Congo,atla1278,Africa,1,,,
nucl1417,igbo1259,Igbo,language,ibo,ibo,4.62705,7.23441,['Africa'],['Nigeria'],,Nuclear Igboid,Nuclear Igboid,nucl1417,Atlantic-Congo,atla1278,Africa,1,Igboid,African Savannah,Niger-Congo
juku1254,jibu1241,Jukun Takum,language,jbu,jbu,7.20236,10.2576,['Africa'],"['Cameroon', 'Nigeria']",,Jukun,Jibuic,juku1254,Atlantic-Congo,atla1278,Africa,1,Jukunoid,African Savannah,Niger-Congo
kute1248,juku1257,Kutep,language,kub,kub,7.07479,10.0916,['Africa'],"['Cameroon', 'Nigeria']",,Jukunoid,Jukunoid,kute1248,Atlantic-Congo,atla1278,Africa,1,,,
cish1238,west2828,Western-Kambari-Cishingini,language,asg,asg,9.88458,4.48564,['Africa'],"['Benin', 'Nigeria']",,West Kambaric,West Kambaric,cish1238,Atlantic-Congo,atla1278,Africa,1,,,
gaaa1244,gada1257,Ga,language,gaa,gaa,5.65488,-0.18598,['Africa'],['Ghana'],,Ga-Dangme,Ga-Dangme,gaaa1244,Atlantic-Congo,atla1278,Africa,1,,,
fonn1241,fong1244,Fon,language,fon,fon,7.15484,1.66495,['Africa'],"['Benin', 'Togo']",,Fongbeic,Fongbeic,fonn1241,Atlantic-Congo,atla1278,Africa,1,Gbe,African Savannah,Niger-Congo
ewee1241,ewei1234,Ewe,language,ewe,ewe,6.46061,0.814975,['Africa'],"['Ghana', 'Togo']",,Eweic,Eweic,ewee1241,Atlantic-Congo,atla1278,Africa,1,Gbe,African Savannah,Niger-Congo
lele1264,lele1263,Lelemi,language,lef,lef,7.34549,0.50746,['Africa'],"['Ghana', 'Togo']",,Lelemi-Akpafu,Lelemi-Akpafu,lele1264,Atlantic-Congo,atla1278,Africa,1,Na-Togo,African Savannah,Niger-Congo
sekp1241,likp1239,Sekpele,language,lip,lip,7.16751,0.5886,['Africa'],['Ghana'],,Likpe-Santrokofi,Likpe-Santrokofi,sekp1241,Atlantic-Congo,atla1278,Africa,1,,,
sele1249,likp1239,Selee,language,snw,snw,7.17462,0.42458,['Africa'],['Ghana'],,Likpe-Santrokofi,Likpe-Santrokofi,sele1249,Atlantic-Congo,atla1278,Africa,1,,,
adio1239,agne1238,Adioukrou,language,adj,adj,5.38228,-4.52522,['Africa'],"[""Côte d'Ivoire""]",,Agneby,Agneby,adio1239,Atlantic-Congo,atla1278,Africa,1,Agneby,African Savannah,Niger-Congo
alla1248,avik1242,Alladian,language,ald,ald,5.22371,-4.42647,['Africa'],"[""Côte d'Ivoire""]",,Avikam-Alladian,Avikam-Alladian,alla1248,Atlantic-Congo,atla1278,Africa,1,Avikam-Alladian,African Savannah,Niger-Congo
anuf1239,nort2767,Anufo,language,cko,cko,10.2839,0.56021,['Africa'],"['Benin', 'Ghana', 'Togo']",,Northern Bia,Northern Bia,anuf1239,Atlantic-Congo,atla1278,Africa,1,Tano,African Savannah,Niger-Congo
baou1238,nort2767,Baoulé,language,bci,bci,5.42509,-4.76565,['Africa'],"[""Côte d'Ivoire""]",,Northern Bia,Northern Bia,baou1238,Atlantic-Congo,atla1278,Africa,1,Tano,African Savannah,Niger-Congo
gonj1241,gonj1242,Gonja,language,gjn,gjn,8.48801,-0.72757,['Africa'],['Ghana'],,Gonja-Dompo,Gonja-Dompo,gonj1241,Atlantic-Congo,atla1278,Africa,1,,,
nkon1248,nkon1245,Nkonya,language,nko,nko,7.20316,0.3209,['Africa'],['Ghana'],,Nkonya-Nkami,Nkonya-Nkami,nkon1248,Atlantic-Congo,atla1278,Africa,1,Tano,African Savannah,Niger-Congo
giky1238,giky1241,Gikyode,language,acd,acd,8.39478,0.56975,['Africa'],"['Ghana', 'Togo']",,Gikyode-Foodo,Gikyode-Foodo,giky1238,Atlantic-Congo,atla1278,Africa,1,,,
chum1261,chum1265,Chumburung,language,ncu,ncu,8.15211,-0.2755,['Africa'],['Ghana'],,Chumbuli,Chumbuli,chum1261,Atlantic-Congo,atla1278,Africa,1,Tano,African Savannah,Niger-Congo
kimm1246,kimb1240,Kim,language,kia,kia,9.79442,15.8936,['Africa'],['Chad'],,Kim-Besme-Goundo,Kim-Besme-Goundo,kimm1246,Atlantic-Congo,atla1278,Africa,1,Kim,African Savannah,Niger-Congo
makn1235,makt1234,Mak (Nigeria),language,pbl,pbl,9.37299,11.1337,['Africa'],['Nigeria'],,Mak-Tal,Mak-Tal,makn1235,Atlantic-Congo,atla1278,Africa,1,,,
kuoo1238,cent2020,Kuo,language,xuo,xuo,7.97771,15.4843,['Africa'],"['Cameroon', 'Chad']",,Central Mbum,Central Mbum,kuoo1238,Atlantic-Congo,atla1278,Africa,1,Mbumic,African Savannah,Niger-Congo
mund1325,mund1324,Mundang,language,mua,mua,9.83195,14.4751,['Africa'],"['Cameroon', 'Chad']",,Mundangic,Mundangic,mund1325,Atlantic-Congo,atla1278,Africa,1,Mbumic,African Savannah,Niger-Congo
tupu1244,tupu1245,Tupuri,language,tui,tui,10.0144,14.8697,['Africa'],"['Cameroon', 'Chad']",,Tupuri-Mundang-Mambai,Tupuri-Mundang-Mambai,tupu1244,Atlantic-Congo,atla1278,Africa,1,Mbumic,African Savannah,Niger-Congo
nucl1240,mumu1250,Mumuye,language,mzm,mzm,8.90347,11.71545,['Africa'],['Nigeria'],,Mumuyic,Mumuyic,nucl1240,Atlantic-Congo,atla1278,Africa,1,Mumuye-Yandang,African Savannah,Niger-Congo
doya1240,nort3259,Doyayo,language,dow,dow,8.68604,13.0768,['Africa'],['Cameroon'],,Northern Samba Duru,Northern Samba Duru,doya1240,Atlantic-Congo,atla1278,Africa,1,Samba-Duru,African Savannah,Niger-Congo
diii1241,diic1235,Dii,language,dur,dur,7.77412,13.9884,['Africa'],['Cameroon'],,Diic,Diic,diii1241,Atlantic-Congo,atla1278,Africa,1,Samba-Duru,African Savannah,Niger-Congo
samb1305,samb1324,Samba Leko,language,ndi,ndi,8.19236,11.7366,['Africa'],"['Cameroon', 'Nigeria']",,Samba-Leko-Perema-Mumbake,Samba-Leko-Perema-Mumbake,samb1305,Atlantic-Congo,atla1278,Africa,1,Samba-Duru,African Savannah,Niger-Congo
mono1270,mids1242,Mono (Democratic Republic of Congo),language,mnh,mnh,4.57915,19.8264,['Africa'],"['Congo, The Democratic Republic of the', 'Central African Republic']",,Mid-Southern Central Core Bandaic,Mid-Southern Central Core Bandaic,mono1270,Atlantic-Congo,atla1278,Africa,1,,,
sang1328,sang1327,Sango,language,sag,sag,6.78584,20.1702,['Africa'],"['Congo, The Democratic Republic of the', 'Central African Republic', 'Congo', 'Chad']",,Sangoic,Sangoic,sang1328,Atlantic-Congo,atla1278,Africa,1,Ubangi,S Africa,Niger-Congo
mund1326,east2391,Mündü,language,muh,muh,4.22755,29.9967,['Africa'],"['Congo, The Democratic Republic of the', 'South Sudan']",,Eastern Mundu-Baka,Eastern Mundu-Baka,mund1326,Atlantic-Congo,atla1278,Africa,1,Ubangi,African Savannah,Niger-Congo
bomu1247,bwam1247,Bomu,language,bmq,bmq,12.3816,-4.538,['Africa'],"['Burkina Faso', 'Mali']",,Bwamu,Bwamu,bomu1247,Atlantic-Congo,atla1278,Africa,1,,,
buam1238,nucl1742,Buamu,language,box,box,11.1687,-3.50303,['Africa'],"['Burkina Faso', 'Mali']",,Nuclear Bwamu,Nuclear Bwamu,buam1238,Atlantic-Congo,atla1278,Africa,1,,,
buli1254,buli1253,Buli (Ghana),language,bwu,bwu,10.5763,-1.26748,['Africa'],['Ghana'],,Buli-Koma,Buli-Koma,buli1254,Atlantic-Congo,atla1278,Africa,1,Oti-Volta,African Savannah,Niger-Congo
konn1242,buli1253,Konni,language,kma,kma,10.2368,-1.54376,['Africa'],['Ghana'],,Buli-Koma,Buli-Koma,konn1242,Atlantic-Congo,atla1278,Africa,1,Oti-Volta,African Savannah,Niger-Congo
konk1269,konk1271,Konkomba,language,xon,xon,9.82224,0.2783,['Africa'],"['Ghana', 'Togo']",,Konkomba-Gangam,Konkomba-Gangam,konk1269,Atlantic-Congo,atla1278,Africa,1,Oti-Volta,African Savannah,Niger-Congo
ntch1242,ntch1241,Ntcham,language,bud,bud,9.23971,0.599275,['Africa'],"['Ghana', 'Togo']",,Gurma A,Gurma A,ntch1242,Atlantic-Congo,atla1278,Africa,1,Oti-Volta,African Savannah,Niger-Congo
fare1241,fraf1239,Farefare,language,gur,gur,11.0918,-0.81109,['Africa'],"['Burkina Faso', 'Ghana']",,Farefareic,Farefareic,fare1241,Atlantic-Congo,atla1278,Africa,1,Oti-Volta,African Savannah,Niger-Congo
moss1236,moss1238,Mossi,language,mos,mos,11.95,-1.32,['Africa'],"['Burkina Faso', ""Côte d'Ivoire"", 'Ghana', 'Mali', 'Togo']",,Mossic,Mossic,moss1236,Atlantic-Congo,atla1278,Africa,1,Oti-Volta,African Savannah,Niger-Congo
sout2790,biri1257,Southern Birifor,language,biv,biv,9.2873,-2.72672,['Africa'],"['Burkina Faso', ""Côte d'Ivoire"", 'Ghana']",,Birifor,Birifor,sout2790,Atlantic-Congo,atla1278,Africa,1,,,
hang1258,kama1375,Hanga,language,hag,hag,9.33929,-1.57833,['Africa'],['Ghana'],,Kamara-Hanga,Kamara-Hanga,hang1258,Atlantic-Congo,atla1278,Africa,1,,,
kusa1250,sout3205,Kusaal,language,kus,kus,10.9703,-0.38756,['Africa'],"['Burkina Faso', 'Ghana', 'Togo']",,Southeast Western Oti-Volta,Southeast Western Oti-Volta,kusa1250,Atlantic-Congo,atla1278,Africa,1,,,
mamp1244,mamp1246,Mampruli,language,maw,maw,10.3884,-0.74675,['Africa'],"['Ghana', 'Togo']",,Mampruli-Dagbani,Mampruli-Dagbani,mamp1244,Atlantic-Congo,atla1278,Africa,1,Oti-Volta,African Savannah,Niger-Congo
dita1238,dita1239,Ditammari,language,tbz,tbz,10.1614,1.18045,['Africa'],"['Benin', 'Togo']",,Ditammaric,Ditammaric,dita1238,Atlantic-Congo,atla1278,Africa,1,,,
baat1238,sout3164,Baatonum,language,bba,bba,9.63186,2.99607,['Africa'],"['Benin', 'Nigeria']",,Southern Central Gur,Southern Central Gur,baat1238,Atlantic-Congo,atla1278,Africa,1,Baatonum,African Savannah,Niger-Congo
kabi1261,kabi1265,Kabiyé,language,kbp,kbp,8.96816,0.495023,['Africa'],"['Benin', 'Ghana', 'Togo']",,Kabiyeic,Kabiyeic,kabi1261,Atlantic-Congo,atla1278,Africa,1,Grusi,African Savannah,Niger-Congo
lama1275,kabi1265,Lama (Togo),language,las,las,8.66954,0.833293,['Africa'],"['Benin', 'Ghana', 'Togo']",,Kabiyeic,Kabiyeic,lama1275,Atlantic-Congo,atla1278,Africa,1,,,
lukp1238,kabi1265,Lukpa,language,dop,dop,9.51949,1.66954,['Africa'],"['Benin', 'Togo']",,Kabiyeic,Kabiyeic,lukp1238,Atlantic-Congo,atla1278,Africa,1,,,
temm1241,temc1234,Tem,language,kdh,kdh,8.967,1.136,['Africa'],"['Benin', 'Ghana', 'Togo']",,Tem-Chala,Tem-Chala,temm1241,Atlantic-Congo,atla1278,Africa,1,Grusi,African Savannah,Niger-Congo
vagl1239,chak1273,Vagla,language,vag,vag,9.33848,-2.31333,['Africa'],['Ghana'],,Chakali-Tamprusi-Vagala,Chakali-Tamprusi-Vagala,vagl1239,Atlantic-Congo,atla1278,Africa,1,Grusi,African Savannah,Niger-Congo
degg1238,chak1272,Deg,language,mzw,mzw,8.43846,-2.28724,['Africa'],"[""Côte d'Ivoire"", 'Ghana']",,Chakalic,Chakalic,degg1238,Atlantic-Congo,atla1278,Africa,1,,,
siss1242,nort3229,Sissala of Burkina Faso,language,sld,sld,11.0916,-2.38217,['Africa'],"['Burkina Faso', 'Ghana']",,Northwestern Sisaala,Northwestern Sisaala,siss1242,Atlantic-Congo,atla1278,Africa,1,,,
paas1238,sisa1248,Paasaal,language,sig,sig,10.2004,-1.8048,['Africa'],['Ghana'],,Sisaala,Sisaala,paas1238,Atlantic-Congo,atla1278,Africa,1,,,
tumu1242,sisa1248,Tumulung Sisaala,language,sil,sil,10.63451,-1.79707,['Africa'],['Ghana'],,Sisaala,Sisaala,tumu1242,Atlantic-Congo,atla1278,Africa,1,,,
kase1253,nuna1234,Kasem,language,xsm,xsm,11.0824,-1.39076,['Africa'],"['Burkina Faso', 'Ghana']",,Nuna-Kasem,Nuna-Kasem,kase1253,Atlantic-Congo,atla1278,Africa,1,Grusi,African Savannah,Niger-Congo
sout2795,nuni1253,Southern Nuni,language,nnw,nnw,11.5186,-2.14385,['Africa'],"['Burkina Faso', 'Ghana']",,Nuni,Nuni,sout2795,Atlantic-Congo,atla1278,Africa,1,,,
cerm1238,kirm1250,Cerma,language,cme,cme,10.1245,-4.94917,['Africa'],"['Burkina Faso', ""Côte d'Ivoire""]",,Kirma-Tyurama,Kirma-Tyurama,cerm1238,Atlantic-Congo,atla1278,Africa,1,Kirma-Tyurama,African Savannah,Niger-Congo
lobi1245,lobi1246,Lobi,language,lob,lob,9.96122,-3.336,['Africa'],"['Burkina Faso', ""Côte d'Ivoire"", 'Ghana']",,Lobiri-Jaane,Lobiri-Jaane,lobi1245,Atlantic-Congo,atla1278,Africa,1,Lobiri-Jaane,African Savannah,Niger-Congo
mama1271,nort3254,Mamara Senoufo,language,myk,myk,12.4871,-5.28245,['Africa'],"['Burkina Faso', 'Mali']",,North Senufo,North Senufo,mama1271,Atlantic-Congo,atla1278,Africa,1,,,
nafa1258,sout3153,Nafanan,language,nfr,nfr,8.00522,-2.51001,['Africa'],"[""Côte d'Ivoire"", 'Ghana']",,South Senufo,South Senufo,nafa1258,Atlantic-Congo,atla1278,Africa,1,Senufo,African Savannah,Niger-Congo
djim1235,tagb1262,Djimini Senoufo,language,dyi,dyi,8.36279,-4.45627,['Africa'],"[""Côte d'Ivoire""]",,South Senufo,Tagbana-Jimini,djim1235,Atlantic-Congo,atla1278,Africa,1,Senufo,African Savannah,Niger-Congo
miyo1238,uncl1526,Miyobe,language,soy,soy,9.94366,1.33302,['Africa'],"['Benin', 'Togo']",,Nuclear Oti-Volta,Unclassified North Volta-Congo,miyo1238,Atlantic-Congo,atla1278,Africa,1,,,
sout2782,adam1254,South Fali,language,fal,fal,9.51408,13.6164,['Africa'],['Cameroon'],,Adamawa Fali,Adamawa Fali,sout2782,Atlantic-Congo,atla1278,Africa,1,,,
cent1992,sout2691,Central Mnong,language,cmo,cmo,12.6313,107.301,['Eurasia'],"['Cambodia', 'Viet Nam']",,Southern-Central Mnong,Southern-Central Mnong,cent1992,Austroasiatic,aust1305,Eurasia,1,,,
east2332,east2783,Eastern Bru,language,bru,bru,17.1311,105.671,['Eurasia'],"[""Lao People's Democratic Republic"", 'Viet Nam']",,Eastern Bru-Katang,Eastern Bru-Katang,east2332,Austroasiatic,aust1305,Eurasia,1,Katuic,Southeast Asia,Austro-Asiatic
cent1989,khme1253,Central Khmer,language,khm,khm,12.0515,105.015,['Eurasia'],"['Cambodia', ""Lao People's Democratic Republic"", 'Thailand', 'Viet Nam']",,Khmeric,Khmeric,cent1989,Austroasiatic,aust1305,Eurasia,1,Khmer,Southeast Asia,Austro-Asiatic
nort2684,khme1253,Northern Khmer,language,kxm,kxm,14.4674,103.863,['Eurasia'],"['Cambodia', 'Thailand']",,Khmeric,Khmeric,nort2684,Austroasiatic,aust1305,Eurasia,1,,,
carn1240,nico1262,Car Nicobarese,language,caq,caq,9.18853,92.7671,['Eurasia'],['India'],,Nicobaric,Nicobaric,carn1240,Austroasiatic,aust1305,Eurasia,1,Nicobarese,Southeast Asia,Austro-Asiatic
maan1238,maan1240,Ma'anyan,language,mhy,mhy,-2.1239,115.092,['Papunesia'],['Indonesia'],,Maanyan-Paku,Maanyan-Paku,maan1238,Austronesian,aust1307,Papunesia,1,Barito,Southeast Asia,Austronesian
plat1254,cent2382,Plateau Malagasy,language,plt,plt,-19.5907,47.1211,['Africa'],['Madagascar'],,North-Central Malagasic,Central-Eastern Malagasic,plat1254,Austronesian,aust1307,Africa,1,,,
ngaj1237,sout2921,Ngaju,language,nij,nij,-1.58463,112.794,['Papunesia'],['Indonesia'],,South West Greater Barito,South West Greater Barito,ngaj1237,Austronesian,aust1307,Papunesia,1,Barito,Southeast Asia,Austronesian
ibat1238,bata1315,Ibatan,language,ivb,ivb,18.9398,121.909,['Papunesia'],['Philippines'],,Batanic,Batanic,ibat1238,Austronesian,aust1307,Papunesia,1,,,
ivat1242,yami1257,Itbayat,language,ivv,ivv,20.77,121.85,['Papunesia'],['Philippines'],,Yami-Itbayat,Yami-Itbayat,ivat1242,Austronesian,aust1307,Papunesia,1,,,
koro1310,blaa1241,Koronadal Blaan,language,bpr,bpr,6.20529,125.007,['Papunesia'],['Philippines'],,Blaan,Blaan,koro1310,Austronesian,aust1307,Papunesia,1,,,
sara1326,blaa1241,Sarangani Blaan,language,bps,bps,6.03691,125.354,['Papunesia'],['Philippines'],,Blaan,Blaan,sara1326,Austronesian,aust1307,Papunesia,1,,,
tbol1240,tbol1241,Tboli,language,tbl,tbl,6.20377,124.538,['Papunesia'],['Philippines'],,Tboli-Blaan,Tboli-Blaan,tbol1240,Austronesian,aust1307,Papunesia,1,Bilic,Oceania,Austronesian
bang1368,east2491,Banggai,language,bgz,bgz,-1.58305,123.171,['Papunesia'],['Indonesia'],,Eastern Saluan-Banggai,Eastern Saluan-Banggai,bang1368,Austronesian,aust1307,Papunesia,1,Celebic,Oceania,Austronesian
muna1247,west2847,Muna,language,mnb,mnb,-5.40419,122.541,['Papunesia'],['Indonesia'],,Western Munic,Western Munic,muna1247,Austronesian,aust1307,Papunesia,1,Celebic,Oceania,Austronesian
daak1235,comm1248,Da'a Kaili,language,kzf,kzf,-1.21051,119.527,['Papunesia'],['Indonesia'],,Greater Kaili,Common Kaili,daak1235,Austronesian,aust1307,Papunesia,1,Celebic,Oceania,Austronesian
ledo1238,comm1248,Ledo Kaili,language,lew,lew,-1.03033,120.132,['Papunesia'],['Indonesia'],,Greater Kaili,Common Kaili,ledo1238,Austronesian,aust1307,Papunesia,1,Celebic,Oceania,Austronesian
pamo1252,pamo1251,Pamona,language,pmf,pmf,-1.62663,121.268,['Papunesia'],['Indonesia'],,Pamona-Tombelala,Pamona-Tombelala,pamo1252,Austronesian,aust1307,Papunesia,1,Celebic,Oceania,Austronesian
umaa1242,umas1234,Uma,language,ppk,ppk,-1.70416,119.968,['Papunesia'],['Indonesia'],,Kaili-Wolio,Uma-Sarudu,umaa1242,Austronesian,aust1307,Papunesia,1,Celebic,Oceania,Austronesian
pamp1243,cent2080,Pampanga,language,pam,pam,14.9603,120.502,['Papunesia'],['Philippines'],,Central Luzon,Central Luzon,pamp1243,Austronesian,aust1307,Papunesia,1,Central Luzon,Oceania,Austronesian
boto1242,abel1234,Botolan Sambal,language,sbl,sbl,15.2315,120.164,['Papunesia'],['Philippines'],,Abellen-Botolan,Abellen-Botolan,boto1242,Austronesian,aust1307,Papunesia,1,,,
cham1312,mala1545,Chamorro,language,cha,cha,13.438011,144.74474,['Papunesia'],"['Guam', 'Northern Mariana Islands']",,Malayo-Polynesian,Malayo-Polynesian,cham1312,Austronesian,aust1307,Papunesia,1,Chamorro,Oceania,Austronesian
nali1245,koro1314,Nali,language,nss,nss,-2.14273,147.202,['Papunesia'],['Papua New Guinea'],,Koro-Lele-Nali-Titan,Koro-Lele-Nali-Titan,nali1245,Austronesian,aust1307,Papunesia,1,,,
nyin1250,west2848,Nyindrou,language,lid,lid,-2.1143,146.627,['Papunesia'],['Papua New Guinea'],,West Manus I,West Manus I,nyin1250,Austronesian,aust1307,Papunesia,1,,,
seim1238,west2532,Seimat,language,ssg,ssg,-1.2666667,144.25,['Papunesia'],['Papua New Guinea'],,Western Admiralty Islands,Western Admiralty Islands,seim1238,Austronesian,aust1307,Papunesia,1,,,
wuvu1239,west2532,Wuvulu-Aua,language,wuv,wuv,-1.73938,142.851,['Papunesia'],['Papua New Guinea'],,Western Admiralty Islands,Western Admiralty Islands,wuvu1239,Austronesian,aust1307,Papunesia,1,,,
fiji1243,viwa1234,Fijian,language,fij,fij,-18.0,178.33,['Papunesia'],['Fiji'],,Eastern Fijian,Viwa-Lomaiviti-East Viti Levu,fiji1243,Austronesian,aust1307,Papunesia,1,Oceanic,Oceania,Austronesian
samo1305,samo1310,Samoan,language,smo,smo,-13.92,-171.83,['Papunesia'],"['American Samoa', 'Samoa']",,Samoan-Tokelauan,Samoan-Tokelauan,samo1305,Austronesian,aust1307,Papunesia,1,Oceanic,Oceania,Austronesian
kapi1249,nort3235,Kapingamarangi,language,kpg,kpg,1.039166,154.797223,['Papunesia'],"['Micronesia, Federated States of']",,Carolinean Outlier Polynesian,Carolinean Outlier Polynesian,kapi1249,Austronesian,aust1307,Papunesia,1,Oceanic,Oceania,Austronesian
taku1257,taku1258,Takuu,language,nho,nho,-4.773094,157.032085,['Papunesia'],['Papua New Guinea'],,Takuuic,Takuuic,taku1257,Austronesian,aust1307,Papunesia,1,,,
hawa1245,east2896,Hawaiian,language,haw,haw,19.6297,-155.43,['Papunesia'],['United States'],,East Polynesian,East Polynesian Proximal,hawa1245,Austronesian,aust1307,Papunesia,1,Oceanic,Oceania,Austronesian
maor1246,sout3383,Maori,language,mri,mri,-38.2881,176.541,['Papunesia'],['New Zealand'],,East Polynesian,Southern East Polynesian Proximal,maor1246,Austronesian,aust1307,Papunesia,1,Oceanic,Oceania,Austronesian
gilb1244,cent2276,Gilbertese,language,gil,gil,0.179,173.64,['Papunesia'],"['Fiji', 'Kiribati', 'Solomon Islands', 'Tuvalu']",,Central Micronesian,Central Micronesian,gilb1244,Austronesian,aust1307,Papunesia,1,Oceanic,Oceania,Austronesian
mars1254,west2844,Marshallese,language,mah,mah,8.72,167.73,['Papunesia'],['Marshall Islands'],,Western Micronesian,Western Micronesian,mars1254,Austronesian,aust1307,Papunesia,1,Oceanic,Oceania,Austronesian
pohn1238,pona1248,Pohnpeian,language,pon,pon,6.87212,158.223,['Papunesia'],"['Micronesia, Federated States of']",,Ponapeic,Ponapeic,pohn1238,Austronesian,aust1307,Papunesia,1,Oceanic,Oceania,Austronesian
chuu1238,mort1238,Chuukese,language,chk,chk,7.346993,151.598607,['Papunesia'],"['Micronesia, Federated States of']",,Mortlockese-Trukese,Mortlockese-Trukese,chuu1238,Austronesian,aust1307,Papunesia,1,Oceanic,Oceania,Austronesian
kosr1238,kosr1239,Kosraean,language,kos,kos,5.31,162.98,['Papunesia'],"['Micronesia, Federated States of']",,Micronesian,Kosraean-Nauruan,kosr1238,Austronesian,aust1307,Papunesia,1,Oceanic,Oceania,Austronesian
lewo1242,lame1259,Lewo,language,lww,lww,-16.7612,168.334,['Papunesia'],['Vanuatu'],,Lamenu-Lewo,Lamenu-Lewo,lewo1242,Austronesian,aust1307,Papunesia,1,Oceanic,Oceania,Austronesian
mask1242,sout3239,Maskelynes,language,klv,klv,-16.5073,167.818,['Papunesia'],['Vanuatu'],,Southeastern Malakula linkage,Southeastern Malakula linkage,mask1242,Austronesian,aust1307,Papunesia,1,,,
urip1239,east2753,Uripiv-Wala-Rano-Atchin,language,upv,upv,-16.00951,167.34643,['Papunesia'],['Vanuatu'],,Eastern Malakula linkage,Eastern Malakula linkage,urip1239,Austronesian,aust1307,Papunesia,1,Oceanic,Oceania,Austronesian
paam1238,cent2269,Paama,language,pma,pma,-16.47548,168.23693,['Papunesia'],['Vanuatu'],,Central Vanuatu,Central Vanuatu,paam1238,Austronesian,aust1307,Papunesia,1,Oceanic,Oceania,Austronesian
tang1347,arak1257,Movono,language,tgp,tgp,-15.5643,166.958,['Papunesia'],['Vanuatu'],,South-Central Santo,Araki-Tangoa,tang1347,Austronesian,aust1307,Papunesia,1,,,
kwai1243,nort2833,Kwaio,language,kwd,kwd,-8.93744,160.965,['Papunesia'],['Solomon Islands'],,Central-Northern Malaita,Central-Northern Malaita,kwai1243,Austronesian,aust1307,Papunesia,1,Oceanic,Oceania,Austronesian
kwar1239,nort2833,Kwara'ae,language,kwf,kwf,-8.75779,160.804,['Papunesia'],['Solomon Islands'],,Central-Northern Malaita,Central-Northern Malaita,kwar1239,Austronesian,aust1307,Papunesia,1,,,
saaa1240,mala1540,Sa'a,language,apb,apb,-9.60258,161.467,['Papunesia'],['Solomon Islands'],,Malaita-Makira,Malaita-Makira,saaa1240,Austronesian,aust1307,Papunesia,1,Oceanic,Oceania,Austronesian
aros1241,sanc1243,Arosi,language,aia,aia,-10.2441,161.432,['Papunesia'],['Solomon Islands'],,Makira,Makira,aros1241,Austronesian,aust1307,Papunesia,1,Oceanic,Oceania,Austronesian
kahu1241,sanc1243,Kahua,language,agw,agw,-10.6963,162.191,['Papunesia'],['Solomon Islands'],,Makira,Makira,kahu1241,Austronesian,aust1307,Papunesia,1,,,
owaa1237,sanc1243,Owa,language,stn,stn,-10.82553,162.30467,['Papunesia'],['Solomon Islands'],,Makira,Makira,owaa1237,Austronesian,aust1307,Papunesia,1,,,
ajie1238,houa1234,Ajië,language,aji,aji,-21.3029,165.468,['Papunesia'],['New Caledonia'],,Houailou,Houailou,ajie1238,Austronesian,aust1307,Papunesia,1,Oceanic,Oceania,Austronesian
nort2847,whit1270,North Tanna,language,tnn,tnn,-19.3733,169.303,['Papunesia'],['Vanuatu'],,Whitesands-North Tanna linkage,Whitesands-North Tanna linkage,nort2847,Austronesian,aust1307,Papunesia,1,,,
sout2869,sout3195,Southwest Tanna,language,nwi,nwi,-19.57953,169.35603,['Papunesia'],['Vanuatu'],,Southern Tanna,Southern Tanna,sout2869,Austronesian,aust1307,Papunesia,1,Oceanic,Oceania,Austronesian
muss1246,stma1240,Mussau-Emira,language,emi,emi,-1.44105,149.624,['Papunesia'],['Papua New Guinea'],,St. Matthias,St. Matthias,muss1246,Austronesian,aust1307,Papunesia,1,Oceanic,N Coast New Guinea,Austronesian
mada1285,mada1284,Madak,language,mmx,mmx,-3.34342,151.967,['Papunesia'],['Papua New Guinea'],,Madak linkage,Madak linkage,mada1285,Austronesian,aust1307,Papunesia,1,,,
kand1301,kand1307,Kandas,language,kqw,kqw,-4.3652,152.781,['Papunesia'],['Papua New Guinea'],,Kandas-Duke of York,Kandas-Duke of York,kand1301,Austronesian,aust1307,Papunesia,1,,,
hali1244,hali1243,Halia,language,hla,hla,-5.26603,154.662,['Papunesia'],['Papua New Guinea'],,Haliaic,Haliaic,hali1244,Austronesian,aust1307,Papunesia,1,Oceanic,Oceania,Austronesian
sapo1253,sapo1252,Saposa,language,sps,sps,-5.64103,154.732,['Papunesia'],['Papua New Guinea'],,Saposa-Tinputz,Saposa-Tinputz,sapo1253,Austronesian,aust1307,Papunesia,1,Oceanic,Oceania,Austronesian
neha1247,nucl1750,Nehan,language,nsn,nsn,-4.56875,154.2,['Papunesia'],['Papua New Guinea'],,Nuclear North Bougainville Oceanic,Nuclear North Bougainville Oceanic,neha1247,Austronesian,aust1307,Papunesia,1,Oceanic,Oceania,Austronesian
kuan1248,mini1257,Kuanua,language,ksd,ksd,-4.30986,152.114,['Papunesia'],['Papua New Guinea'],,Minigir-Tolai,Minigir-Tolai,kuan1248,Austronesian,aust1307,Papunesia,1,Oceanic,N Coast New Guinea,Austronesian
patp1243,patp1244,Patpatar,language,gfk,gfk,-3.74711,152.493,['Papunesia'],['Papua New Guinea'],,Patpatar-Minigir-Tolai,Patpatar-Minigir-Tolai,patp1243,Austronesian,aust1307,Papunesia,1,Oceanic,N Coast New Guinea,Austronesian
surs1246,stge1234,Sursurunga,language,sgz,sgz,-3.99078,152.768,['Papunesia'],['Papua New Guinea'],,St George linkage,St George linkage,surs1246,Austronesian,aust1307,Papunesia,1,Oceanic,N Coast New Guinea,Austronesian
kara1486,tung1294,Kara (Papua New Guinea),language,leu,leu,-2.81957,151.111,['Papunesia'],['Papua New Guinea'],,Tungak-Nalik,Tungak-Nalik,kara1486,Austronesian,aust1307,Papunesia,1,Oceanic,N Coast New Guinea,Austronesian
tung1290,tung1294,Tungag,language,lcm,lcm,-2.52188,150.198,['Papunesia'],['Papua New Guinea'],,Tungak-Nalik,Tungak-Nalik,tung1290,Austronesian,aust1307,Papunesia,1,Oceanic,N Coast New Guinea,Austronesian
bola1250,bola1253,Bola,language,bnp,bnp,-5.55792,150.095,['Papunesia'],['Papua New Guinea'],,Bola-Bulu,Bola-Bulu,bola1250,Austronesian,aust1307,Papunesia,1,,,
naka1262,naka1266,Nakanai,language,nak,nak,-5.59931,150.888,['Papunesia'],['Papua New Guinea'],,Nakanai-Meramera,Nakanai-Meramera,naka1262,Austronesian,aust1307,Papunesia,1,Oceanic,N Coast New Guinea,Austronesian
adze1240,uppe1423,Adzera,language,adz,adz,-6.39394,146.294,['Papunesia'],['Papua New Guinea'],,Upper Markham,Upper Markham,adze1240,Austronesian,aust1307,Papunesia,1,,,
buga1250,nort2858,Bugawac,language,buk,buk,-6.67519,147.32,['Papunesia'],['Papua New Guinea'],,North Huon Gulf linkage,North Huon Gulf linkage,buga1250,Austronesian,aust1307,Papunesia,1,,,
yabe1254,nort2858,Yabem,language,jae,jae,-6.67052,147.81,['Papunesia'],['Papua New Guinea'],,North Huon Gulf linkage,North Huon Gulf linkage,yabe1254,Austronesian,aust1307,Papunesia,1,Oceanic,N Coast New Guinea,Austronesian
mang1404,mapo1247,Mangga Buang,language,mmo,mmo,-6.99891,146.685,['Papunesia'],['Papua New Guinea'],,Buang linkage,Mapos-Mangga-Wagau,mang1404,Austronesian,aust1307,Papunesia,1,,,
mapo1242,mapo1247,Mapos Buang,language,bzh,bzh,-6.86672,146.774,['Papunesia'],['Papua New Guinea'],,Buang linkage,Mapos-Mangga-Wagau,mapo1242,Austronesian,aust1307,Papunesia,1,,,
pate1247,zena1251,Patep,language,ptp,ptp,-6.91988,146.639,['Papunesia'],['Papua New Guinea'],,Mumeng,Zenag-Patep,pate1247,Austronesian,aust1307,Papunesia,1,Oceanic,Interior New Guinea,Austronesian
hote1245,hote1244,Hote,language,hot,hot,-7.07708,146.869,['Papunesia'],['Papua New Guinea'],,Misim-Yamap,Misim-Yamap,hote1245,Austronesian,aust1307,Papunesia,1,,,
iwal1237,sout2878,Iwal,language,kbm,kbm,-7.20938,146.983,['Papunesia'],['Papua New Guinea'],,South Huon Gulf linkage,South Huon Gulf linkage,iwal1237,Austronesian,aust1307,Papunesia,1,,,
bari1286,east2772,Bariai,language,bch,bch,-5.5087,148.666,['Papunesia'],['Papua New Guinea'],,Eastern Ngero,Eastern Ngero,bari1286,Austronesian,aust1307,Papunesia,1,,,
mutu1242,tuam1243,Mutu,language,tuc,tuc,-5.79405,148.014,['Papunesia'],['Papua New Guinea'],,Tuam,Tuam,mutu1242,Austronesian,aust1307,Papunesia,1,,,
mari1428,nucl1510,Marik,language,dad,dad,-5.349,145.59,['Papunesia'],['Papua New Guinea'],,Western Bel,Western Bel,mari1428,Austronesian,aust1307,Papunesia,1,,,
taki1248,nucl1510,Takia,language,tbc,tbc,-4.69057,145.975,['Papunesia'],['Papua New Guinea'],,Western Bel,Western Bel,taki1248,Austronesian,aust1307,Papunesia,1,Oceanic,N Coast New Guinea,Austronesian
arop1243,kora1297,Arop-Lokep,language,apr,apr,-5.31671,147.103,['Papunesia'],['Papua New Guinea'],,Korap linkage,Korap linkage,arop1243,Austronesian,aust1307,Papunesia,1,Oceanic,N Coast New Guinea,Austronesian
mbul1263,viti1243,Mbula,language,mna,mna,-5.66965,148.041,['Papunesia'],['Papua New Guinea'],,Vitiaz linkage,Vitiaz linkage,mbul1263,Austronesian,aust1307,Papunesia,1,Oceanic,N Coast New Guinea,Austronesian
lote1237,meng1266,Lote,language,uvl,uvl,-5.954,150.911,['Papunesia'],['Papua New Guinea'],,Mengenic,Mengenic,lote1237,Austronesian,aust1307,Papunesia,1,,,
meng1267,mamu1256,Mengen,language,mee,mee,-5.47036,151.373,['Papunesia'],['Papua New Guinea'],,Mamusa-Mengen,Mamusa-Mengen,meng1267,Austronesian,aust1307,Papunesia,1,,,
sioo1240,viti1243,Sio,language,xsi,xsi,-5.96037,147.353,['Papunesia'],['Papua New Guinea'],,Vitiaz linkage,Vitiaz linkage,sioo1240,Austronesian,aust1307,Papunesia,1,Oceanic,N Coast New Guinea,Austronesian
mana1295,mana1301,Manam,language,mva,mva,-4.07921,145.033,['Papunesia'],['Papua New Guinea'],,Manam-Sepa,Manam-Sepa,mana1295,Austronesian,aust1307,Papunesia,1,Oceanic,N Coast New Guinea,Austronesian
anuk1239,nort2848,Anuki,language,aui,aui,-9.6692,149.822,['Papunesia'],['Papua New Guinea'],,North Papuan Mainland-D'Entrecasteaux linkage,North Papuan Mainland-D'Entrecasteaux linkage,anuk1239,Austronesian,aust1307,Papunesia,1,,,
aree1239,ared1234,Are,language,mwc,mwc,-9.67147,149.999,['Papunesia'],['Papua New Guinea'],,Are linkage,Are-Doga,aree1239,Austronesian,aust1307,Papunesia,1,,,
gapa1238,boan1246,Gapapaiwa,language,pwg,pwg,-9.73317,149.854,['Papunesia'],['Papua New Guinea'],,Are linkage,Boanaki-Paiwa,gapa1238,Austronesian,aust1307,Papunesia,1,Oceanic,S New Guinea,Austronesian
ghay1237,boan1246,Ghayavi,language,bmk,bmk,-10.011,149.84,['Papunesia'],['Papua New Guinea'],,Are linkage,Boanaki-Paiwa,ghay1237,Austronesian,aust1307,Papunesia,1,,,
ubir1237,arei1235,Ubir,language,ubr,ubr,-9.59044,149.396,['Papunesia'],['Papua New Guinea'],,Are linkage,Are linkage,ubir1237,Austronesian,aust1307,Papunesia,1,,,
mina1269,taup1241,Minaveha,language,mvn,mvn,-9.59922,150.501,['Papunesia'],['Papua New Guinea'],,Taupota linkage,Taupota linkage,mina1269,Austronesian,aust1307,Papunesia,1,Oceanic,S New Guinea,Austronesian
tawa1275,nucl1794,Tawala,language,tbo,tbo,-10.3115,150.644,['Papunesia'],['Papua New Guinea'],,Taupota linkage,Nuclear Taupota linkage,tawa1275,Austronesian,aust1307,Papunesia,1,Oceanic,S New Guinea,Austronesian
weda1241,weda1242,Wedau,language,wed,wed,-10.1246,150.172,['Papunesia'],['Papua New Guinea'],,Taupota linkage,Wedauic,weda1241,Austronesian,aust1307,Papunesia,1,Oceanic,S New Guinea,Austronesian
bwai1242,bwai1244,Bwaidoka,language,bwd,bwd,-9.51158,150.297,['Papunesia'],['Papua New Guinea'],,Bwaidoka-Iduna,Bwaidoka-Iduna,bwai1242,Austronesian,aust1307,Papunesia,1,,,
idun1242,bwai1244,Iduna,language,viv,viv,-9.34361,150.24,['Papunesia'],['Papua New Guinea'],,Bwaidoka-Iduna,Bwaidoka-Iduna,idun1242,Austronesian,aust1307,Papunesia,1,Oceanic,S New Guinea,Austronesian
iama1237,iama1238,Iamalele,language,yml,yml,-9.45005,150.573,['Papunesia'],['Papua New Guinea'],,Iamalelic,Iamalelic,iama1237,Austronesian,aust1307,Papunesia,1,,,
moli1248,bwai1241,Molima,language,mox,mox,-9.57457,150.614,['Papunesia'],['Papua New Guinea'],,Bwaidoga linkage,Bwaidoga linkage,moli1248,Austronesian,aust1307,Papunesia,1,,,
buna1276,buna1279,Bunama,language,bdd,bdd,-10.0761,151.066,['Papunesia'],['Papua New Guinea'],,Bunama-Mwatebu,Bunama-Mwatebu,buna1276,Austronesian,aust1307,Papunesia,1,,,
dobu1241,dobu1240,Dobu,language,dob,dob,-9.63239,150.825,['Papunesia'],['Papua New Guinea'],,Dobu-Duau linkage,Dobu-Duau linkage,dobu1241,Austronesian,aust1307,Papunesia,1,,,
dawa1242,kaka1266,Dawawa,language,dww,dww,-10.1692,149.999,['Papunesia'],['Papua New Guinea'],,Kakabai linkage,Kakabai linkage,dawa1242,Austronesian,aust1307,Papunesia,1,,,
buhu1237,suau1243,Buhutu,language,bxh,bxh,-10.5074,150.18,['Papunesia'],['Papua New Guinea'],,Suauic,Suauic,buhu1237,Austronesian,aust1307,Papunesia,1,,,
bwan1241,suau1243,Bwanabwana,language,tte,tte,-10.6599,151.034,['Papunesia'],['Papua New Guinea'],,Suauic,Suauic,bwan1241,Austronesian,aust1307,Papunesia,1,,,
sali1295,suau1244,Saliba,language,sbe,sbe,-10.6148,150.727,['Papunesia'],['Papua New Guinea'],,Suau chain,Suau chain,sali1295,Austronesian,aust1307,Papunesia,1,Oceanic,S New Guinea,Austronesian
suau1242,suau1244,Suau,language,swp,swp,-10.6606,150.21,['Papunesia'],['Papua New Guinea'],,Suau chain,Suau chain,suau1242,Austronesian,aust1307,Papunesia,1,,,
keap1239,hula1245,Keapara,language,khz,khz,-10.1342,147.95,['Papunesia'],['Papua New Guinea'],,Hula-Keapara,Hula-Keapara,keap1239,Austronesian,aust1307,Papunesia,1,,,
motu1246,west2850,Motu,language,meu,meu,-9.67492,147.424,['Papunesia'],['Papua New Guinea'],,West Central Papuan linkage,West Central Papuan linkage,motu1246,Austronesian,aust1307,Papunesia,1,Oceanic,S New Guinea,Austronesian
meke1243,nucl1506,Mekeo,language,mek,mek,-8.23853,146.586,['Papunesia'],['Papua New Guinea'],,Nuclear West Central Papuan linkage,Nuclear West Central Papuan linkage,meke1243,Austronesian,aust1307,Papunesia,1,Oceanic,S New Guinea,Austronesian
waim1251,nucl1506,Waima,language,rro,rro,-8.67145,146.544,['Papunesia'],['Papua New Guinea'],,Nuclear West Central Papuan linkage,Nuclear West Central Papuan linkage,waim1251,Austronesian,aust1307,Papunesia,1,Oceanic,S New Guinea,Austronesian
muyu1244,kili1271,Muyuw,language,myw,myw,-9.195,152.731,['Papunesia'],['Papua New Guinea'],,Kilivila-Muyuw,Kilivila-Muyuw,muyu1244,Austronesian,aust1307,Papunesia,1,Oceanic,S New Guinea,Austronesian
misi1243,kili1270,Misima-Paneati,language,mpx,mpx,-10.6821,152.696,['Papunesia'],['Papua New Guinea'],,Kilivila-Misima,Kilivila-Misima,misi1243,Austronesian,aust1307,Papunesia,1,,,
cent2087,coas1315,Coastal-Naga Bikol,language,bcl,bcl,13.7574,123.403,['Papunesia'],['Philippines'],,Coastal Bikol,Coastal Bikol,cent2087,Austronesian,aust1307,Papunesia,1,,,
irig1242,inla1266,Iriga Bicolano,language,bto,bto,13.3896,123.331,['Papunesia'],['Philippines'],,Inland Bikol,Inland Bikol,irig1242,Austronesian,aust1307,Papunesia,1,,,
cebu1242,bisa1268,Cebuano,language,ceb,ceb,8.38799,124.367,['Papunesia'],['Philippines'],,Bisayan,Bisayan,cebu1242,Austronesian,aust1307,Papunesia,1,Greater Central Philippine,Oceania,Austronesian
hili1240,capi1240,Hiligaynon,language,hil,hil,10.4018,122.974,['Papunesia'],['Philippines'],,Capiznon-Ilonggo-Kawayan,Capiznon-Ilonggo-Kawayan,hili1240,Austronesian,aust1307,Papunesia,1,Greater Central Philippine,Oceania,Austronesian
masb1238,masb1239,Masbatenyo,language,msb,msb,12.21453,123.63579,['Papunesia'],['Philippines'],,Masbate-Sorsogon,Masbate-Sorsogon,masb1238,Austronesian,aust1307,Papunesia,1,,,
wara1300,sama1315,Waray (Philippines),language,war,war,11.4911,125.012,['Papunesia'],['Philippines'],,Samar-Waray,Samar-Waray,wara1300,Austronesian,aust1307,Papunesia,1,Greater Central Philippine,Oceania,Austronesian
mama1275,cent2246,Mamanwa,language,mmn,mmn,9.44744,125.548,['Papunesia'],['Philippines'],,Central Philippine,Central Philippine,mama1275,Austronesian,aust1307,Papunesia,1,Greater Central Philippine,Oceania,Austronesian
mans1262,east2477,Mansaka,language,msk,msk,6.79221,126.181,['Papunesia'],['Philippines'],,Eastern Mansakan,Eastern Mansakan,mans1262,Austronesian,aust1307,Papunesia,1,,,
kala1388,kaga1259,Kalagan,language,kqe,kqe,6.8126,125.328,['Papunesia'],['Philippines'],,Kagan-Kalagan,Kagan-Kalagan,kala1388,Austronesian,aust1307,Papunesia,1,,,
taga1270,taga1269,Tagalog,language,tgl,tgl,14.06,121.747,['Papunesia'],['Philippines'],,Tagalog-Filipino,Tagalog-Filipino,taga1270,Austronesian,aust1307,Papunesia,1,Greater Central Philippine,Oceania,Austronesian
mara1404,dana1253,Maranao,language,mrw,mrw,7.79414,124.175,['Papunesia'],['Philippines'],,Danaw,Danaw,mara1404,Austronesian,aust1307,Papunesia,1,Greater Central Philippine,Oceania,Austronesian
goro1259,goro1273,Gorontalo,language,gor,gor,0.62689,122.288,['Papunesia'],['Indonesia'],,Gorontalic,Gorontalic,goro1259,Austronesian,aust1307,Papunesia,1,Greater Central Philippine,Oceania,Austronesian
mong1342,mong1346,Mongondow,language,mog,mog,0.64616,124.114,['Papunesia'],['Indonesia'],,Mongondowic,Mongondowic,mong1342,Austronesian,aust1307,Papunesia,1,Greater Central Philippine,Oceania,Austronesian
atam1240,cent2088,Ata Manobo,language,atd,atd,7.7789,125.499,['Papunesia'],['Philippines'],,Central Manobo,Central Manobo,atam1240,Austronesian,aust1307,Papunesia,1,,,
mati1250,cent2088,Matigsalug Manobo,language,mbt,mbt,7.72124,125.16,['Papunesia'],['Philippines'],,Central Manobo,Central Manobo,mati1250,Austronesian,aust1307,Papunesia,1,Greater Central Philippine,Oceania,Austronesian
diba1242,east2478,Dibabawon Manobo,language,mbd,mbd,7.85664,126.018,['Papunesia'],['Philippines'],,East Manobo,East Manobo,diba1242,Austronesian,aust1307,Papunesia,1,,,
ilia1236,west2554,Ilianen Manobo,language,mbi,mbi,7.34448,124.766,['Papunesia'],['Philippines'],,WBM-Livunganen-Ilianen,WBM-Livunganen-Ilianen,ilia1236,Austronesian,aust1307,Papunesia,1,,,
west2555,west2554,Western Bukidnon Manobo,language,mbb,mbb,7.6682,124.825,['Papunesia'],['Philippines'],,WBM-Livunganen-Ilianen,WBM-Livunganen-Ilianen,west2555,Austronesian,aust1307,Papunesia,1,Greater Central Philippine,Oceania,Austronesian
cota1241,sara1347,Cotabato Manobo,language,mta,mta,6.39417,124.234,['Papunesia'],['Philippines'],,Sarangani-Tasaday-Cotabato,Sarangani-Tasaday-Cotabato,cota1241,Austronesian,aust1307,Papunesia,1,,,
sara1327,sara1347,Sarangani Manobo,language,mbs,mbs,5.84903,125.499,['Papunesia'],['Philippines'],,Sarangani-Tasaday-Cotabato,Sarangani-Tasaday-Cotabato,sara1327,Austronesian,aust1307,Papunesia,1,,,
kaga1256,nort2884,Kagayanen,language,cgc,cgc,10.4656,119.872,['Papunesia'],['Philippines'],,North Manobo,North Manobo,kaga1256,Austronesian,aust1307,Papunesia,1,,,
binu1244,buki1251,Talaandig-Binukid,language,bkd,bkd,8.15933,124.892,['Papunesia'],['Philippines'],,Bukidnon,Bukidnon,binu1244,Austronesian,aust1307,Papunesia,1,Greater Central Philippine,Oceania,Austronesian
broo1239,broo1240,Brooke's Point Palawano,language,plw,plw,8.83891,117.871,['Papunesia'],['Philippines'],,Brooke-Canipaan Palawan,Brooke-Canipaan Palawan,broo1239,Austronesian,aust1307,Papunesia,1,,,
hanu1241,sout2915,Hanunoo,language,hnn,hnn,12.4159,121.221,['Papunesia'],['Philippines'],,South Mangyan,South Mangyan,hanu1241,Austronesian,aust1307,Papunesia,1,Greater Central Philippine,Oceania,Austronesian
java1254,mode1251,Javanese,language,jav,jav,-7.001,109.287,['Papunesia'],"['Indonesia', 'Malaysia']",,Modern Javanese,Modern Javanese,java1254,Austronesian,aust1307,Papunesia,1,Javanese,Southeast Asia,Austronesian
lamp1243,lamp1241,Lampung Api,language,ljp,ljp,-5.73463,105.037,['Papunesia'],['Indonesia'],,Lampungic,Lampungic,lamp1243,Austronesian,aust1307,Papunesia,1,Lampungic,Southeast Asia,Austronesian
biat1246,bida1237,Biatah Bidayuh,language,bth,bth,1.17596,110.254,['Papunesia'],"['Indonesia', 'Malaysia']",,Bidayuh-Rejang,Bidayuh-Rejang,biat1246,Austronesian,aust1307,Papunesia,1,Land Dayak,Southeast Asia,Austronesian
pamp1244,atta1244,Pamplona Atta,language,att,att,18.4738,121.3,['Papunesia'],['Philippines'],,Atta,Atta,pamp1244,Austronesian,aust1307,Papunesia,1,,,
gada1258,caga1242,Ga'dang,language,gdg,gdg,17.2238,121.455,['Papunesia'],['Philippines'],,Cagayan-Baliwon Gaddang,Cagayan-Baliwon Gaddang,gada1258,Austronesian,aust1307,Papunesia,1,,,
cent2084,gadd1245,Central Cagayan Agta,language,agt,agt,17.9571,121.857,['Papunesia'],['Philippines'],,Gaddangic,Gaddangic,cent2084,Austronesian,aust1307,Papunesia,1,Greater Central Philippine,Oceania,Austronesian
itaw1240,gadd1245,Itawit,language,itv,itv,17.7329,121.58,['Papunesia'],['Philippines'],,Gaddangic,Gaddangic,itaw1240,Austronesian,aust1307,Papunesia,1,Northern Luzon,Oceania,Austronesian
isna1241,caga1241,Isnag,language,isd,isd,18.2139,121.16,['Papunesia'],['Philippines'],,Cagayan Valley,Cagayan Valley,isna1241,Austronesian,aust1307,Papunesia,1,Northern Luzon,Oceania,Austronesian
ilok1237,nort3238,Iloko,language,ilo,ilo,15.9361,120.993,['Papunesia'],['Philippines'],,Northern Luzon,Northern Luzon,ilok1237,Austronesian,aust1307,Papunesia,1,Northern Luzon,Oceania,Austronesian
sout2908,sout3203,Bangad,language,ksc,ksc,17.2936,121.068,['Papunesia'],['Philippines'],,South Kalinga,South Kalinga,sout2908,Austronesian,aust1307,Papunesia,1,,,
limo1248,nort3226,Limos Kalinga,language,kmk,kmk,17.6081,121.381,['Papunesia'],['Philippines'],,Northern Kalinga,Northern Kalinga,limo1248,Austronesian,aust1307,Papunesia,1,,,
bala1310,nucl1754,Balangao,language,blw,blw,17.0994,121.272,['Papunesia'],['Philippines'],,Nuclear Cordilleran,Nuclear Cordilleran,bala1310,Austronesian,aust1307,Papunesia,1,Northern Luzon,Oceania,Austronesian
cent2292,bont1247,Central Bontoc,language,lbk,lbk,17.08,120.92,['Papunesia'],['Philippines'],,Bontok,Bontok,cent2292,Austronesian,aust1307,Papunesia,1,,,
kank1243,kank1245,Kankanaey,language,kne,kne,16.8548,120.689,['Papunesia'],['Philippines'],,Kankanay,Kankanay,kank1243,Austronesian,aust1307,Papunesia,1,Northern Luzon,Oceania,Austronesian
amga1235,ifug1247,Amganad Ifugao,language,ifa,ifa,16.9016,121.042,['Papunesia'],['Philippines'],,Ifugaw,Ifugaw,amga1235,Austronesian,aust1307,Papunesia,1,,,
bata1298,bata1319,Batad Ifugao,language,ifb,ifb,16.8266,121.23,['Papunesia'],['Philippines'],,Batad-Mayoyao,Batad-Mayoyao,bata1298,Austronesian,aust1307,Papunesia,1,Northern Luzon,Oceania,Austronesian
kele1259,kall1244,Keley-i Kallahan,language,ify,ify,16.7099,121.035,['Papunesia'],['Philippines'],,Kalanguya,Kalanguya,kele1259,Austronesian,aust1307,Papunesia,1,,,
pang1290,west2550,Pangasinan,language,pag,pag,15.9377,120.365,['Papunesia'],['Philippines'],,West Southern Cordilleran,West Southern Cordilleran,pang1290,Austronesian,aust1307,Papunesia,1,Northern Luzon,Oceania,Austronesian
dupa1235,nort3187,Dupaninan Agta,language,duo,duo,17.3748,122.188,['Papunesia'],['Philippines'],,Northeastern Luzon,Northeastern Luzon,dupa1235,Austronesian,aust1307,Papunesia,1,Greater Central Philippine,Oceania,Austronesian
casi1235,nucl1755,Casiguran-Nagtipunan Agta,language,dgc,dgc,16.2176,121.878,['Papunesia'],['Philippines'],,Nuclear Northeastern Luzon,Nuclear Northeastern Luzon,casi1235,Austronesian,aust1307,Papunesia,1,Northern Luzon,Oceania,Austronesian
west2563,west2562,Western Penan,language,pne,pne,3.4667,114.523,['Papunesia'],"['Brunei Darussalam', 'Malaysia']",,Western Penan-Sebop,Western Penan-Sebop,west2563,Austronesian,aust1307,Papunesia,1,,,
cent2100,kada1292,Kadazan Dusun,language,dtp,dtp,6.02998,116.681,['Papunesia'],['Malaysia'],,Kadazan-Sugut-Minokok,Kadazan-Sugut-Minokok,cent2100,Austronesian,aust1307,Papunesia,1,,,
timu1262,lowl1273,Timugon Murut,language,tih,tih,5.1796,115.826,['Papunesia'],['Malaysia'],,Northern Murutic,Lowland Murut,timu1262,Austronesian,aust1307,Papunesia,1,North Borneo,Southeast Asia,Austronesian
sang1336,nort2871,Sangir,language,sxn,sxn,3.0,125.5,['Papunesia'],"['Indonesia', 'Philippines']",,Sangil-Sangir,Sangil-Sangir,sang1336,Austronesian,aust1307,Papunesia,1,Sangiric,Oceania,Austronesian
bugi1244,bugi1245,Buginese,language,bug,bug,-4.47,119.977,['Papunesia'],['Indonesia'],,Bugis,Bugis,bugi1244,Austronesian,aust1307,Papunesia,1,South Sulawesi,Oceania,Austronesian
maka1311,nucl1727,Makasar,language,mak,mak,-5.65551,119.838,['Papunesia'],['Indonesia'],,Nuclear Makassaric,Nuclear Makassaric,maka1311,Austronesian,aust1307,Papunesia,1,South Sulawesi,Oceania,Austronesian
bamb1270,mata1312,Bambam,language,ptu,ptu,-3.02759,119.201,['Papunesia'],['Indonesia'],,Matangnga-Aralle-Tabulahan,Matangnga-Aralle-Tabulahan,bamb1270,Austronesian,aust1307,Papunesia,1,South Sulawesi,Oceania,Austronesian
mama1276,tora1260,Mamasa,language,mqj,mqj,-3.0811,119.484,['Papunesia'],['Indonesia'],,Torajic,Torajic,mama1276,Austronesian,aust1307,Papunesia,1,South Sulawesi,Oceania,Austronesian
tora1261,tora1260,Toraja-Sa'dan,language,sda,sda,-2.97144,119.829,['Papunesia'],['Indonesia'],,Torajic,Torajic,tora1261,Austronesian,aust1307,Papunesia,1,South Sulawesi,Oceania,Austronesian
cent2142,nucl1667,Central Aymara,language,ayr,ayr,-17.0,-68.5,['South America'],"['Argentina', 'Bolivia, Plurinational State of', 'Chile', 'Peru']",,Central-Southern Aymara,Central-Southern Aymara,cent2142,Aymaran,ayma1253,South America,1,Aymaran,Andean,Aymaran
qaqe1238,bain1263,Qaqet,language,byx,byx,-4.45258,151.702,['Papunesia'],['Papua New Guinea'],,,Baining,qaqe1238,Baining,bain1263,Papunesia,1,Baining,N Coast New Guinea,Baining
chac1249,caya1244,Cha'palaa,language,cbi,cbi,0.71489,-79.0508,['South America'],['Ecuador'],,Cayapa-Colorado,Cayapa-Colorado,chac1249,Barbacoan,barb1265,South America,1,Barbacoan,Andean,Barbacoan
colo1256,caya1244,Tsafiki,language,cof,cof,-0.21181,-79.2347,['South America'],['Ecuador'],,Cayapa-Colorado,Cayapa-Colorado,colo1256,Barbacoan,barb1265,South America,1,Barbacoan,Andean,Barbacoan
guam1248,coco1262,Guambiano,language,gum,gum,2.55849,-76.582,['South America'],['Colombia'],,Coconucan,Coconucan,guam1248,Barbacoan,barb1265,South America,1,Barbacoan,Andean,Barbacoan
awac1239,unun9945,Awa-Cuaiquer,language,kwi,kwi,1.21652,-78.3401,['South America'],"['Colombia', 'Ecuador']",,Unclassified Barbacoan,Unclassified Barbacoan,awac1239,Barbacoan,barb1265,South America,1,Barbacoan,Andean,Barbacoan
basq1248,,Basque,language,eus,eus,43.2787,-1.31622,['Eurasia'],"['Spain', 'France']",,Basque,,basq1248,,,Eurasia,1,Basque,Europe,Basque
bora1263,bora1262,Bora,language,boa,boa,-2.000259,-72.257066,['South America'],"['Brazil', 'Colombia', 'Peru']",,,Boran,bora1263,Boran,bora1262,South America,1,Boran,NE South America,Boran
muin1242,bora1262,Muinane,language,bmr,bmr,-0.8652,-72.4249,['South America'],['Colombia'],,,Boran,muin1242,Boran,bora1262,South America,1,Boran,NE South America,Boran
wari1266,nucl1773,Waris,language,wrs,wrs,-3.139,140.931,['Papunesia'],"['Indonesia', 'Papua New Guinea']",,Nuclear Warisic,Nuclear Warisic,wari1266,Border,bord1247,Papunesia,1,Border,N Coast New Guinea,Border
kalu1248,kalu1249,Kaluli,language,bco,bco,-6.45932,142.788,['Papunesia'],['Papua New Guinea'],,Kaluli-Sunia,Kaluli-Sunia,kalu1248,Bosavi,bosa1245,Papunesia,1,Bosavi,S New Guinea,Trans-New Guinea
kasu1251,bosa1246,Kasua,language,khs,khs,-6.64861,142.993,['Papunesia'],['Papua New Guinea'],,Bosavi Watershed,Bosavi Watershed,kasu1251,Bosavi,bosa1245,Papunesia,1,,,
edol1239,etor1234,Edolo,language,etr,etr,-6.11618,142.65,['Papunesia'],['Papua New Guinea'],,Etoro-Bedamini,Etoro-Bedamini,edol1239,Bosavi,bosa1245,Papunesia,1,Bosavi,Interior New Guinea,Trans-New Guinea
chay1248,cahu1265,Shawi,language,cbt,cbt,-5.63764,-76.8252,['South America'],['Peru'],,,Cahuapanan,chay1248,Cahuapanan,cahu1265,South America,1,Cahuapanan,NE South America,Cahuapanan
cams1241,,Camsá,language,kbh,kbh,1.14537,-76.8931,['South America'],['Colombia'],,,,cams1241,,,South America,1,Camsá,Andean,Camsá
cand1248,,Candoshi-Shapra,language,cbu,cbu,-4.23835,-76.9347,['South America'],['Peru'],,,,cand1248,,,South America,1,Candoshi,NE South America,Candoshi
apal1257,cari1283,Apalaí,language,apy,apy,1.49792,-54.7457,['South America'],['Brazil'],,,Cariban,apal1257,Cariban,cari1283,South America,1,Cariban,NE South America,Cariban
gali1262,guia1242,Galibi Carib,language,car,car,5.83772,-56.8323,['South America'],"['Brazil', 'French Guiana', 'Guyana', 'Suriname', 'Venezuela, Bolivarian Republic of']",,Guianan,Guianan,gali1262,Cariban,cari1283,South America,1,Cariban,NE South America,Cariban
waya1269,waya1272,Wayana,language,way,way,2.77537,-54.4429,['South America'],"['Brazil', 'French Guiana', 'Suriname']",,Wayanaic,Wayanaic,waya1269,Cariban,cari1283,South America,1,Cariban,NE South America,Cariban
hixk1239,waiw1245,Hixkaryána,language,hix,hix,-0.16265,-58.80153,['South America'],['Brazil'],,Waiwaian,Waiwaian,hixk1239,Cariban,cari1283,South America,1,Cariban,NE South America,Cariban
baka1277,peko1235,Bakairí,language,bkq,bkq,-14.2628,-54.7034,['South America'],['Brazil'],,Pekodian,Pekodian,baka1277,Cariban,cari1283,South America,1,Cariban,NE South America,Cariban
akaw1239,kapo1251,Akawaio-Ingariko,language,ake,ake,6.16277,-60.862,['South America'],"['Brazil', 'Guyana', 'Venezuela, Bolivarian Republic of']",,Kapong,Kapong,akaw1239,Cariban,cari1283,South America,1,Cariban,NE South America,Cariban
macu1259,pemo1247,Macushi,language,mbc,mbc,4.31861,-60.2209,['South America'],"['Brazil', 'Guyana', 'Venezuela, Bolivarian Republic of']",,Pemongan,Pemongan,macu1259,Cariban,cari1283,South America,1,Cariban,NE South America,Cariban
ngab1239,guay1266,Ngäbere,language,gym,gym,8.8251,-82.3911,['North America'],"['Costa Rica', 'Panama']",,Guaymiic,Guaymiic,ngab1239,Chibchan,chib1249,North America,1,Guaymiic,Mesoamerica,Chibchan
bord1248,kuna1280,Border Kuna,language,kvn,kvn,7.92993,-77.1664,['South America'],"['Colombia', 'Panama']",,Kuna,Kuna,bord1248,Chibchan,chib1249,South America,1,Kuna,Andean,Chibchan
sanb1242,kuna1280,San Blas Kuna,language,cuk,cuk,9.15686,-78.3075,['South America'],"['Colombia', 'Panama']",,Kuna,Kuna,sanb1242,Chibchan,chib1249,South America,1,,,
teri1250,west2641,Teribe,language,tfr,tfr,9.067,-82.9631,['North America'],"['Costa Rica', 'Panama']",,Western Isthmic Chibchan,Western Isthmic Chibchan,teri1250,Chibchan,chib1249,North America,1,Western Isthmic Chibchan,Mesoamerica,Chibchan
brib1243,vice1244,Bribri,language,bzd,bzd,9.39794,-83.0539,['North America'],"['Costa Rica', 'Panama']",,Viceitic,Viceitic,brib1243,Chibchan,chib1249,North America,1,Western Isthmic Chibchan,Mesoamerica,Chibchan
cabe1245,vice1244,Cabécar,language,cjp,cjp,9.67031,-83.4102,['North America'],['Costa Rica'],,Viceitic,Viceitic,cabe1245,Chibchan,chib1249,North America,1,Western Isthmic Chibchan,Mesoamerica,Chibchan
cogu1240,arhu1241,Cogui,language,kog,kog,10.9485,-73.8043,['South America'],['Colombia'],,Arhuacic,Arhuacic,cogu1240,Chibchan,chib1249,South America,1,Arhuacic,NE South America,Chibchan
cent2150,tune1260,Central Tunebo,language,tuf,tuf,6.8867,-72.097,['South America'],"['Colombia', 'Venezuela, Bolivarian Republic of']",,Tunebo,Tunebo,cent2150,Chibchan,chib1249,South America,1,Tunebo,NE South America,Chibchan
chiq1248,chiq1253,Lomeriano-Ignaciano Chiquitano,language,cax,cax,-16.769554,-61.817795,['South America'],"['Bolivia, Plurinational State of', 'Brazil']",,,Chiquitano,chiq1248,Chiquitano,chiq1253,South America,1,Chiquitano,NE South America,Chiquitano
nort2972,pana1309,Northern Emberá,language,emp,emp,7.12761,-77.574,['South America'],"['Colombia', 'Panama']",,Panama-Baudo-Atrato,Panama-Baudo-Atrato,nort2972,Chocoan,choc1280,South America,1,Choco,Andean,Choco
epen1239,sanj1278,Epena,language,sja,sja,4.25877,-77.3566,['South America'],"['Colombia', 'Ecuador', 'Panama']",,San Juan,San Juan,epen1239,Chocoan,choc1280,South America,1,Choco,Andean,Choco
woun1238,choc1280,Woun Meu,language,noa,noa,8.5,-78.0,['South America'],"['Colombia', 'Panama']",,,Chocoan,woun1238,Chocoan,choc1280,South America,1,Choco,Andean,Choco
cofa1242,,Cofán,language,con,con,0.276675,-77.0643,['South America'],"['Colombia', 'Ecuador']",,,,cofa1242,,,South America,1,Cofán,NE South America,Cofán
maiw1251,cent2401,Maiwa (Papua New Guinea),language,mti,mti,-9.69836,149.274,['Papunesia'],['Papua New Guinea'],,,Central Dagan,maiw1251,Dagan,daga1274,Papunesia,1,,,
daga1275,sout3381,Daga,language,dgz,dgz,-9.9747,149.263,['Papunesia'],['Papua New Guinea'],,,Southwest Dagan,daga1275,Dagan,daga1274,Papunesia,1,Dagan,S New Guinea,Trans-New Guinea
toro1252,esca1235,Toro So Dogon,language,dts,dts,14.40749,-3.10006,['Africa'],['Mali'],,Escarpment Dogon,Escarpment Dogon,toro1252,Dogon,dogo1299,Africa,1,Dogon,African Savannah,Dogon
nucl1305,kann1255,Kannada,language,kan,kan,13.5878,76.1198,['Eurasia'],['India'],,Nuclear Kannaoid,Nuclear Kannaoid,nucl1305,Dravidian,drav1251,Eurasia,1,Dravidian,Indic,Dravidian
mala1464,mala1541,Malayalam,language,mal,mal,9.59208,76.7651,['Eurasia'],['India'],,Malayalamoid,Malayalamoid,mala1464,Dravidian,drav1251,Eurasia,1,Dravidian,Indic,Dravidian
tami1289,tami1300,Tamil,language,tam,tam,10.520219,78.825989,['Eurasia'],"['India', 'Sri Lanka']",,Tamil-Paliyan,Tamil-Paliyan,tami1289,Dravidian,drav1251,Eurasia,1,Dravidian,Indic,Dravidian
mani1235,east1459,Sougb,language,mnx,mnx,-1.49611,133.95,['Papunesia'],['Indonesia'],,,East Bird's Head,mani1235,East Bird's Head,east1459,Papunesia,1,East Bird's Head,N Coast New Guinea,East Bird's Head
meya1236,meax1236,Meyah,language,mej,mej,-1.18016,133.618,['Papunesia'],['Indonesia'],,Meax,Meax,meya1236,East Bird's Head,east1459,Papunesia,1,East Bird's Head,N Coast New Guinea,East Bird's Head
kona1242,east2433,Konai,language,kxw,kxw,-5.66011,142.069,['Papunesia'],['Papua New Guinea'],,,East Strickland,kona1242,East Strickland,east2433,Papunesia,1,,,
odoo1238,east2433,Odoodee,language,kkc,kkc,-6.59222,142.486,['Papunesia'],['Papua New Guinea'],,,East Strickland,odoo1238,East Strickland,east2433,Papunesia,1,,,
bine1240,east2503,Bine,language,bon,bon,-9.08879,142.893,['Papunesia'],['Papua New Guinea'],,,Eastern Trans-Fly,bine1240,Eastern Trans-Fly,east2503,Papunesia,1,,,
wipi1242,east2503,Wipi,language,gdr,gdr,-8.79741,143.064,['Papunesia'],['Papua New Guinea'],,,Eastern Trans-Fly,wipi1242,Eastern Trans-Fly,east2503,Papunesia,1,,,
east2534,inui1246,Eastern Canadian Inuktitut,language,ike,ike,62.1735,-75.6139,['North America'],['Canada'],,Inuit,Inuit,east2534,Eskimo-Aleut,eski1264,North America,1,,,
kala1399,gree1280,Kalaallisut,language,kal,kal,69.3761,-52.864,['North America'],"['Denmark', 'Greenland']",,Greenlandic Inuit,Greenlandic Inuit,kala1399,Eskimo-Aleut,eski1264,North America,1,Eskimo,E North America,Eskimo-Aleut
nort2943,inup1234,North Alaskan Inupiatun,language,esi,esi,69.582,-143.77,['North America'],"['Canada', 'United States']",,Alaskan Inupiaq,Alaskan Inupiaq,nort2943,Eskimo-Aleut,eski1264,North America,1,,,
nort2945,inup1234,Seward Alaska Inupiatun,language,esk,esk,64.77955,-161.80666,['North America'],['United States'],,Alaskan Inupiaq,Alaskan Inupiaq,nort2945,Eskimo-Aleut,eski1264,North America,1,,,
cent2127,yupi1267,Central Alaskan Yupik,language,esu,esu,60.3062,-161.486,['North America'],['United States'],,Yupik,Yupik,cent2127,Eskimo-Aleut,eski1264,North America,1,Eskimo,Alaska-Oregon,Eskimo-Aleut
fasu1242,,Fasu,language,faa,faa,-6.62687,143.284,['Papunesia'],['Papua New Guinea'],,,,fasu1242,,,Papunesia,1,Fasu,Interior New Guinea,Trans-New Guinea
bauz1241,geel1240,Bauzi,language,bvz,bvz,-2.44717,137.629,['Papunesia'],['Indonesia'],,,Geelvink Bay,bauz1241,Geelvink Bay,geel1240,Papunesia,1,Geelvink Bay,N Coast New Guinea,Geelvink Bay
kafa1242,sout2835,Kafa,language,kbr,kbr,7.34022,36.1718,['Africa'],['Ethiopia'],,South Gonga,South Gonga,kafa1242,Ta-Ne-Omotic,gong1255,Africa,1,Ta-Ne-Omotic,Greater Abyssinia,Afro-Asiatic
koor1239,east2423,Koorete,language,kqy,kqy,5.80545,37.8679,['Africa'],['Ethiopia'],,East Ometo,East Ometo,koor1239,Ta-Ne-Omotic,gong1255,Africa,1,,,
dawr1236,dawr1235,Dawro,language,dwr,dwr,6.95,37.0,['Africa'],['Ethiopia'],,Dawro-Gofa-Gamo,Dawro-Gofa-Gamo,dawr1236,Ta-Ne-Omotic,gong1255,Africa,1,Ta-Ne-Omotic,Greater Abyssinia,Afro-Asiatic
gamo1243,dawr1235,Gamo,language,gmv,gmv,6.27645,37.23808,['Africa'],['Ethiopia'],,Dawro-Gofa-Gamo,Dawro-Gofa-Gamo,gamo1243,Ta-Ne-Omotic,gong1255,Africa,1,Ta-Ne-Omotic,Greater Abyssinia,Afro-Asiatic
gofa1235,dawr1235,Gofa,language,gof,gof,6.57645,37.05,['Africa'],['Ethiopia'],,Dawro-Gofa-Gamo,Dawro-Gofa-Gamo,gofa1235,Ta-Ne-Omotic,gong1255,Africa,1,,,
wola1242,cent2046,Wolaytta,language,wal,wal,6.32668,37.7537,['Africa'],['Ethiopia'],,Central Ometo,Central Ometo,wola1242,Ta-Ne-Omotic,gong1255,Africa,1,Ta-Ne-Omotic,Greater Abyssinia,Afro-Asiatic
male1284,nort3161,Male (Ethiopia),language,mdy,mdy,5.91975,36.9892,['Africa'],['Ethiopia'],,North-West Ometo,North-West Ometo,male1284,Ta-Ne-Omotic,gong1255,Africa,1,Ta-Ne-Omotic,Greater Abyssinia,Afro-Asiatic
cuib1242,guah1253,Cuiba,language,cui,cui,6.19829,-69.8197,['South America'],"['Colombia', 'Venezuela, Bolivarian Republic of']",,Guahibo-Cuiva,Guahibo-Cuiva,cuib1242,Guahiboan,guah1252,South America,1,Guahiban,NE South America,Guahiban
guah1255,guah1254,Guahibo,language,guh,guh,5.81736,-68.9839,['South America'],"['Colombia', 'Venezuela, Bolivarian Republic of']",,Guahibo-Playero,Guahibo-Playero,guah1255,Guahiboan,guah1252,South America,1,Guahiban,NE South America,Guahiban
guay1257,guah1252,Guayabero,language,guo,guo,2.8969,-71.844,['South America'],['Colombia'],,,Guahiboan,guay1257,Guahiboan,guah1252,South America,1,Guahiban,NE South America,Guahiban
moco1246,qomm1235,Mocoví,language,moc,moc,-28.097,-60.4145,['South America'],['Argentina'],,Qom,Qom,moco1246,Guaicuruan,guai1249,South America,1,Qom,SE South America,Guaicuruan
pila1245,pila1244,Pilagá,language,plg,plg,-25.0058,-60.1537,['South America'],"['Argentina', 'Paraguay']",,Pilaga-Toba,Pilaga-Toba,pila1245,Guaicuruan,guai1249,South America,1,Qom,SE South America,Guaicuruan
toba1269,pila1244,Toba,language,tob,tob,-23.77,-61.96,['South America'],"['Argentina', 'Bolivia, Plurinational State of', 'Paraguay']",,Pilaga-Toba,Pilaga-Toba,toba1269,Guaicuruan,guai1249,South America,1,Qom,SE South America,Guaicuruan
kadi1248,guai1249,Kadiwéu,language,kbc,kbc,-19.7222,-57.582,['South America'],['Brazil'],,,Guaicuruan,kadi1248,Guaicuruan,guai1249,South America,1,Kadiwéu,SE South America,Guaicuruan
gumu1244,gumu1250,Northern Gumuz,language,guk,guk,11.05,35.93,['Africa'],"['Ethiopia', 'Sudan']",,,Gumuz,gumu1244,Gumuz,gumu1250,Africa,1,Gumuz,Greater Abyssinia,Gumuz
nung1290,wubu1239,Wubuy,language,nuy,nuy,-14.2623,135.753,['Australia'],['Australia'],,Wubuy-Anindilyakwa,Wubuy-Anindilyakwa,nung1290,Gunwinyguan,gunw1250,Australia,1,Nunggubuyu,N Australia,Gunwinyguan
amar1274,hara1260,Amarakaeri,language,amr,amr,-12.4931,-70.5533,['South America'],['Peru'],,,Harakmbut,amar1274,Harakmbut,hara1260,South America,1,Harakmbet,NE South America,Harakmbet
moro1285,west2503,Moro,language,mor,mor,10.9194,30.2138,['Africa'],['Sudan'],,Western Heibanic,Western Heibanic,moro1285,Heibanic,heib1242,Africa,1,Heiban,African Savannah,Kordofanian
sanm1287,sand1283,San Mateo del Mar Huave,language,huv,huv,16.2129,-95.0077,['North America'],['Mexico'],,San Dionisio-San Mateo Huave,San Dionisio-San Mateo Huave,sanm1287,Huavean,huav1256,North America,1,Huavean,Mesoamerica,Huavean
mini1256,mini1255,Minica Huitoto,language,hto,hto,-1.54535,-73.1107,['South America'],['Colombia'],,Minica-Murui,Minica-Murui,mini1256,Huitotoan,huit1251,South America,1,Witoto,NE South America,Witotoan
muru1274,mini1255,Murui Huitoto,language,huu,huu,-1.13669,-73.8331,['South America'],"['Colombia', 'Peru']",,Minica-Murui,Minica-Murui,muru1274,Huitotoan,huit1251,South America,1,Witoto,NE South America,Witotoan
alba1267,clas1257,Albanian,family,sqi,sqi,,,['Eurasia'],['Albania'],,Albanian,Classical Indo-European,alba1267,Indo-European,indo1319,Eurasia,1,,,
gheg1238,alba1267,Gheg Albanian,language,aln,aln,42.317,21.3837,['Eurasia'],"['Albania', 'Bulgaria', 'Montenegro', 'North Macedonia', 'Romania', 'Serbia']",,Albanian,Albanian,gheg1238,Indo-European,indo1319,Eurasia,1,,,
nucl1235,east2768,Eastern Armenian,language,hye,hye,40.0,45.0,['Eurasia'],"['Armenia', 'Azerbaijan', 'Georgia', 'Iran, Islamic Republic of', 'Syrian Arab Republic', 'Turkey']",,Eastern-Western Armenian,Eastern-Western Armenian,nucl1235,Indo-European,indo1319,Eurasia,1,Armenian,Greater Mesopotamia,Indo-European
lith1251,east2280,Lithuanian,language,lit,lit,55.1429,23.9601,['Eurasia'],"['Belarus', 'Lithuania', 'Latvia', 'Poland', 'Russian Federation']",,Eastern Baltic,Eastern Baltic,lith1251,Indo-European,indo1319,Eurasia,1,Baltic,Inner Asia,Indo-European
bela1254,east1426,Belarusian,language,bel,bel,53.2307,25.6038,['Eurasia'],"['Belarus', 'Lithuania', 'Latvia', 'Poland', 'Russian Federation', 'Ukraine']",,East Slavic,East Slavic,bela1254,Indo-European,indo1319,Eurasia,1,Slavic,Inner Asia,Indo-European
russ1263,east1426,Russian,language,rus,rus,59.0,50.0,['Eurasia'],"['Belarus', 'China', 'Estonia', 'Finland', 'Georgia', 'Kyrgyzstan', ""Korea, Democratic People's Republic of"", 'Kazakhstan', 'Lithuania', 'Latvia', 'Moldova, Republic of', 'Mongolia', 'Norway', 'Poland', 'Romania', 'Russian Federation', 'Svalbard and Jan Mayen', 'Turkmenistan', 'Ukraine', 'Uzbekistan']",,East Slavic,East Slavic,russ1263,Indo-European,indo1319,Eurasia,1,Slavic,Inner Asia,Indo-European
ukra1253,ukra1257,Ukrainian,language,ukr,ukr,49.796,29.945,['Eurasia'],"['Belarus', 'Hungary', 'Moldova, Republic of', 'Poland', 'Romania', 'Russian Federation', 'Slovakia', 'Ukraine']",,Ukrainian-Rusyn,Ukrainian-Rusyn,ukra1253,Indo-European,indo1319,Eurasia,1,Slavic,Inner Asia,Indo-European
chur1257,east2269,Church Slavic,language,chu,chu,43.7171,22.8442,['Eurasia'],['Russian Federation'],"{'start_year': 900, 'start_month': 1, 'start_day': 1, 'end_year': 1100, 'end_month': 1, 'end_day': 1}",Eastern South Slavic,Eastern South Slavic,chur1257,Indo-European,indo1319,Eurasia,1,,,
bulg1262,mace1252,Bulgarian,language,bul,bul,43.3646,25.047,['Eurasia'],"['Bulgaria', 'Greece', 'Moldova, Republic of', 'North Macedonia', 'Romania', 'Serbia', 'Turkey', 'Ukraine']",,Macedo-Bulgarian,Macedo-Bulgarian,bulg1262,Indo-European,indo1319,Eurasia,1,Slavic,Europe,Indo-European
mace1250,mace1252,Macedonian,language,mkd,mkd,41.5957,21.7932,['Eurasia'],"['Albania', 'Bulgaria', 'Greece', 'North Macedonia', 'Serbia']",,Macedo-Bulgarian,Macedo-Bulgarian,mace1250,Indo-European,indo1319,Eurasia,1,Slavic,Europe,Indo-European
slov1268,west2804,Slovenian,language,slv,slv,46.2543,14.7766,['Eurasia'],"['Austria', 'Croatia', 'Hungary', 'Italy', 'Slovenia']",,Western South Slavic,Western South Slavic,slov1268,Indo-European,indo1319,Eurasia,1,Slavic,Europe,Indo-European
croa1245,east2821,Croatian Standard,dialect,hrv,hrv,45.555,15.982,['Eurasia'],"['Austria', 'Bosnia and Herzegovina', 'Croatia', 'Hungary', 'Italy', 'Montenegro', 'Serbia', 'Slovenia']",,Western South Slavic,Eastern Herzegovinian Shtokavian,croa1245,Indo-European,indo1319,Eurasia,1,,,
czec1258,czec1261,Czech,language,ces,ces,49.873398,15.10437,['Eurasia'],"['Austria', 'Czechia', 'Poland', 'Slovakia']",,Czech-Lach,Czech-Lach,czec1258,Indo-European,indo1319,Eurasia,1,Slavic,Europe,Indo-European
slov1269,czec1260,Slovak,language,slk,slk,48.545705,18.78479,['Eurasia'],"['Austria', 'Czechia', 'Hungary', 'Poland', 'Serbia', 'Slovakia', 'Ukraine']",,Czech-Slovak,Czech-Slovak,slov1269,Indo-European,indo1319,Eurasia,1,Slavic,Europe,Indo-European
poli1260,lech1241,Polish,language,pol,pol,51.8439,18.6255,['Eurasia'],"['Belarus', 'Czechia', 'Germany', 'Lithuania', 'Poland', 'Russian Federation', 'Slovakia', 'Ukraine']",,Lechitic,Lechitic,poli1260,Indo-European,indo1319,Eurasia,1,Slavic,Europe,Indo-European
wels1247,oldm1247,Welsh,language,cym,cym,52.0,-4.0,['Eurasia'],['United Kingdom'],,Old-Modern Welsh,Old-Modern Welsh,wels1247,Indo-European,indo1319,Eurasia,1,Celtic,Europe,Indo-European
bret1244,sout3176,Breton,language,bre,bre,48.2452,-3.78934,['Eurasia'],['France'],,Southwestern Brythonic,Southwestern Brythonic,bret1244,Indo-European,indo1319,Eurasia,1,Celtic,Europe,Indo-European
corn1251,sout3176,Cornish,language,cor,cor,50.5233,-4.18619,['Eurasia'],['United Kingdom'],"{'start_year': 1600, 'start_month': 1, 'start_day': 1, 'end_year': 1800, 'end_month': 1, 'end_day': 1}",Southwestern Brythonic,Southwestern Brythonic,corn1251,Indo-European,indo1319,Eurasia,1,Celtic,Europe,Indo-European
manx1243,east2734,Manx,language,glv,glv,54.2604,-4.45437,['Eurasia'],['Isle of Man'],"{'start_year': 1780, 'start_month': 1, 'start_day': 1, 'end_year': 1974, 'end_month': 1, 'end_day': 1}",Eastern Goidelic,Eastern Goidelic,manx1243,Indo-European,indo1319,Eurasia,1,Celtic,Europe,Indo-European
scot1245,east2734,Scottish Gaelic,language,gla,gla,56.7574,-5.24366,['Eurasia'],['United Kingdom'],,Eastern Goidelic,Eastern Goidelic,scot1245,Indo-European,indo1319,Eurasia,1,Celtic,Europe,Indo-European
iris1253,mode1265,Irish,language,gle,gle,53.2186,-7.61509,['Eurasia'],"['United Kingdom', 'Ireland']",,Modern Goidelic,Modern Goidelic,iris1253,Indo-European,indo1319,Eurasia,1,Celtic,Europe,Indo-European
goth1244,east2805,Gothic,language,got,got,46.9304,29.9786,['Eurasia'],['Ukraine'],"{'start_year': 400, 'start_month': 1, 'start_day': 1, 'end_year': 400, 'end_month': 1, 'end_day': 1}",East Germanic,East Germanic,goth1244,Indo-European,indo1319,Eurasia,1,,,
swed1254,east2781,Swedish,language,swe,swe,59.800634,17.389526,['Eurasia'],"['Åland Islands', 'Denmark', 'Finland', 'Norway', 'Sweden']",,East Swedic,East Swedic,swed1254,Indo-European,indo1319,Eurasia,1,Germanic,Europe,Indo-European
dani1285,sout3248,Danish,language,dan,dan,54.8655,9.36284,['Eurasia'],"['Germany', 'Denmark', 'Faroe Islands', 'Greenland']",,South Scandinavian,South Scandinavian,dani1285,Indo-European,indo1319,Eurasia,1,Germanic,Europe,Indo-European
faro1244,icel1246,Faroese,language,fao,fao,62.0732,-6.88497,['Eurasia'],"['Denmark', 'Faroe Islands']",,Icelandic-Faroese,Icelandic-Faroese,faro1244,Indo-European,indo1319,Eurasia,1,Germanic,Europe,Indo-European
icel1247,icel1246,Icelandic,language,isl,isl,63.4837,-19.0212,['Eurasia'],['Iceland'],,Icelandic-Faroese,Icelandic-Faroese,icel1247,Indo-European,indo1319,Eurasia,1,Germanic,Europe,Indo-European
swab1242,nort3310,Swabian,language,swg,swg,48.386796,9.987111,['Eurasia'],['Germany'],,North Alemannic,North Alemannic,swab1242,Indo-European,indo1319,Eurasia,1,,,
stan1295,glob1243,German,language,deu,deu,48.649,12.4676,['Eurasia'],"['Austria', 'Belgium', 'Switzerland', 'Czechia', 'Germany', 'Denmark', 'France', 'Hungary', 'Italy', 'Liechtenstein', 'Luxembourg', 'Netherlands', 'Poland', 'Romania', 'Slovenia', 'Slovakia']",,Global German,Global German,stan1295,Indo-European,indo1319,Eurasia,1,Germanic,Europe,Indo-European
afri1274,afri1273,Afrikaans,language,afr,afr,-22.0,30.0,['Africa'],"['Botswana', 'Mozambique', 'Namibia', 'South Africa', 'Zambia', 'Zimbabwe']",,Afrikaansic,Afrikaansic,afri1274,Indo-European,indo1319,Africa,1,Germanic,S Africa,Indo-European
dutc1256,glob1241,Dutch,language,nld,nld,52.0,5.0,['Eurasia'],"['Aruba', 'Belgium', 'Bonaire, Sint Eustatius and Saba', 'Brazil', 'Curaçao', 'Germany', 'French Guiana', 'Guyana', 'Netherlands', 'Suriname', 'Sint Maarten (Dutch part)']",,Global Dutch,Global Dutch,dutc1256,Indo-European,indo1319,Eurasia,1,Germanic,Europe,Indo-European
nort2627,east2291,Eastern Low German,language,nds,nds,53.115373,12.391439,['Eurasia'],['Germany'],,Greater East Low German,Greater East Low German,nort2627,Indo-European,indo1319,Eurasia,1,Germanic,Europe,Indo-European
plau1238,east2291,Plautdietsch,language,pdt,pdt,49.578028,-109.353868,['North America'],['Canada'],,Greater East Low German,Greater East Low German,plau1238,Indo-European,indo1319,North America,1,,,
stan1293,macr1271,English,language,eng,eng,53.0,-1.0,['Eurasia'],"['Australia', 'Bermuda', 'Brazil', 'Belize', 'Canada', 'Cocos (Keeling) Islands', 'Cook Islands', 'Cuba', 'Christmas Island', 'Dominican Republic', 'Falkland Islands (Malvinas)', 'United Kingdom', 'Guernsey', 'Gibraltar', 'Guadeloupe', 'South Georgia and the South Sandwich Islands', 'Guatemala', 'Guyana', 'Honduras', 'Ireland', 'Isle of Man', 'British Indian Ocean Territory', 'Jersey', 'Cayman Islands', 'Liberia', 'Mexico', 'Norfolk Island', 'Pitcairn', 'Saint Helena, Ascension and Tristan da Cunha', 'Suriname', 'United States Minor Outlying Islands', 'United States', 'Venezuela, Bolivarian Republic of', 'South Africa']",,Macro-English,Macro-English,stan1293,Indo-European,indo1319,Eurasia,1,Germanic,Europe,Indo-European
west2354,west2902,Western Frisian,language,fry,fry,53.143,5.86091,['Eurasia'],['Netherlands'],,Westlauwers-Terschelling Frisian,Westlauwers-Terschelling Frisian,west2354,Indo-European,indo1319,Eurasia,1,Germanic,Europe,Indo-European
anci1242,cent2404,Ionic-Attic Ancient Greek,language,grc,grc,39.8155,21.9129,['Eurasia'],['Greece'],"{'start_year': -500, 'start_month': 1, 'start_day': 1, 'end_year': -300, 'end_month': 1, 'end_day': 1}",South Greek,Central Greek,anci1242,Indo-European,indo1319,Eurasia,1,,,
mode1248,nucl1783,Modern Greek,language,ell,ell,38.36,23.13,['Eurasia'],"['Albania', 'Bulgaria', 'Cyprus', 'Egypt', 'Greece', 'Italy', 'North Macedonia', 'Romania', 'Turkey', 'Ukraine']",,Nuclear Modern Greek,Nuclear Modern Greek,mode1248,Indo-European,indo1319,Eurasia,1,Greek,Europe,Indo-European
beng1280,gaud1238,Bengali,language,ben,ben,24.0,90.0,['Eurasia'],"['Bangladesh', 'India', 'Nepal']",,Gauda-Banga,Gauda-Banga,beng1280,Indo-European,indo1319,Eurasia,1,Indic,Indic,Indo-European
oriy1255,macr1269,Odia,language,ory,ory,21.0,85.0,['Eurasia'],['India'],,Macro-Oriya,Macro-Oriya,oriy1255,Indo-European,indo1319,Eurasia,1,Indic,Indic,Indo-European
panj1256,east2727,Eastern Panjabi,language,pan,pan,30.0368,75.6702,['Eurasia'],"['Bangladesh', 'India', 'Pakistan']",,Eastern Panjabic,Eastern Panjabic,panj1256,Indo-European,indo1319,Eurasia,1,Indic,Indic,Indo-European
mara1378,mode1268,Marathi,language,mar,mar,17.9344,76.6665,['Eurasia'],['India'],,Marathic,Modern Marathi,mara1378,Indo-European,indo1319,Eurasia,1,Indic,Indic,Indo-European
guja1252,guja1256,Gujarati,language,guj,guj,22.687,71.0962,['Eurasia'],"['Bangladesh', 'India', 'Pakistan']",,Gujaratic,Gujaratic,guja1252,Indo-European,indo1319,Eurasia,1,Indic,Indic,Indo-European
nepa1254,east1436,Nepali,language,npi,npi,28.0,85.0,['Eurasia'],['Nepal'],,Eastern Pahari,Eastern Pahari,nepa1254,Indo-European,indo1319,Eurasia,1,Indic,Indic,Indo-European
awad1243,awad1245,Awadhi,language,awa,awa,27.5907,82.4663,['Eurasia'],"['India', 'Nepal']",,Eastern Hindi,Awadhic,awad1243,Indo-European,indo1319,Eurasia,1,Indic,Indic,Indo-European
sint1235,nort3197,Sinte-Manus Romani,language,rmo,rmo,48.7,9.4,['Eurasia'],"['Austria', 'Switzerland', 'Czechia', 'Germany', 'France', 'Croatia', 'Italy', 'Kazakhstan', 'Montenegro', 'Netherlands', 'Poland', 'Serbia', 'Slovenia']",,Northwestern Romani,Northwestern Romani,sint1235,Indo-European,indo1319,Eurasia,1,Indic,Europe,Indo-European
vlax1238,roma1329,Vlax Romani,language,rmy,rmy,46.09,18.16,['Eurasia'],['Romania'],,Romani,Romani,vlax1238,Indo-European,indo1319,Eurasia,1,Indic,Europe,Indo-European
hind1269,hind1270,Hindi,language,hin,hin,25.0,77.0,['Eurasia'],"['Bangladesh', 'Bhutan', 'India', 'Nepal']",,Hindustani,Hindustani,hind1269,Indo-European,indo1319,Eurasia,1,Indic,Indic,Indo-European
urdu1245,hind1270,Urdu,language,urd,urd,25.0,67.0,['Eurasia'],"['Afghanistan', 'Bangladesh', 'India', 'Pakistan']",,Hindustani,Hindustani,urdu1245,Indo-European,indo1319,Eurasia,1,Indic,Indic,Indo-European
sout2642,sout3242,Southern Balochi,language,bcc,bcc,26.0,64.0,['Eurasia'],"['Iran, Islamic Republic of', 'Oman', 'Pakistan']",,Southern-Western Balochi,Southern-Western Balochi,sout2642,Indo-European,indo1319,Eurasia,1,,,
gila1241,gila1242,Gilaki,language,glk,glk,37.1344,49.8359,['Eurasia'],"['Iran, Islamic Republic of']",,Gilaki-Rudbari,Gilaki-Rudbari,gila1241,Indo-European,indo1319,Eurasia,1,Iranian,Greater Mesopotamia,Indo-European
cent1972,kurd1259,Central Kurdish,language,ckb,ckb,35.6539,45.8077,['Eurasia'],"['Iraq', 'Iran, Islamic Republic of']",,Kurdish,Kurdish,cent1972,Indo-European,indo1319,Eurasia,1,Iranian,Greater Mesopotamia,Indo-European
nort2641,kurd1259,Northern Kurdish,language,kmr,kmr,37.0,43.0,['Eurasia'],"['Armenia', 'Azerbaijan', 'Iraq', 'Iran, Islamic Republic of', 'Jordan', 'Kuwait', 'Syrian Arab Republic', 'Turkmenistan', 'Turkey']",,Kurdish,Kurdish,nort2641,Indo-European,indo1319,Eurasia,1,,,
iron1242,osse1243,Iron Ossetian,language,oss,oss,42.98,44.61,['Eurasia'],['Russian Federation'],,Modern Ossetic,Modern Ossetic,iron1242,Indo-European,indo1319,Eurasia,1,Iranian,Greater Mesopotamia,Indo-European
dari1249,east2745,Dari,language,prs,prs,31.0405,67.3593,['Eurasia'],"['Afghanistan', 'Iran, Islamic Republic of', 'Pakistan', 'Tajikistan', 'Turkmenistan']",,Eastern Farsic,Eastern Farsic,dari1249,Indo-European,indo1319,Eurasia,1,Iranian,Greater Mesopotamia,Indo-European
taji1245,taji1250,Tajik,language,tgk,tgk,38.8213,68.5549,['Eurasia'],"['Afghanistan', 'China', 'Kyrgyzstan', 'Tajikistan', 'Uzbekistan']",,Tajikic,Tajikic,taji1245,Indo-European,indo1319,Eurasia,1,Iranian,Indic,Indo-European
west2369,fars1255,Western Farsi,language,pes,pes,32.9,53.3,['Eurasia'],"['Afghanistan', 'Azerbaijan', 'Iraq', 'Iran, Islamic Republic of', 'Turkmenistan', 'Turkey']",,Farsic,Farsic,west2369,Indo-European,indo1319,Eurasia,1,Iranian,Greater Mesopotamia,Indo-European
lati1261,impe1234,Latin,language,lat,lat,41.9026,12.4502,['Eurasia'],['Holy See (Vatican City State)'],"{'start_year': -100, 'start_month': 1, 'start_day': 1, 'end_year': 100, 'end_month': 1, 'end_day': 1}",Imperial Latin,Imperial Latin,lati1261,Indo-European,indo1319,Eurasia,1,,,
roma1327,east2865,Romanian,language,ron,ron,46.3913,24.2256,['Eurasia'],"['Bulgaria', 'Hungary', 'Moldova, Republic of', 'Romania', 'Serbia', 'Ukraine']",,Eastern Romance,Eastern Romanian,roma1327,Indo-European,indo1319,Eurasia,1,Romance,Europe,Indo-European
ital1282,ital1287,Italian,language,ita,ita,43.0464,12.6489,['Eurasia'],"['Austria', 'Switzerland', 'France', 'Croatia', 'Italy', 'Slovenia', 'San Marino', 'Holy See (Vatican City State)']",,Italian Romance,Italian Romance,ital1282,Indo-European,indo1319,Eurasia,1,Romance,Europe,Indo-European
stan1290,glob1239,French,language,fra,fra,48.0,2.0,['Eurasia'],"['Andorra', 'Belgium', 'Canada', 'Switzerland', 'France', 'French Guiana', 'Italy', 'Luxembourg', 'Monaco', 'Saint Pierre and Miquelon', 'French Southern Territories', 'United States']",,Global French,Global French,stan1290,Indo-European,indo1319,Eurasia,1,Romance,Europe,Indo-European
stan1289,sout3183,Catalan,language,cat,cat,41.453,1.569,['Eurasia'],"['Andorra', 'Spain', 'France', 'Italy']",,Southwestern Shifted Romance,Southwestern Shifted Romance,stan1289,Indo-European,indo1319,Eurasia,1,Romance,Europe,Indo-European
stan1288,cast1243,Spanish,language,spa,spa,40.4414,-1.11788,['Eurasia'],"['Andorra', 'Argentina', 'Bolivia, Plurinational State of', 'Brazil', 'Belize', 'Chile', 'Colombia', 'Costa Rica', 'Cuba', 'Dominican Republic', 'Ecuador', 'Spain', 'France', 'Gibraltar', 'Guatemala', 'Guyana', 'Honduras', 'Haiti', 'Morocco', 'Mexico', 'Nicaragua', 'Panama', 'Peru', 'Puerto Rico', 'Portugal', 'Paraguay', 'El Salvador', 'United States', 'Uruguay', 'Venezuela, Bolivarian Republic of']",,Castilic,Castilic,stan1288,Indo-European,indo1319,Eurasia,1,Romance,Europe,Indo-European
port1283,braz1247,Portuguese,language,por,por,39.91,-8.1,['Eurasia'],"['Andorra', 'Argentina', 'Bolivia, Plurinational State of', 'Brazil', 'Colombia', 'Spain', 'France', 'French Guiana', 'Guyana', 'Peru', 'Portugal', 'Paraguay', 'Suriname', 'Uruguay', 'Venezuela, Bolivarian Republic of']",,Brazil-Portugal Portuguese,Brazil-Portugal Portuguese,port1283,Indo-European,indo1319,Eurasia,1,Romance,Europe,Indo-European
cher1273,iroq1247,Cherokee,language,chr,chr,35.4664,-83.163,['North America'],['United States'],,,Iroquoian,cher1273,Iroquoian,iroq1247,North America,1,Southern Iroquoian,E North America,Iroquoian
moha1258,moha1257,Mohawk,language,moh,moh,43.72,-74.66836,['North America'],"['Canada', 'United States']",,Mohawk-Oneida,Mohawk-Oneida,moha1258,Iroquoian,iroq1247,North America,1,Northern Iroquoian,E North America,Iroquoian
maun1240,iwai1246,Mawng,language,mph,mph,-11.66,133.376,['Australia'],['Australia'],,,Iwaidjan Proper,maun1240,Iwaidjan Proper,iwai1246,Australia,1,Iwaidjan,N Australia,Iwaidjan
nucl1643,japa1258,Japanese,language,jpn,jpn,35.0,135.0,['Eurasia'],['Japan'],,Japan-Taiwan Japanese,Japan-Taiwan Japanese,nucl1643,Japonic,japo1237,Eurasia,1,Japanese,N Coast Asia,Japanese
toll1241,jica1245,Tol,language,jic,jic,14.6686,-87.0372,['North America'],['Honduras'],,,Jicaquean,toll1241,Jicaquean,jica1245,North America,1,Tol,Mesoamerica,Tol
agua1253,jiva1245,Aguaruna,language,agr,agr,-5.30044,-77.9218,['South America'],['Peru'],,,Chicham,agua1253,Chicham,jiva1245,South America,1,Jivaroan,NE South America,Jivaroan
achu1248,shua1256,Achuar-Shiwiar,language,acu,acu,-2.82646,-77.2641,['South America'],"['Ecuador', 'Peru']",,Shuaric,Shuaric,achu1248,Chicham,jiva1245,South America,1,Jivaroan,NE South America,Jivaroan
huam1247,shua1256,Huambisa,language,hub,hub,-3.99109,-77.9797,['South America'],['Peru'],,Shuaric,Shuaric,huam1247,Chicham,jiva1245,South America,1,Jivaroan,NE South America,Jivaroan
shua1257,shua1256,Shuar,language,jiv,jiv,-3.45136,-78.1892,['South America'],"['Ecuador', 'Peru']",,Shuaric,Shuaric,shua1257,Chicham,jiva1245,South America,1,Jivaroan,NE South America,Jivaroan
kamu1260,kamu1264,Kamula,language,xla,xla,-7.28798,142.639,['Papunesia'],['Papua New Guinea'],,,Kamula-Elevala,kamu1260,Kamula-Elevala,kamu1264,Papunesia,1,,,
nucl1302,geor1253,Georgian,language,kat,kat,41.850397,43.78613,['Eurasia'],"['Armenia', 'Azerbaijan', 'Georgia', 'Iran, Islamic Republic of', 'Russian Federation', 'Turkey']",,Georgic,Georgic,nucl1302,Kartvelian,kart1248,Eurasia,1,Kartvelian,Greater Mesopotamia,Kartvelian
esee1247,bara1376,Ese,language,mcq,mcq,-9.09451,148.376,['Papunesia'],['Papua New Guinea'],,Baraic,Baraic,esee1247,Koiarian,koia1260,Papunesia,1,,,
uduk1239,twam1235,Uduk,language,udu,udu,9.16012,34.2293,['Africa'],"['Ethiopia', 'Sudan', 'South Sudan']",,Komo-Uduk,Komo-Uduk,uduk1239,Koman,koma1264,Africa,1,,,
kore1280,kore1284,Korean,language,kor,kor,37.54,126.98,['Eurasia'],"['China', ""Korea, Democratic People's Republic of"", 'Korea, Republic of', 'Russian Federation']",,,Koreanic,kore1280,Koreanic,kore1284,Eurasia,1,Korean,N Coast Asia,Korean
yoco1235,dida1245,Yocoboué Dida,language,gud,gud,5.40126,-5.12242,['Africa'],"[""Côte d'Ivoire""]",,Dida,Dida,yoco1235,Kru,krua1234,Africa,1,,,
nyab1255,weea1234,Nyabwa,language,nwb,nwb,6.87615,-6.84428,['Africa'],"[""Côte d'Ivoire""]",,Wee,Wee,nyab1255,Kru,krua1234,Africa,1,,,
weno1238,weea1234,Wobe-Wè Northern,language,wob,wob,7.40391,-7.24617,['Africa'],"[""Côte d'Ivoire""]",,Wee,Wee,weno1238,Kru,krua1234,Africa,1,Kru,African Savannah,Niger-Congo
bian1252,kuni1270,Biangai,language,big,big,-7.33882,146.765,['Papunesia'],['Papua New Guinea'],,,Kunimaipan,bian1252,Kunimaipan,kuni1270,Papunesia,1,,,
kuot1243,,Kuot,language,kto,kto,-3.06952,151.537,['Papunesia'],['Papua New Guinea'],,,,kuot1243,,,Papunesia,1,Kuot,N Coast New Guinea,Kuot
amap1240,nucl1244,Ama (Papua New Guinea),language,amm,amm,-4.20192,141.658,['Papunesia'],['Papua New Guinea'],,Western Left May,Western Left May,amap1240,Left May,left1242,Papunesia,1,Left May,N Coast New Guinea,Left May
nort2971,leng1262,Enlhet Norte,language,enl,enl,-22.54,-58.98,['South America'],['Paraguay'],,Lengua,Lengua,nort2971,Lengua-Mascoy,leng1261,South America,1,,,
sout2989,leng1262,Enxet Sur,language,enx,enx,-23.427556,-57.945626,['South America'],['Paraguay'],,Lengua,Lengua,sout2989,Lengua-Mascoy,leng1261,South America,1,,,
kire1240,kire1239,Kire,language,geb,geb,-4.25927,144.711,['Papunesia'],['Papua New Guinea'],,Ruboni,Ruboni,kire1240,Lower Sepik-Ramu,lowe1437,Papunesia,1,Ruboni,N Coast New Guinea,Ramu-Lower Sepik
arua1260,mika1254,Aruamu,language,msy,msy,-4.28957,144.842,['Papunesia'],['Papua New Guinea'],,Mikarewan,Mikarewan,arua1260,Lower Sepik-Ramu,lowe1437,Papunesia,1,Ruboni,N Coast New Guinea,Ramu-Lower Sepik
biss1248,bisa1265,Bissa,language,bib,bib,10.4257,-1.67332,['Africa'],"['Burkina Faso', ""Côte d'Ivoire"", 'Ghana', 'Togo']",,Bisa-Busa,Bisa-Busa,biss1248,Mande,mand1469,Africa,1,Eastern Mande,African Savannah,Mande
boko1266,boko1265,Boko (Benin),language,bqc,bqc,10.5189,3.71771,['Africa'],"['Benin', 'Nigeria']",,Boko-Busa,Boko-Busa,boko1266,Mande,mand1469,Africa,1,Eastern Mande,African Savannah,Mande
boko1267,boko1265,Bokobaru,language,bus,bus,9.52724,3.80058,['Africa'],"['Benin', 'Nigeria']",,Boko-Busa,Boko-Busa,boko1267,Mande,mand1469,Africa,1,,,
busa1253,boko1265,Busa,language,bqp,bqp,9.91074,4.39929,['Africa'],['Nigeria'],,Boko-Busa,Boko-Busa,busa1253,Mande,mand1469,Africa,1,Eastern Mande,African Savannah,Mande
sout2844,mand1437,Southern Samo,language,sbd,sbd,12.713,-2.9052,['Africa'],['Burkina Faso'],,Mande Samo,Mande Samo,sout2844,Mande,mand1469,Africa,1,,,
nucl1770,dann1241,Nuclear Dan,dialect,dnj,dnj,7.27,-8.15,['Africa'],"[""Côte d'Ivoire""]",,Dan-Toura,Dan,nucl1770,Mande,mand1469,Africa,1,Eastern Mande,African Savannah,Mande
tour1242,tour1245,Toura (Côte d'Ivoire),language,neb,neb,7.76747,-7.33105,['Africa'],"[""Côte d'Ivoire""]",,Toura-Goo,Toura-Goo,tour1242,Mande,mand1469,Africa,1,,,
yaou1238,guro1247,Yaouré,language,yre,yre,6.95282,-5.57851,['Africa'],"[""Côte d'Ivoire""]",,Guro-Yaoure,Guro-Yaoure,yaou1238,Mande,mand1469,Africa,1,,,
bamb1269,east2425,Bambara,language,bam,bam,12.9,-7.65,['Africa'],"[""Côte d'Ivoire"", 'Guinea', 'Mali', 'Senegal']",,East Manding,East Manding,bamb1269,Mande,mand1469,Africa,1,Western Mande,African Savannah,Mande
dyul1238,east2425,Dyula,language,dyu,dyu,10.4536,-4.72007,['Africa'],"['Burkina Faso', ""Côte d'Ivoire"", 'Mali']",,East Manding,East Manding,dyul1238,Mande,mand1469,Africa,1,Western Mande,African Savannah,Mande
sank1253,mane1267,Sankaran Maninka,language,msc,msc,10.0962,-10.569,['Africa'],"['Guinea', 'Sierra Leone']",,Manenkan,Manenkan,sank1253,Mande,mand1469,Africa,1,,,
mand1436,west2499,Mandinka,language,mnk,mnk,12.8165233333,-15.6539466667,['Africa'],"['Gambia', 'Guinea', 'Guinea-Bissau', 'Senegal']",,West Manding,West Manding,mand1436,Mande,mand1469,Africa,1,Western Mande,African Savannah,Mande
xaas1235,xaso1239,Xaasongaxango,language,kao,kao,14.1,-10.95,['Africa'],"['Gambia', 'Mali', 'Senegal']",,Xasonka,Xasonka,xaas1235,Mande,mand1469,Africa,1,Western Mande,African Savannah,Mande
kura1250,nucl1445,Kuranko,language,knk,knk,9.49325,-10.6122,['Africa'],"['Guinea', 'Sierra Leone']",,Nuclear Mokole,Nuclear Mokole,kura1250,Mande,mand1469,Africa,1,Western Mande,African Savannah,Mande
kono1268,vaik1238,Kono (Sierra Leone),language,kno,kno,8.67039,-10.9214,['Africa'],"['Guinea', 'Sierra Leone']",,Vai-Kono,Vai-Kono,kono1268,Mande,mand1469,Africa,1,,,
susu1250,susu1249,Susu,language,sus,sus,10.4046,-13.3628,['Africa'],"['Guinea', 'Guinea-Bissau', 'Sierra Leone', 'Senegal']",,Susu-Yalunka,Susu-Yalunka,susu1250,Mande,mand1469,Africa,1,Western Mande,African Savannah,Mande
yalu1240,susu1249,Yalunka,language,yal,yal,9.97186,-11.2836,['Africa'],"['Guinea', 'Mali', 'Sierra Leone', 'Senegal']",,Susu-Yalunka,Susu-Yalunka,yalu1240,Mande,mand1469,Africa,1,,,
guin1254,kpel1252,Guinea Kpelle,language,gkp,gkp,7.93196,-8.98843,['Africa'],"['Guinea', 'Liberia']",,Kpelle,Kpelle,guin1254,Mande,mand1469,Africa,1,,,
loma1260,loma1259,Loma (Liberia),language,lom,lom,7.91585,-9.69906,['Africa'],"['Guinea', 'Liberia']",,Loma,Loma,loma1260,Mande,mand1469,Africa,1,Western Mande,African Savannah,Mande
mend1266,mend1265,Mende (Sierra Leone),language,men,men,7.90935,-10.9926,['Africa'],"['Guinea', 'Liberia', 'Sierra Leone']",,Mende-Loko,Mende-Loko,mend1266,Mande,mand1469,Africa,1,Western Mande,African Savannah,Mande
sout2840,bobo1253,Southern Bobo Madaré,language,bwq,bwq,11.5409,-4.26497,['Africa'],['Burkina Faso'],,Bobo,Bobo,sout2840,Mande,mand1469,Africa,1,,,
bura1267,bure1238,Burarra,language,bvr,bvr,-12.3061,134.365,['Australia'],['Australia'],,Bureran,Bureran,bura1267,Maningrida,mani1293,Australia,1,Burarran,N Australia,Mangrida
doro1266,manu1261,Doromu-Koki,language,kqc,kqc,-9.56687,147.986,['Papunesia'],['Papua New Guinea'],,,Manubaran,doro1266,Manubaran,manu1261,Papunesia,1,,,
maca1260,mata1290,Maca,language,mca,mca,-25.0119,-57.3694,['South America'],['Paraguay'],,Mataguayo I,Mataguayo I,maca1260,Matacoan,mata1289,South America,1,Matacoan,SE South America,Matacoan
niva1238,mata1290,Nivaclé,language,cag,cag,-22.8557,-61.7606,['South America'],"['Argentina', 'Bolivia, Plurinational State of', 'Paraguay']",,Mataguayo I,Mataguayo I,niva1238,Matacoan,mata1289,South America,1,Matacoan,SE South America,Matacoan
iyoj1235,chor1274,Iyojwa'ja Chorote,language,crt,crt,-22.1896,-63.2383,['South America'],['Argentina'],,Chorote,Chorote,iyoj1235,Matacoan,mata1289,South America,1,,,
iyow1239,chor1274,Iyo'wujwa Chorote,language,crq,crq,-22.2067,-62.6508,['South America'],"['Argentina', 'Bolivia, Plurinational State of', 'Paraguay']",,Chorote,Chorote,iyow1239,Matacoan,mata1289,South America,1,,,
wich1264,wich1261,Wichí Lhamtés Güisnay,language,mzh,mzh,-23.1633,-62.1757,['South America'],"['Argentina', 'Bolivia, Plurinational State of', 'Paraguay']",,Wichi,Wichi,wich1264,Matacoan,mata1289,South America,1,Matacoan,SE South America,Matacoan
kaqc1270,kaqc1280,Kaqchikel,language,cak,cak,14.4662,-90.9881,['North America'],['Guatemala'],,Cakchiquel-Tzutujil,Kaqchikelic,kaqc1270,Mayan,maya1287,North America,1,,,
tzut1248,cakc1244,Tz'utujil,language,tzj,tzj,14.6351,-91.2012,['North America'],['Guatemala'],,Cakchiquel-Tzutujil,Cakchiquel-Tzutujil,tzut1248,Mayan,maya1287,North America,1,Mayan,Mesoamerica,Mayan
achi1256,quic1275,Achi,language,acr,acr,15.073,-90.3513,['North America'],['Guatemala'],,Quiche-Achi,Quiche-Achi,achi1256,Mayan,maya1287,North America,1,Mayan,Mesoamerica,Mayan
kich1262,quic1275,K'iche',language,quc,quc,14.5278,-91.1696,['North America'],['Guatemala'],,Quiche-Achi,Quiche-Achi,kich1262,Mayan,maya1287,North America,1,Mayan,Mesoamerica,Mayan
kekc1242,grea1276,Kekchí,language,kek,kek,15.3788,-89.2452,['North America'],"['Belize', 'Guatemala', 'El Salvador']",,Greater Quichean,Greater Quichean,kekc1242,Mayan,maya1287,North America,1,Mayan,Mesoamerica,Mayan
poqo1254,poco1241,Poqomchi',language,poh,poh,15.3586,-90.5813,['North America'],['Guatemala'],,Poqom,Poqom,poqo1254,Mayan,maya1287,North America,1,Mayan,Mesoamerica,Mayan
uspa1245,grea1276,Uspanteco,language,usp,usp,15.3648,-90.8893,['North America'],['Guatemala'],,Greater Quichean,Greater Quichean,uspa1245,Mayan,maya1287,North America,1,,,
agua1252,ixil1250,Aguacateco,language,agu,agu,15.3307,-91.3153,['North America'],['Guatemala'],,Ixilan,Ixilan,agua1252,Mayan,maya1287,North America,1,Mayan,Mesoamerica,Mayan
ixil1251,ixil1250,Ixil,language,ixl,ixl,15.4569,-90.8935,['North America'],['Guatemala'],,Ixilan,Ixilan,ixil1251,Mayan,maya1287,North America,1,Mayan,Mesoamerica,Mayan
mamm1241,mame1240,Mam,language,mam,mam,14.8034,-91.7231,['North America'],"['Guatemala', 'Mexico']",,Mamean,Mamean,mamm1241,Mayan,maya1287,North America,1,Mayan,Mesoamerica,Mayan
tekt1235,mame1240,Tektiteko,language,ttc,ttc,15.4599,-92.1136,['North America'],"['Guatemala', 'Mexico']",,Mamean,Mamean,tekt1235,Mayan,maya1287,North America,1,Mayan,Mesoamerica,Mayan
chol1282,chol1281,Chol,language,ctu,ctu,17.4897,-92.4698,['North America'],['Mexico'],,Chol-Chontal,Chol-Chontal,chol1282,Mayan,maya1287,North America,1,Mayan,Mesoamerica,Mayan
taba1266,chol1281,Tabasco Chontal,language,chf,chf,18.1713,-92.7367,['North America'],['Mexico'],,Chol-Chontal,Chol-Chontal,taba1266,Mayan,maya1287,North America,1,Mayan,Mesoamerica,Mayan
chor1273,chor1272,Chortí,language,caa,caa,14.818,-89.2363,['North America'],"['Guatemala', 'Honduras']",,Chorti-Cholti,Chorti-Cholti,chor1273,Mayan,maya1287,North America,1,Mayan,Mesoamerica,Mayan
tzel1254,tzel1253,Tzeltal,language,tzh,tzh,16.6384,-92.2786,['North America'],['Mexico'],,Tzeltalan,Tzeltalan,tzel1254,Mayan,maya1287,North America,1,Mayan,Mesoamerica,Mayan
tzot1259,tzel1253,Tzotzil,language,tzo,tzo,16.6362,-92.7388,['North America'],['Mexico'],,Tzeltalan,Tzeltalan,tzot1259,Mayan,maya1287,North America,1,Mayan,Mesoamerica,Mayan
chuj1250,chuj1249,Chuj,language,cac,cac,15.8399,-91.76,['North America'],['Guatemala'],,Chujean,Chujean,chuj1250,Mayan,maya1287,North America,1,Mayan,Mesoamerica,Mayan
tojo1241,chuj1249,Tojolabal,language,toj,toj,16.2572,-91.7825,['North America'],['Mexico'],,Chujean,Chujean,tojo1241,Mayan,maya1287,North America,1,Mayan,Mesoamerica,Mayan
popt1235,kanj1263,Popti',language,jac,jac,15.6609,-91.6633,['North America'],['Guatemala'],,Kanjobal-Jacaltec,Kanjobal-Jacaltec,popt1235,Mayan,maya1287,North America,1,Mayan,Mesoamerica,Mayan
qanj1241,kanj1263,Q'anjob'al,language,kjb,kjb,15.6846,-91.3043,['North America'],['Guatemala'],,Kanjobal-Jacaltec,Kanjobal-Jacaltec,qanj1241,Mayan,maya1287,North America,1,Mayan,Mesoamerica,Mayan
west2635,kanj1263,Akateko,language,knj,knj,15.5932,-91.8421,['North America'],"['Guatemala', 'Mexico']",,Kanjobal-Jacaltec,Kanjobal-Jacaltec,west2635,Mayan,maya1287,North America,1,Mayan,Mesoamerica,Mayan
mopa1243,mopa1242,Mopán Maya,language,mop,mop,16.3533,-89.0673,['North America'],"['Belize', 'Guatemala']",,Mopan-Itza,Mopan-Itza,mopa1243,Mayan,maya1287,North America,1,Mayan,Mesoamerica,Mayan
laca1243,yuca1253,Lacandon,language,lac,lac,17.02093,-91.42348,['North America'],['Mexico'],,Yucatec-Lacandon,Yucatec-Lacandon,laca1243,Mayan,maya1287,North America,1,Mayan,Mesoamerica,Mayan
yuca1254,yuca1253,Yucatec Maya,language,yua,yua,18.7757,-88.9567,['North America'],"['Belize', 'Guatemala', 'Mexico']",,Yucatec-Lacandon,Yucatec-Lacandon,yuca1254,Mayan,maya1287,North America,1,Mayan,Mesoamerica,Mayan
huas1242,huas1241,Huastec,language,hus,hus,21.6153,-98.5028,['North America'],['Mexico'],,Huastecan Mayan,Huastecan Mayan,huas1242,Mayan,maya1287,North America,1,Mayan,Mesoamerica,Mayan
misk1235,misu1242,Mískito,language,miq,miq,15.1576,-84.2942,['North America'],"['Honduras', 'Nicaragua']",,,Misumalpan,misk1235,Misumalpan,misu1242,North America,1,Misumalpan,Mesoamerica,Misumalpan
russ1264,buri1258,Russia Buriat,language,bxr,bxr,50.85331,105.5637,['Eurasia'],"['Mongolia', 'Russian Federation']",,Buriat,Buriat,russ1264,Mongolic-Khitan,mong1349,Eurasia,1,,,
halh1238,mong1331,Halh Mongolian,language,khk,khk,48.32397,106.28874,['Eurasia'],"['Mongolia', 'Russian Federation']",,Mongolian,Mongolian,halh1238,Mongolic-Khitan,mong1349,Eurasia,1,Mongolic,Inner Asia,Altaic
kalm1243,mong1331,Oirad-Kalmyk-Darkhat,language,xal,xal,46.566667,45.316667,['Eurasia'],"['China', 'Kazakhstan', 'Mongolia', 'Russian Federation']",,Eastern Mongolic,Mongolian,kalm1243,Mongolic-Khitan,mong1349,Eurasia,1,Mongolic,Inner Asia,Altaic
mose1249,,Mosetén-Chimané,language,cas,cas,-14.64448,-67.83756,['South America'],"['Bolivia, Plurinational State of']",,,,mose1249,,,South America,1,Mosetenan,NE South America,Mosetenan
nade1244,nada1235,Nadëb,language,mbj,mbj,-1.24449,-66.3068,['South America'],['Brazil'],,,Naduhup,nade1244,Naduhup,nada1235,South America,1,Nadahup,NE South America,Nadahup
aghu1253,aghu1259,Aghul,language,agx,agx,41.9242,47.5843,['Eurasia'],"['Azerbaijan', 'Russian Federation']",,Aghul-Lezgi,Aghul-Lezgi,aghu1253,Nakh-Daghestanian,nakh1245,Eurasia,1,Lezgic,Greater Mesopotamia,Nakh-Daghestanian
taba1259,east2367,Tabasaran,language,tab,tab,42.0198,47.8379,['Eurasia'],"['Azerbaijan', 'Kazakhstan', 'Russian Federation']",,Tabasaran-Aghul-Lezgi,Tabasaran-Aghul-Lezgi,taba1259,Nakh-Daghestanian,nakh1245,Eurasia,1,Lezgic,Greater Mesopotamia,Nakh-Daghestanian
chec1245,chec1244,Chechen,language,che,che,43.5,45.5,['Eurasia'],"['Georgia', 'Kazakhstan', 'Russian Federation']",,Chechen-Ingush,Chechen-Ingush,chec1245,Nakh-Daghestanian,nakh1245,Eurasia,1,Nakh,Greater Mesopotamia,Nakh-Daghestanian
sout2994,namb1300,Southern Nambikuára,language,nab,nab,-14.3707,-59.5187,['South America'],['Brazil'],,Nambikwara Complex,Nambikwara Complex,sout2994,Nambiquaran,namb1299,South America,1,Nambikuaran,NE South America,Nambikuaran
ambu1247,ambu1246,Ambulas,language,abt,abt,-3.7801,143.059,['Papunesia'],['Papua New Guinea'],,Ambulas-Hanga-Hundi,Ambulas-Hanga-Hundi,ambu1247,Ndu,nduu1242,Papunesia,1,Ndu,N Coast New Guinea,Sepik
hang1263,ambu1246,Hanga Hundi,language,wos,wos,-3.90364,142.849,['Papunesia'],['Papua New Guinea'],,Ambulas-Hanga-Hundi,Ambulas-Hanga-Hundi,hang1263,Ndu,nduu1242,Papunesia,1,Ndu,N Coast New Guinea,Sepik
iatm1242,sawo1234,Iatmul,language,ian,ian,-4.30064,143.316,['Papunesia'],['Papua New Guinea'],,Iatmulic,Iatmulic,iatm1242,Ndu,nduu1242,Papunesia,1,Ndu,N Coast New Guinea,Sepik
teso1249,teso1248,Teso,language,teo,teo,1.18321,33.9394,['Africa'],"['Kenya', 'Uganda']",,Teso-Turkana,Teso-Turkana,teso1249,Nilotic,nilo1247,Africa,1,Eastern Nilotic,S Africa,Eastern Sudanic
kara1483,turk1307,Karamojong,language,kdj,kdj,2.45157,34.2761,['Africa'],"['Kenya', 'South Sudan', 'Uganda']",,Turkanic,Turkanic,kara1483,Nilotic,nilo1247,Africa,1,Eastern Nilotic,S Africa,Eastern Sudanic
nand1266,plat1260,Nandi,language,niq,niq,0.793737,35.408478,['Africa'],['Kenya'],,Plateau Central Kalenjin,Plateau Central Kalenjin,nand1266,Nilotic,nilo1247,Africa,1,,,
kups1238,elgo1240,Kupsabiny,language,kpz,kpz,1.33197,34.5991,['Africa'],"['Kenya', 'Uganda']",,Elgon-Mau Kalenjin,Elgon-Mau Kalenjin,kups1238,Nilotic,nilo1247,Africa,1,Southern Nilotic,S Africa,Eastern Sudanic
saba1262,elgo1240,Sabaot,language,spy,spy,1.01297,34.6664,['Africa'],"['Kenya', 'Uganda']",,Elgon-Mau Kalenjin,Elgon-Mau Kalenjin,saba1262,Nilotic,nilo1247,Africa,1,,,
dato1239,nort3277,Barabayiiga-Gisamjanga,language,tcc,tcc,-4.4131,35.2321,['Africa'],"['Tanzania, United Republic of']",,North-Central Datooga,North-Central Datooga,dato1239,Nilotic,nilo1247,Africa,1,Southern Nilotic,S Africa,Eastern Sudanic
maba1273,maba1272,Mabaan,language,mfz,mfz,9.81455,33.5404,['Africa'],"['Sudan', 'South Sudan']",,Southern Burun,Southern Burun,maba1273,Nilotic,nilo1247,Africa,1,,,
sout2832,dink1262,Southwestern Dinka,language,dik,dik,8.81115,28.0613,['Africa'],"['Sudan', 'South Sudan']",,Dinka,Dinka,sout2832,Nilotic,nilo1247,Africa,1,,,
nuer1246,nuer1245,Nuer,language,nus,nus,8.13911,32.3829,['Africa'],"['Ethiopia', 'South Sudan']",,Nuer-Reel,Nuer-Reel,nuer1246,Nilotic,nilo1247,Africa,1,Western Nilotic,African Savannah,Eastern Sudanic
luwo1239,luwo1240,Luwo,language,lwo,lwo,7.35089,28.1378,['Africa'],['South Sudan'],,Northern Lwoo,Luwo-Thuri,luwo1239,Nilotic,nilo1247,Africa,1,Western Nilotic,African Savannah,Eastern Sudanic
shil1265,nort2814,Shilluk,language,shk,shk,9.85472,31.7926,['Africa'],"['Sudan', 'South Sudan']",,Northern Lwoo,Northern Lwoo,shil1265,Nilotic,nilo1247,Africa,1,Western Nilotic,African Savannah,Eastern Sudanic
acol1236,sout2831,Acoli,language,ach,ach,3.57738,32.5147,['Africa'],"['South Sudan', 'Uganda']",,Southern Lwoo,Southern Lwoo,acol1236,Nilotic,nilo1247,Africa,1,Western Nilotic,S Africa,Eastern Sudanic
adho1243,adho1242,Adhola,language,adh,adh,0.73235,34.0341,['Africa'],"['Kenya', 'Uganda']",,Adhola-Luo,Adhola-Luo,adho1243,Nilotic,nilo1247,Africa,1,,,
luok1236,adho1242,Luo (Kenya and Tanzania),language,luo,luo,-0.93296,34.4896,['Africa'],"['Kenya', 'Tanzania, United Republic of']",,Adhola-Luo,Adhola-Luo,luok1236,Nilotic,nilo1247,Africa,1,Western Nilotic,S Africa,Eastern Sudanic
alur1250,adho1241,Alur,language,alz,alz,2.36213,31.0016,['Africa'],"['Congo, The Democratic Republic of the', 'Uganda']",,Adhola-Alur-Luo,Adhola-Alur-Luo,alur1250,Nilotic,nilo1247,Africa,1,,,
kuma1275,lang1323,Kumam,language,kdi,kdi,1.74748,33.2116,['Africa'],['Uganda'],,Lango-Kumam,Lango-Kumam,kuma1275,Nilotic,nilo1247,Africa,1,,,
lang1324,lang1323,Lango (Uganda),language,laj,laj,2.13867,33.0553,['Africa'],['Uganda'],,Lango-Kumam,Lango-Kumam,lang1324,Nilotic,nilo1247,Africa,1,Western Nilotic,S Africa,Eastern Sudanic
gale1259,gale1261,Galela,language,gbi,gbi,2.31461,128.44,['Papunesia'],['Indonesia'],,Galela-Loloda,Galela-Loloda,gale1259,North Halmahera,nort2923,Papunesia,1,North Halmaheran,Oceania,North Halmaheran
taba1263,main1282,Tabaru,language,tby,tby,1.46563,127.633,['Papunesia'],['Indonesia'],,Mainland North Halmaheran,Mainland North Halmaheran,taba1263,North Halmahera,nort2923,Papunesia,1,North Halmaheran,Oceania,North Halmaheran
roto1249,roto1248,Rotokas,language,roo,roo,-5.94339,155.154,['Papunesia'],['Papua New Guinea'],,Rotokas-Askopan,Rotokas-Askopan,roto1249,North Bougainville,nort2933,Papunesia,1,North Bougainville,Oceania,North Bougainville
kama1367,elep1241,Kamasau,language,kms,kms,-3.8503,143.842,['Papunesia'],['Papua New Guinea'],,Elepi-Kamasau-Marienberg,Elepi-Kamasau-Marienberg,kama1367,Nuclear Torricelli,nucl1708,Papunesia,1,Marienberg,N Coast New Guinea,Torricelli
suen1241,nort2909,Suena,language,sue,sue,-7.76339,147.534,['Papunesia'],['Papua New Guinea'],,North Binanderean,North Binanderean,suen1241,Nuclear Trans New Guinea,nucl1709,Papunesia,1,Binanderean,S New Guinea,Trans-New Guinea
ziaa1250,nort2909,Zia,language,zia,zia,-7.95814,147.579,['Papunesia'],['Papua New Guinea'],,North Binanderean,North Binanderean,ziaa1250,Nuclear Trans New Guinea,nucl1709,Papunesia,1,,,
bina1277,nucl1603,Binandere,language,bhg,bhg,-8.37433,147.884,['Papunesia'],['Papua New Guinea'],,Nuclear Binanderean,Nuclear Binanderean,bina1277,Nuclear Trans New Guinea,nucl1709,Papunesia,1,Binanderean,S New Guinea,Trans-New Guinea
ewag1241,coas1297,Ewage-Notu,language,nou,nou,-8.68756,148.405,['Papunesia'],['Papua New Guinea'],,Coastal Binanderean,Coastal Binanderean,ewag1241,Nuclear Trans New Guinea,nucl1709,Papunesia,1,,,
kora1294,gaen1235,Korafe-Yegha,language,kpr,kpr,-9.07,149.267,['Papunesia'],['Papua New Guinea'],,Gaena-Korafe,Gaena-Korafe,kora1294,Nuclear Trans New Guinea,nucl1709,Papunesia,1,Binanderean,S New Guinea,Trans-New Guinea
orok1269,orok1268,Orokaiva,language,okv,okv,-8.79019,148.09,['Papunesia'],['Papua New Guinea'],,Orokaivic,Orokaivic,orok1269,Nuclear Trans New Guinea,nucl1709,Papunesia,1,,,
guhu1244,bina1276,Guhu-Samane,language,ghs,ghs,-7.99922,147.228,['Papunesia'],['Papua New Guinea'],,Greater Binanderean,Greater Binanderean,guhu1244,Nuclear Trans New Guinea,nucl1709,Papunesia,1,Guhu-Samane,S New Guinea,Trans-New Guinea
yong1280,lowl1259,Yonggom,language,yon,yon,-6.42956,141.213,['Papunesia'],"['Indonesia', 'Papua New Guinea']",,Lowland Ok,Lowland Ok,yong1280,Nuclear Trans New Guinea,nucl1709,Papunesia,1,,,
bimi1240,moun1253,Bimin,language,bhl,bhl,-5.38732,142.04,['Papunesia'],['Papua New Guinea'],,Mountain Ok,Mountain Ok,bimi1240,Nuclear Trans New Guinea,nucl1709,Papunesia,1,,,
faiw1243,moun1253,Faiwol,language,fai,fai,-5.4967,141.656,['Papunesia'],"['Indonesia', 'Papua New Guinea']",,Mountain Ok,Mountain Ok,faiw1243,Nuclear Trans New Guinea,nucl1709,Papunesia,1,,,
mian1256,mian1255,Mian,language,mpt,mpt,-4.70881,141.523,['Papunesia'],['Papua New Guinea'],,Mianic,Mianic,mian1256,Nuclear Trans New Guinea,nucl1709,Papunesia,1,Ok,Interior New Guinea,Trans-New Guinea
tele1256,moun1253,Telefol,language,tlf,tlf,-5.07444,141.731,['Papunesia'],['Papua New Guinea'],,Mountain Ok,Mountain Ok,tele1256,Nuclear Trans New Guinea,nucl1709,Papunesia,1,Ok,Interior New Guinea,Trans-New Guinea
oksa1245,okok1235,Oksapmin,language,opm,opm,-5.20797,142.177,['Papunesia'],['Papua New Guinea'],,Ok-Oksapmin,Ok-Oksapmin,oksa1245,Nuclear Trans New Guinea,nucl1709,Papunesia,1,Oksapmin,Interior New Guinea,Trans-New Guinea
umbu1258,auag1234,Umbu-Ungu,language,ubu,ubu,-5.9513,143.97,['Papunesia'],['Papua New Guinea'],,Aua-Gawil,Aua-Gawil,umbu1258,Nuclear Trans New Guinea,nucl1709,Papunesia,1,Chimbu-Wahgi,Interior New Guinea,Trans-New Guinea
melp1238,melp1239,Melpa,language,med,med,-5.62644,144.34,['Papunesia'],['Papua New Guinea'],,Melpa-Tembagla,Melpa-Tembagla,melp1238,Nuclear Trans New Guinea,nucl1709,Papunesia,1,,,
kand1303,kand1306,Kandawo,language,gam,gam,-5.73674,144.966,['Papunesia'],['Papua New Guinea'],,Kandawo-Narak,Kandawo-Narak,kand1303,Nuclear Trans New Guinea,nucl1709,Papunesia,1,,,
goli1247,goli1246,Golin,language,gvf,gvf,-6.2249,144.8505,['Papunesia'],['Papua New Guinea'],,Golinic,Golinic,goli1247,Nuclear Trans New Guinea,nucl1709,Papunesia,1,Chimbu-Wahgi,Interior New Guinea,Trans-New Guinea
kuma1280,kuma1279,Kuman,language,kue,kue,-5.90586,144.977,['Papunesia'],['Papua New Guinea'],,Kuman-Dom-Gunaa,Kuman-Dom-Gunaa,kuma1280,Nuclear Trans New Guinea,nucl1709,Papunesia,1,Chimbu-Wahgi,Interior New Guinea,Trans-New Guinea
angg1239,yali1257,Angguruk Yali,language,yli,yli,-4.0836,139.457,['Papunesia'],['Indonesia'],,Yalic,Yalic,angg1239,Nuclear Trans New Guinea,nucl1709,Papunesia,1,,,
kyak1244,enga1251,Kyaka,language,kyc,kyc,-5.52462,144.119,['Papunesia'],['Papua New Guinea'],,Engan,Engan,kyak1244,Nuclear Trans New Guinea,nucl1709,Papunesia,1,Enga_Kewa-Huli,Interior New Guinea,Trans-New Guinea
anga1292,anga1314,Angal Heneng,language,akh,akh,-6.13347,143.478,['Papunesia'],['Papua New Guinea'],,Angal Mendi,Angal Mendi,anga1292,Nuclear Trans New Guinea,nucl1709,Papunesia,1,,,
west2599,kewa1250,West Kewa,language,kew,kew,-6.32097,143.73,['Papunesia'],['Papua New Guinea'],,Kewa,Kewa,west2599,Nuclear Trans New Guinea,nucl1709,Papunesia,1,Enga_Kewa-Huli,Interior New Guinea,Trans-New Guinea
samb1321,anga1291,Samberigi,language,ssx,ssx,-6.7028,143.951,['Papunesia'],['Papua New Guinea'],,Sau-Angal-Kewa,Sau-Angal-Kewa,samb1321,Nuclear Trans New Guinea,nucl1709,Papunesia,1,,,
huli1244,kewa1249,Huli,language,hui,hui,-5.97212,142.963,['Papunesia'],['Papua New Guinea'],,Kewa-Huli,Kewa-Huli,huli1244,Nuclear Trans New Guinea,nucl1709,Papunesia,1,,,
fore1270,fore1273,Fore,language,for,for,-6.64473,145.5065,['Papunesia'],['Papua New Guinea'],,Fore-Gimi,Fore-Gimi,fore1270,Nuclear Trans New Guinea,nucl1709,Papunesia,1,Fore-Gimi,Interior New Guinea,Trans-New Guinea
alek1238,gahu1246,Alekano,language,gah,gah,-6.03901,145.387,['Papunesia'],['Papua New Guinea'],,Gahuku,Gahuku,alek1238,Nuclear Trans New Guinea,nucl1709,Papunesia,1,Gahuku,Interior New Guinea,Trans-New Guinea
dano1240,gahu1246,Dano,language,aso,aso,-5.92188,145.254,['Papunesia'],['Papua New Guinea'],,Gahuku,Gahuku,dano1240,Nuclear Trans New Guinea,nucl1709,Papunesia,1,,,
bena1264,nucl1756,Benabena,language,bef,bef,-6.09974,145.534,['Papunesia'],['Papua New Guinea'],,Siane-Yagaria,Siane-Yagaria,bena1264,Nuclear Trans New Guinea,nucl1709,Papunesia,1,Siane-Yagaria,Interior New Guinea,Trans-New Guinea
inok1238,kama1374,Inoke-Yate,language,ino,ino,-6.32311,145.539,['Papunesia'],['Papua New Guinea'],,Kamano-Yagaria,Kamano-Yagaria,inok1238,Nuclear Trans New Guinea,nucl1709,Papunesia,1,,,
kama1370,kama1374,Kamano,language,kbq,kbq,-6.25829,145.728,['Papunesia'],['Papua New Guinea'],,Kamano-Yagaria,Kamano-Yagaria,kama1370,Nuclear Trans New Guinea,nucl1709,Papunesia,1,Siane-Yagaria,Interior New Guinea,Trans-New Guinea
sian1257,nucl1756,Siane,language,snp,snp,-6.13188,145.247,['Papunesia'],['Papua New Guinea'],,Siane-Yagaria,Siane-Yagaria,sian1257,Nuclear Trans New Guinea,nucl1709,Papunesia,1,Siane-Yagaria,Interior New Guinea,Trans-New Guinea
yawe1241,nucl1756,Yaweyuha,language,yby,yby,-6.1868,145.359,['Papunesia'],['Papua New Guinea'],,Siane-Yagaria,Siane-Yagaria,yawe1241,Nuclear Trans New Guinea,nucl1709,Papunesia,1,,,
awiy1238,auya1234,Awiyaana,language,auy,auy,-6.54079,145.76,['Papunesia'],['Papua New Guinea'],,Auyana,Auyana,awiy1238,Nuclear Trans New Guinea,nucl1709,Papunesia,1,Gauwa,Interior New Guinea,Trans-New Guinea
awap1236,awao1234,Awa (Papua New Guinea),language,awb,awb,-6.65534,145.714,['Papunesia'],['Papua New Guinea'],,Awa-Oweina,Awa-Oweina,awap1236,Nuclear Trans New Guinea,nucl1709,Papunesia,1,Gauwa,Interior New Guinea,Trans-New Guinea
agar1252,gads1260,Agarabi,language,agd,agd,-6.20604,145.917,['Papunesia'],['Papua New Guinea'],,Gadsup-Agarabi,Gadsup-Agarabi,agar1252,Nuclear Trans New Guinea,nucl1709,Papunesia,1,Gauwa,Interior New Guinea,Trans-New Guinea
binu1245,tair1260,Binumarien,language,bjr,bjr,-6.22068,146.102,['Papunesia'],['Papua New Guinea'],,Tairora,Tairora,binu1245,Nuclear Trans New Guinea,nucl1709,Papunesia,1,Tairora,Interior New Guinea,Trans-New Guinea
nort2920,tair1260,North Tairora,language,tbg,tbg,-6.51563,145.959,['Papunesia'],['Papua New Guinea'],,Tairora,Tairora,nort2920,Nuclear Trans New Guinea,nucl1709,Papunesia,1,Tairora,Interior New Guinea,Trans-New Guinea
sout2943,tair1260,South Tairora,language,omw,omw,-6.35337,145.883,['Papunesia'],['Papua New Guinea'],,Tairora,Tairora,sout2943,Nuclear Trans New Guinea,nucl1709,Papunesia,1,,,
waff1241,tair1260,Waffa,language,waj,waj,-6.55783,146.09,['Papunesia'],['Papua New Guinea'],,Tairora,Tairora,waff1241,Nuclear Trans New Guinea,nucl1709,Papunesia,1,,,
barg1252,croi1234,Bargam,language,mlp,mlp,-4.8723,145.756,['Papunesia'],['Papua New Guinea'],,Croisilles,Croisilles,barg1252,Nuclear Trans New Guinea,nucl1709,Papunesia,1,Bargam,N Coast New Guinea,Trans-New Guinea
wask1241,kowa1247,Waskia,language,wsk,wsk,-4.57978,145.979,['Papunesia'],['Papua New Guinea'],,Kowan,Kowan,wask1241,Nuclear Trans New Guinea,nucl1709,Papunesia,1,Kowan,N Coast New Guinea,Trans-New Guinea
mauw1238,kumi1249,Mauwake,language,mhl,mhl,-4.52416,145.394,['Papunesia'],['Papua New Guinea'],,Kumil,Kumil,mauw1238,Nuclear Trans New Guinea,nucl1709,Papunesia,1,,,
usan1239,kari1319,Usan,language,wnu,wnu,-4.84265,145.362,['Papunesia'],['Papua New Guinea'],,Numugenan,Karian-Usan-Yaben,usan1239,Nuclear Trans New Guinea,nucl1709,Papunesia,1,North Adelbert,N Coast New Guinea,Trans-New Guinea
amel1241,gumm1240,Amele,language,aey,aey,-5.29126,145.687,['Papunesia'],['Papua New Guinea'],,Gum,Gum,amel1241,Nuclear Trans New Guinea,nucl1709,Papunesia,1,Mabuso,N Coast New Guinea,Trans-New Guinea
nobo1238,garu1247,Nobonob,language,gaw,gaw,-5.06952,145.712,['Papunesia'],['Papua New Guinea'],,Garuh-Foran,Garuh-Foran,nobo1238,Nuclear Trans New Guinea,nucl1709,Papunesia,1,,,
wagi1249,garu1247,Wagi (Papua New Guinea),language,fad,fad,-5.17834,145.726,['Papunesia'],['Papua New Guinea'],,Garuh-Foran,Garuh-Foran,wagi1249,Nuclear Trans New Guinea,nucl1709,Papunesia,1,,,
gira1247,koko1271,Girawa,language,bbr,bbr,-5.35342,145.423,['Papunesia'],['Papua New Guinea'],,Kokon,Kokon,gira1247,Nuclear Trans New Guinea,nucl1709,Papunesia,1,,,
kein1239,koko1271,Kein,language,bmh,bmh,-5.3373,145.483,['Papunesia'],['Papua New Guinea'],,Kokon,Kokon,kein1239,Nuclear Trans New Guinea,nucl1709,Papunesia,1,,,
kala1397,etpt1234,Kalam,language,kmh,kmh,-5.25216,144.585,['Papunesia'],['Papua New Guinea'],,Etp-Ti Kalam,Etp-Ti Kalam,kala1397,Nuclear Trans New Guinea,nucl1709,Papunesia,1,Kalam-Kobon,Interior New Guinea,Trans-New Guinea
kobo1249,kala1404,Kobon,language,kpw,kpw,-5.16446,144.46,['Papunesia'],['Papua New Guinea'],,Kalam-Kobon,Kalam-Kobon,kobo1249,Nuclear Trans New Guinea,nucl1709,Papunesia,1,Kalam-Kobon,Interior New Guinea,Trans-New Guinea
siro1249,kabe1245,Siroi,language,ssd,ssd,-5.52893,145.994,['Papunesia'],['Papua New Guinea'],,Kabenau,Kabenau,siro1249,Nuclear Trans New Guinea,nucl1709,Papunesia,1,Rai Coast,N Coast New Guinea,Trans-New Guinea
anja1238,coas1332,Anjam,language,boj,boj,-5.45899,145.717,['Papunesia'],['Papua New Guinea'],,Mindjim,Coastal Minjim,anja1238,Nuclear Trans New Guinea,nucl1709,Papunesia,1,,,
ogea1238,nuru1240,Ogea,language,eri,eri,-5.37766,145.71,['Papunesia'],['Papua New Guinea'],,Nuru,Nuru,ogea1238,Nuclear Trans New Guinea,nucl1709,Papunesia,1,,,
kosa1249,west2585,Kosarek Yale,language,kkl,kkl,-4.06603,139.645,['Papunesia'],['Indonesia'],,Western Mek,Western Mek,kosa1249,Nuclear Trans New Guinea,nucl1709,Papunesia,1,Mek,Interior New Guinea,Trans-New Guinea
kara1500,nucl1710,Karajá,language,kpj,kpj,-11.1881,-50.3492,['South America'],['Brazil'],,,Nuclear-Macro-Je,kara1500,Nuclear-Macro-Je,nucl1710,South America,1,Karajá,NE South America,Macro-Ge
maxa1247,west2636,Maxakalí,language,mbl,mbl,-16.9402,-40.7891,['South America'],['Brazil'],,Western Maxakali,Western Maxakali,maxa1247,Nuclear-Macro-Je,nucl1710,South America,1,Maxakalian,NE South America,Macro-Ge
rikb1245,nucl1710,Rikbaktsa,language,rkb,rkb,-11.1887,-58.1942,['South America'],['Brazil'],,,Nuclear-Macro-Je,rikb1245,Nuclear-Macro-Je,nucl1710,South America,1,Rikbaktsa,NE South America,Macro-Ge
guer1243,amuz1254,Guerrero Amuzgo,language,amu,amu,16.77226,-98.18953,['North America'],['Mexico'],,Amuzgoan,Amuzgoan,guer1243,Otomanguean,otom1299,North America,1,Amuzgoan,Mesoamerica,Oto-Manguean
sanp1260,amuz1254,San Pedro Amuzgos Amuzgo,language,azg,azg,16.5198,-98.0464,['North America'],['Mexico'],,Amuzgoan,Amuzgoan,sanp1260,Otomanguean,otom1299,North America,1,,,
tepe1280,cuic1234,Tepeuxila Cuicatec,language,cux,cux,17.756,-96.788,['North America'],['Mexico'],,Cuicatec,Cuicatec,tepe1280,Otomanguean,otom1299,North America,1,,,
teut1235,cuic1234,Teutila Cuicatec,language,cut,cut,17.9029,-96.6645,['North America'],['Mexico'],,Cuicatec,Cuicatec,teut1235,Otomanguean,otom1299,North America,1,,,
sila1250,cent2266,Silacayoapan Mixtec,language,mks,mks,17.5541,-98.1163,['North America'],"['Mexico', 'United States']",,Central Baja Mixtec,Central Baja Mixtec,sila1250,Otomanguean,otom1299,North America,1,Mixtec,Mesoamerica,Oto-Manguean
chay1249,east2746,Chayuco Mixtec,language,mih,mih,16.42,-97.83,['North America'],['Mexico'],,East Coast Mixtec,East Coast Mixtec,chay1249,Otomanguean,otom1299,North America,1,Mixtec,Mesoamerica,Oto-Manguean
sanj1281,east2746,San Juan Colorado Mixtec,language,mjc,mjc,16.46073,-97.95446,['North America'],['Mexico'],,East Coast Mixtec,East Coast Mixtec,sanj1281,Otomanguean,otom1299,North America,1,Mixtec,Mesoamerica,Oto-Manguean
peno1244,east2735,Peñoles Mixtec,language,mil,mil,17.0671,-97.0101,['North America'],"['Mexico', 'United States']",,Eastern Alta Mixtec,Eastern Alta Mixtec,peno1244,Otomanguean,otom1299,North America,1,Mixtec,Mesoamerica,Oto-Manguean
sanm1295,west2824,San Miguel El Grande Mixtec,language,mig,mig,17.046881,-97.622482,['North America'],['Mexico'],,Western Alta Mixtec,Western Alta Mixtec,sanm1295,Otomanguean,otom1299,North America,1,Mixtec,Mesoamerica,Oto-Manguean
yoso1239,west2824,Yosondúa Mixtec,language,mpm,mpm,16.874,-97.579,['North America'],['Mexico'],,Western Alta Mixtec,Western Alta Mixtec,yoso1239,Otomanguean,otom1299,North America,1,Mixtec,Mesoamerica,Oto-Manguean
copa1237,triq1251,Copala Triqui,language,trc,trc,17.1541,-97.9826,['North America'],"['Mexico', 'United States']",,Trique,Trique,copa1237,Otomanguean,otom1299,North America,1,Trique,Mesoamerica,Oto-Manguean
sanj1285,sout3385,San Juan Atzingo Popoloca,language,poe,poe,18.22245,-97.37923,['North America'],['Mexico'],,Popolocan,Southwestern Popolocan,sanj1285,Otomanguean,otom1299,North America,1,Popolocan,Mesoamerica,Oto-Manguean
chiq1250,maza1295,Chiquihuitlán Mazatec,language,maq,maq,18.0541,-96.6659,['North America'],['Mexico'],,Mazatecan,Mazatecan,chiq1250,Otomanguean,otom1299,North America,1,Popolocan,Mesoamerica,Oto-Manguean
huau1238,maza1309,Huautla Mazatec,language,mau,mau,18.2556,-96.724,['North America'],['Mexico'],,Central Mazatec,Central Mazatec,huau1238,Otomanguean,otom1299,North America,1,Popolocan,Mesoamerica,Oto-Manguean
sanj1286,teco1234,San Jerónimo Tecóatl Mazatec,language,maa,maa,18.1999,-96.8833,['North America'],['Mexico'],,Mazatecan,Northwest Alta Mazatec,sanj1286,Otomanguean,otom1299,North America,1,,,
ayau1235,ayau1236,Ayautla Mazatec,language,vmy,vmy,18.0993,-96.5952,['North America'],['Mexico'],,Mazatecan,Ayautlic,ayau1235,Otomanguean,otom1299,North America,1,,,
jala1237,vall1259,Jalapa De Díaz Mazatec,language,maj,maj,18.0803,-96.4977,['North America'],['Mexico'],,Mazatecan,Valley Mazatec,jala1237,Otomanguean,otom1299,North America,1,,,
west2644,east2736,Western Highland Chatino,language,ctp,ctp,16.2495,-97.3244,['North America'],['Mexico'],,Eastern Chatino,Eastern Chatino,west2644,Otomanguean,otom1299,North America,1,Zapotecan,Mesoamerica,Oto-Manguean
tata1258,coas1314,Tataltepec Chatino,language,cta,cta,16.2963,-97.5311,['North America'],['Mexico'],,Coastal Chatino,Coastal Chatino,tata1258,Otomanguean,otom1299,North America,1,Zapotecan,Mesoamerica,Oto-Manguean
mitl1236,cent2146,Mitla Zapotec,language,zaw,zaw,16.86849,-96.29434,['North America'],['Mexico'],,Central Core Zapotec,Central Core Zapotec,mitl1236,Otomanguean,otom1299,North America,1,Zapotecan,Mesoamerica,Oto-Manguean
mixt1426,mixt1428,Mixtepec Zapotec,language,zpm,zpm,16.1724,-96.2372,['North America'],['Mexico'],,Mixtepec-Quioquitani-Quieri Zapotec,Mixtepec-Quioquitani-Quieri Zapotec,mixt1426,Otomanguean,otom1299,North America,1,Zapotecan,Mesoamerica,Oto-Manguean
quio1241,mixt1428,Quioquitani-Quieri Zapotec,language,ztq,ztq,16.3416,-96.1555,['North America'],['Mexico'],,Mixtepec-Quioquitani-Quieri Zapotec,Mixtepec-Quioquitani-Quieri Zapotec,quio1241,Otomanguean,otom1299,North America,1,,,
sant1451,sout3003,Santa María Quiegolani Zapotec,language,zpi,zpi,16.033,-96.0486,['North America'],['Mexico'],,Central Core Zapotec,Cisyautepequeño,sant1451,Otomanguean,otom1299,North America,1,Zapotecan,Mesoamerica,Oto-Manguean
isth1244,exte1234,Isthmus Zapotec,language,zai,zai,16.4548,-94.8444,['North America'],['Mexico'],,Central Core Zapotec,Extended Ocotepec Zapotec,isth1244,Otomanguean,otom1299,North America,1,Zapotecan,Mesoamerica,Oto-Manguean
ocot1244,exte1234,Ocotlán Zapotec,language,zac,zac,16.8258,-96.7263,['North America'],['Mexico'],,Central Core Zapotec,Extended Ocotepec Zapotec,ocot1244,Otomanguean,otom1299,North America,1,,,
sanj1284,west2947,Western Tlacolula Valley Zapotec,language,zab,zab,17.0332,-96.5967,['North America'],"['Mexico', 'United States']",,Central Core Zapotec,Western Valley Zapotec,sanj1284,Otomanguean,otom1299,North America,1,Zapotecan,Mesoamerica,Oto-Manguean
cajo1238,cajo1239,Cajonos Zapotec,language,zad,zad,17.1427,-96.3352,['North America'],"['Mexico', 'United States']",,Northern Core Zapotec,Cajonosic,cajo1238,Otomanguean,otom1299,North America,1,,,
yala1267,cajo1239,Yalálag Zapotec,language,zpu,zpu,17.2134,-96.2183,['North America'],"['Mexico', 'United States']",,Northern Core Zapotec,Cajonosic,yala1267,Otomanguean,otom1299,North America,1,,,
yatz1235,cajo1239,Yatzachi Zapotec,language,zav,zav,17.1869,-96.284,['North America'],"['Mexico', 'United States']",,Northern Core Zapotec,Cajonosic,yatz1235,Otomanguean,otom1299,North America,1,Zapotecan,Mesoamerica,Oto-Manguean
zoog1238,cajo1239,Zoogocho Zapotec,language,zpq,zpq,17.2016,-96.3433,['North America'],"['Mexico', 'United States']",,Northern Core Zapotec,Cajonosic,zoog1238,Otomanguean,otom1299,North America,1,Zapotecan,Mesoamerica,Oto-Manguean
choa1237,nort2987,Choapan Zapotec,language,zpc,zpc,17.4371,-95.8656,['North America'],['Mexico'],,Northern Core Zapotec,Northern Core Zapotec,choa1237,Otomanguean,otom1299,North America,1,,,
sout3004,rinc1236,Southern Rincon Zapotec,dialect,zsr,zsr,17.3031,-96.3775,['North America'],['Mexico'],,Northern Core Zapotec,Rincón Zapotec,sout3004,Otomanguean,otom1299,North America,1,,,
sier1250,sier1251,Sierra de Juárez Zapotec,language,zaa,zaa,17.4219,-96.6191,['North America'],['Mexico'],,Northern Core Zapotec,Sierra Juarezic,sier1250,Otomanguean,otom1299,North America,1,Zapotecan,Mesoamerica,Oto-Manguean
yare1249,sier1251,Yareni Zapotec,language,zae,zae,17.3406,-96.7052,['North America'],['Mexico'],,Northern Core Zapotec,Sierra Juarezic,yare1249,Otomanguean,otom1299,North America,1,,,
amat1238,amat1239,Amatlán Zapotec,language,zpo,zpo,16.2707,-96.4003,['North America'],['Mexico'],,Cisyautepequeño,Amatecano,amat1238,Otomanguean,otom1299,North America,1,,,
texm1235,papa1270,Texmelucan Zapotec,language,zpz,zpz,16.49197,-97.08947,['North America'],['Mexico'],,Papabuco,Papabuco,texm1235,Otomanguean,otom1299,North America,1,Zapotecan,Mesoamerica,Oto-Manguean
lach1249,west2646,Lachixío Zapotec,language,zpl,zpl,16.7215,-96.9318,['North America'],['Mexico'],,West-Central West Zapotec,West-Central West Zapotec,lach1249,Otomanguean,otom1299,North America,1,,,
soch1239,chin1486,Sochiapam Chinantec,language,cso,cso,17.7985,-96.6079,['North America'],['Mexico'],,Chinantec Group I,Chinantec Group I,soch1239,Otomanguean,otom1299,North America,1,Chinantecan,Mesoamerica,Oto-Manguean
usil1237,chin1486,Usila Chinantec,language,cuc,cuc,17.9184,-96.4074,['North America'],['Mexico'],,Chinantec Group I,Chinantec Group I,usil1237,Otomanguean,otom1299,North America,1,Chinantecan,Mesoamerica,Oto-Manguean
pala1351,chin1487,Palantla Chinantec,language,cpa,cpa,17.884,-96.3407,['North America'],['Mexico'],,Chinantec Group II,Chinantec Group II,pala1351,Otomanguean,otom1299,North America,1,Chinantecan,Mesoamerica,Oto-Manguean
leal1235,chin1489,Lealao Chinantec,language,cle,cle,17.3162,-95.9265,['North America'],['Mexico'],,Chinantec Group IV,Chinantec Group IV,leal1235,Otomanguean,otom1299,North America,1,Chinantecan,Mesoamerica,Oto-Manguean
cent2144,maza1293,Central Mazahua,language,maz,maz,19.7357,-100.018,['North America'],['Mexico'],,Mazahua,Mazahua,cent2144,Otomanguean,otom1299,North America,1,Otomian,Mesoamerica,Oto-Manguean
east2556,east2737,Eastern Highland Otomi,language,otm,otm,20.5991,-98.0978,['North America'],['Mexico'],,Eastern Otomi,Eastern Otomi,east2556,Otomanguean,otom1299,North America,1,Otomian,Mesoamerica,Oto-Manguean
mezq1235,nort3201,Mezquital Otomi,language,ote,ote,20.2274,-99.5564,['North America'],"['Mexico', 'United States']",,Northwestern Otomi,Northwestern Otomi,mezq1235,Otomanguean,otom1299,North America,1,Otomian,Mesoamerica,Oto-Manguean
quer1236,nort3201,Querétaro Otomi,language,otq,otq,20.1396,-100.115,['North America'],['Mexico'],,Northwestern Otomi,Northwestern Otomi,quer1236,Otomanguean,otom1299,North America,1,Otomian,Mesoamerica,Oto-Manguean
esta1236,sout3168,Estado de México Otomi,language,ots,ots,19.8781,-99.61,['North America'],['Mexico'],,Southwestern Otomi,Southwestern Otomi,esta1236,Otomanguean,otom1299,North America,1,,,
paez1247,,Páez,language,pbb,pbb,2.61516,-76.31254,['South America'],['Colombia'],,,,paez1247,,,South America,1,Páezan,NE South America,Páezan
cash1251,main1279,Cashibo-Cacataibo,language,cbr,cbr,-8.70232,-75.4206,['South America'],['Peru'],,Mainline Pano,Mainline Pano,cash1251,Pano-Tacanan,pano1259,South America,1,Panoan,NE South America,Pano-Tacanan
chac1251,boli1261,Chácobo,language,cao,cao,-12.133,-66.7164,['South America'],"['Bolivia, Plurinational State of']",,Bolivian Nawa,Bolivian Nawa,chac1251,Pano-Tacanan,pano1259,South America,1,Panoan,NE South America,Pano-Tacanan
capa1241,ship1253,Capanahua,language,kaq,kaq,-6.63254,-74.3813,['South America'],['Peru'],,Shipibo-Konibo-Kapanawa,Shipibo-Konibo-Kapanawa,capa1241,Pano-Tacanan,pano1259,South America,1,Panoan,NE South America,Pano-Tacanan
ship1254,ship1253,Shipibo-Conibo,language,shp,shp,-7.17105,-74.8219,['South America'],['Peru'],,Shipibo-Konibo-Kapanawa,Shipibo-Konibo-Kapanawa,ship1254,Pano-Tacanan,pano1259,South America,1,Panoan,NE South America,Pano-Tacanan
cash1254,head1239,Cashinahua,language,cbs,cbs,-9.72027,-71.1733,['South America'],"['Brazil', 'Peru']",,Headwaters Pano,Headwaters Pano,cash1254,Pano-Tacanan,pano1259,South America,1,Panoan,NE South America,Pano-Tacanan
shar1245,yami1255,Sharanahua,language,mcd,mcd,-9.8626,-71.1232,['South America'],"['Brazil', 'Peru']",,Yaminawa Complex,Yaminawa Complex,shar1245,Pano-Tacanan,pano1259,South America,1,Panoan,NE South America,Pano-Tacanan
yami1256,yami1255,Yaminahua,language,yaa,yaa,-9.8846,-71.5964,['South America'],"['Bolivia, Plurinational State of', 'Brazil', 'Peru']",,Yaminawa Complex,Yaminawa Complex,yami1256,Pano-Tacanan,pano1259,South America,1,Panoan,NE South America,Pano-Tacanan
mats1244,mats1243,Matsés,language,mcf,mcf,-5.73914,-72.6281,['South America'],"['Brazil', 'Peru']",,Matses subgroup,Matses subgroup,mats1244,Pano-Tacanan,pano1259,South America,1,Panoan,NE South America,Pano-Tacanan
cavi1250,taca1255,Cavineña,language,cav,cav,-13.3544,-66.6277,['South America'],"['Bolivia, Plurinational State of']",,Tacanan,Tacanan,cavi1250,Pano-Tacanan,pano1259,South America,1,Tacanan,NE South America,Pano-Tacanan
esee1248,taka1267,Ese Ejja,language,ese,ese,-11.7268,-67.515,['South America'],"['Bolivia, Plurinational State of', 'Peru']",,Takanik-Chamik,Takanik-Chamik,esee1248,Pano-Tacanan,pano1259,South America,1,Tacanan,NE South America,Pano-Tacanan
taca1256,taka1268,Tacana,language,tna,tna,-13.39249,-68.04056,['South America'],"['Bolivia, Plurinational State of']",,Takanik,Takanik,taca1256,Pano-Tacanan,pano1259,South America,1,Tacanan,NE South America,Pano-Tacanan
pele1245,,Pele-Ata,language,ata,ata,-5.58045,151.05,['Papunesia'],['Papua New Guinea'],,,,pele1245,,,Papunesia,1,,,
hual1241,apam1237,Huallaga Huánuco Quechua,language,qub,qub,-9.57135,-75.594,['South America'],['Peru'],,AP-AM-AH,AP-AM-AH,hual1241,Quechuan,quec1387,South America,1,Quechuan,Andean,Quechuan
pana1306,pana1312,Panao Huánuco Quechua,language,qxh,qxh,-9.85887,-75.4382,['South America'],['Peru'],,AP-AM-AH,Panao-Union,pana1306,Quechuan,quec1387,South America,1,,,
sout2992,conc1245,Southern Conchucos Ancash Quechua,language,qxo,qxo,-9.30995,-76.9854,['South America'],['Peru'],,Conchucos,Conchucos,sout2992,Quechuan,quec1387,South America,1,,,
huay1240,huay1239,Huaylas Ancash Quechua,language,qwh,qwh,-9.38709,-77.7768,['South America'],['Peru'],,Huaylay,Huaylay,huay1240,Quechuan,quec1387,South America,1,,,
huay1241,jauj1237,Huaylla Wanca Quechua,language,qvw,qvw,-12.1809,-75.2055,['South America'],['Peru'],,Jauja-Huanca,Jauja-Huanca,huay1241,Quechuan,quec1387,South America,1,,,
nort2980,yaru1256,North Junín Quechua,language,qvn,qvn,-11.2132,-75.8128,['South America'],['Peru'],,Yaru Quechua,Yaru Quechua,nort2980,Quechuan,quec1387,South America,1,,,
caja1238,caja1240,Cajamarca Quechua,language,qvc,qvc,-7.09314,-78.3214,['South America'],['Peru'],,Quechua II,Cajamarca-Lambayeque Quechua,caja1238,Quechuan,quec1387,South America,1,Quechuan,Andean,Quechuan
lamb1276,caja1240,Lambayeque Quechua,language,quf,quf,-6.1715,-79.468,['South America'],['Peru'],,Quechua II,Cajamarca-Lambayeque Quechua,lamb1276,Quechuan,quec1387,South America,1,,,
sanm1289,sanm1306,San Martín Quechua,language,qvs,qvs,-6.9582,-76.6608,['South America'],['Peru'],,Quechua IIB,San Martin-Amazonas Quechua,sanm1289,Quechuan,quec1387,South America,1,,,
ayac1239,ayac1238,Ayacucho Quechua,language,quy,quy,-13.84714,-74.32246,['South America'],['Peru'],,Ayacuchan Quechua,Ayacuchan Quechua,ayac1239,Quechuan,quec1387,South America,1,Quechuan,Andean,Quechuan
nort2976,boli1262,North Bolivian Quechua,language,qul,qul,-14.4014,-68.7894,['South America'],"['Bolivia, Plurinational State of', 'Peru']",,Bolivian-Argentinian Quechua,Bolivian-Argentinian Quechua,nort2976,Quechuan,quec1387,South America,1,,,
sout2991,boli1262,South Bolivian Quechua,language,quh,quh,-20.9201,-66.3331,['South America'],"['Argentina', 'Bolivia, Plurinational State of', 'Chile']",,Bolivian-Argentinian Quechua,Bolivian-Argentinian Quechua,sout2991,Quechuan,quec1387,South America,1,Quechuan,Andean,Quechuan
chim1302,ecua1248,Bolivar-North Chimborazo Highland Quichua,language,qug,qug,-1.36727,-78.8521,['South America'],['Ecuador'],,Ecuadorian Quechua A,Ecuadorian Quechua A,chim1302,Quechuan,quec1387,South America,1,,,
cana1262,ecua1249,Cañar-Azuay-South Chimborazo Highland Quichua,language,qxr,qxr,-2.48314,-78.9672,['South America'],['Ecuador'],,Ecuadorian Quechua B,Ecuadorian Quechua B,cana1262,Quechuan,quec1387,South America,1,,,
inga1252,colo1258,Colombian Inga,language,inb,inb,1.00313,-76.8606,['South America'],"['Colombia', 'Venezuela, Bolivarian Republic of']",,Colombia-Ecuador Quechua,Colombia-Oriente Quechua,inga1252,Quechuan,quec1387,South America,1,Quechuan,Andean,Quechuan
napo1242,orie1242,Napo Lowland Quechua,language,qvo,qvo,-0.072525,-76.3889,['South America'],"['Colombia', 'Ecuador', 'Peru']",,Ecuadorian Quechua B,Oriente Quechua,napo1242,Quechuan,quec1387,South America,1,,,
nort2973,past1249,Northern Pastaza Quichua,language,qvz,qvz,-1.88573,-76.0389,['South America'],"['Ecuador', 'Peru']",,Ecuadorian Quechua B,Pastaza Quechua,nort2973,Quechuan,quec1387,South America,1,,,
sout2990,past1249,Southern Pastaza Quechua,language,qup,qup,-3.32733,-76.527,['South America'],['Peru'],,Ecuadorian Quechua B,Pastaza Quechua,sout2990,Quechuan,quec1387,South America,1,,,
tena1240,orie1242,Tena Lowland Quichua,language,quw,quw,-0.76271,-77.5404,['South America'],['Ecuador'],,Ecuadorian Quechua B,Oriente Quechua,tena1240,Quechuan,quec1387,South America,1,,,
imba1240,imba1241,Imbabura Highland Quichua,language,qvi,qvi,0.31776,-78.3729,['South America'],['Ecuador'],,Ecuadorian Quechua B,Imbabura-Colombia-Oriente Quechua,imba1240,Quechuan,quec1387,South America,1,,,
cusc1236,cusc1235,Cusco Quechua,language,quz,quz,-14.0853,-71.7663,['South America'],['Peru'],,Cuscan Quechua,Cuscan Quechua,cusc1236,Quechuan,quec1387,South America,1,Quechuan,Andean,Quechuan
ango1254,sena1264,Angor,language,agg,agg,-3.7167,141.199,['Papunesia'],['Papua New Guinea'],,,Senagi,ango1254,Senagi,sena1264,Papunesia,1,Senagi,N Coast New Guinea,Senagi
abau1245,sepi1257,Abau,language,aau,aau,-3.97222,141.324,['Papunesia'],['Papua New Guinea'],,,Sepik,abau1245,Sepik,sepi1257,Papunesia,1,Abau,N Coast New Guinea,Sepik
sepi1255,iwam1260,Sepik Iwam,language,iws,iws,-4.30928,142.117,['Papunesia'],['Papua New Guinea'],,Iwamic,Iwamic,sepi1255,Sepik,sepi1257,Papunesia,1,,,
kwan1278,kwan1286,Kwanga,language,kwj,kwj,-3.74263,142.711,['Papunesia'],['Papua New Guinea'],,Kwanga-Mende,Kwanga-Mende,kwan1278,Sepik,sepi1257,Papunesia,1,,,
mend1268,kwan1286,Mende (Papua New Guinea),language,sim,sim,-3.67233,142.683,['Papunesia'],['Papua New Guinea'],,Kwanga-Mende,Kwanga-Mende,mend1268,Sepik,sepi1257,Papunesia,1,,,
kwom1262,nuku1256,Kwoma,language,kmo,kmo,-4.08721,142.664,['Papunesia'],['Papua New Guinea'],,Nukuma,Nukuma,kwom1262,Sepik,sepi1257,Papunesia,1,Nukuma,N Coast New Guinea,Sepik
yess1239,mayo1278,Yessan-Mayo,language,yss,yss,-4.15721,142.574,['Papunesia'],['Papua New Guinea'],,Mayo-Pasi,Mayo-Pasi,yess1239,Sepik,sepi1257,Papunesia,1,Tama Sepik,N Coast New Guinea,Sepik
alam1246,east2496,Alamblak,language,amp,amp,-4.66307,143.316,['Papunesia'],['Papua New Guinea'],,Eastern Sepik Hill,Eastern Sepik Hill,alam1246,Sepik,sepi1257,Papunesia,1,Sepik Hill,N Coast New Guinea,Sepik
sani1270,west2576,Saniyo-Hiyewe,language,sny,sny,-4.4376,142.369,['Papunesia'],['Papua New Guinea'],,Western Sepik Hill,Western Sepik Hill,sani1270,Sepik,sepi1257,Papunesia,1,,,
lada1244,kenh1234,Leh Ladakhi,language,lbj,lbj,33.468,80.6013,['Eurasia'],"['China', 'India']",,Kenhatic,Kenhatic,lada1244,Sino-Tibetan,sino1245,Eurasia,1,Bodic,Indic,Sino-Tibetan
lhom1239,sout3216,Lhomi,language,lhm,lhm,27.5948,87.7161,['Eurasia'],"['China', 'India', 'Nepal']",,South-Western Tibetic,South-Western Tibetic,lhom1239,Sino-Tibetan,sino1245,Eurasia,1,Bodic,Indic,Sino-Tibetan
tibe1272,cent2346,Tibetan,language,bod,bod,28.3681,90.1872,['Eurasia'],"['Bhutan', 'China', 'India', 'Nepal']",,Central Tibetan,Central Tibetan,tibe1272,Sino-Tibetan,sino1245,Eurasia,1,Bodic,Inner Asia,Sino-Tibetan
east2347,nucl1729,Eastern Tamang,language,taj,taj,27.3239,87.0832,['Eurasia'],"['India', 'Nepal']",,Nuclear Tamang,Nuclear Tamang,east2347,Sino-Tibetan,sino1245,Eurasia,1,Bodic,Indic,Sino-Tibetan
kach1280,jing1260,Southern Jinghpaw,language,kac,kac,25.4634,97.3278,['Eurasia'],"['China', 'Myanmar']",,Jingpho,Jingpho,kach1280,Sino-Tibetan,sino1245,Eurasia,1,Brahmaputran,Indic,Sino-Tibetan
chan1313,kony1247,Chang Naga,language,nbc,nbc,26.4336,94.9536,['Eurasia'],['India'],,Konyak I,Konyak I,chan1313,Sino-Tibetan,sino1245,Eurasia,1,Brahmaputran,Southeast Asia,Sino-Tibetan
kony1248,kony1247,Konyak Naga,language,nbe,nbe,26.6823,95.0598,['Eurasia'],"['India', 'Myanmar']",,Konyak I,Konyak I,kony1248,Sino-Tibetan,sino1245,Eurasia,1,,,
phom1236,kony1247,Phom Naga,language,nph,nph,26.4715,94.7476,['Eurasia'],['India'],,Konyak I,Konyak I,phom1236,Sino-Tibetan,sino1245,Eurasia,1,,,
wanc1238,kony1247,Wancho Naga,language,nnp,nnp,26.2581,94.8936,['Eurasia'],['India'],,Konyak I,Konyak I,wanc1238,Sino-Tibetan,sino1245,Eurasia,1,,,
noct1238,kony1249,Nocte Naga,language,njb,njb,27.152,95.3903,['Eurasia'],['India'],,Tangsa-Nocte,Tangsa-Nocte,noct1238,Sino-Tibetan,sino1245,Eurasia,1,Brahmaputran,Southeast Asia,Sino-Tibetan
limb1266,kira1253,Limbu,language,lif,lif,27.2703,87.8859,['Eurasia'],"['India', 'Nepal']",,Kiranti,Kiranti,limb1266,Sino-Tibetan,sino1245,Eurasia,1,Himalayish,Indic,Sino-Tibetan
west2409,kaya1317,Western Kayah,language,kyu,kyu,18.687,97.4877,['Eurasia'],"['Myanmar', 'Thailand']",,Kayah,Kayah,west2409,Sino-Tibetan,sino1245,Eurasia,1,,,
sgaw1245,sgaw1244,S'gaw Karen,language,ksw,ksw,17.9872,97.7126,['Eurasia'],"['Myanmar', 'Thailand']",,Sgaw,Sgaw,sgaw1245,Sino-Tibetan,sino1245,Eurasia,1,Karen,Southeast Asia,Sino-Tibetan
bori1243,east2361,Bori-Karko,language,adi,adi,27.62812,94.3538,['Eurasia'],"['Bhutan', 'China', 'India']",,Eastern Tani,Eastern Tani,bori1243,Sino-Tibetan,sino1245,Eurasia,1,Tani,Indic,Sino-Tibetan
apat1240,west2797,Apatani,language,apt,apt,27.1933,93.7284,['Eurasia'],['India'],,Western Tani,Western Tani,apat1240,Sino-Tibetan,sino1245,Eurasia,1,Tani,Indic,Sino-Tibetan
galo1242,suba1255,Galo,language,adl,adl,27.9805586,94.6884956,['Eurasia'],['India'],,Subansiri,Subansiri,galo1242,Sino-Tibetan,sino1245,Eurasia,1,Tani,Indic,Sino-Tibetan
nyis1236,suba1255,Nyishi-Hill Miri,language,njz,njz,27.278263,93.675529,['Eurasia'],['India'],,Subansiri,Subansiri,nyis1236,Sino-Tibetan,sino1245,Eurasia,1,Tani,Indic,Sino-Tibetan
hakk1236,midd1354,Hakka Chinese,language,hak,hak,25.0,116.0,['Eurasia'],"['China', 'Taiwan, Province of China']",,Middle-Modern Sinitic,Middle-Modern Sinitic,hakk1236,Sino-Tibetan,sino1245,Eurasia,1,Chinese,Southeast Asia,Sino-Tibetan
mand1415,mand1471,Mandarin Chinese,language,cmn,cmn,40.0209,116.228,['Eurasia'],"['China', ""Korea, Democratic People's Republic of"", ""Lao People's Democratic Republic"", 'Myanmar', 'Mongolia', 'Russian Federation', 'Taiwan, Province of China', 'Viet Nam']",,Mandarinic,Mandarinic,mand1415,Sino-Tibetan,sino1245,Eurasia,1,Chinese,Southeast Asia,Sino-Tibetan
dung1253,zhon1236,Dungan,language,dng,dng,42.7292,76.8382,['Eurasia'],"['Kyrgyzstan', 'Kazakhstan', 'Tajikistan', 'Uzbekistan']",,Zhongyuan,Zhongyuan,dung1253,Sino-Tibetan,sino1245,Eurasia,1,,,
dako1258,siou1253,Dakota,language,dak,dak,45.86,-96.58,['North America'],"['Canada', 'United States']",,Sioux,Sioux,dako1258,Siouan,siou1252,North America,1,Mississippi Valley Siouan,Basin and Plains,Siouan
zarm1239,zarm1240,Zarma,language,dje,dje,12.8554,2.41173,['Africa'],"['Burkina Faso', 'Mali', 'Niger', 'Nigeria']",,Zarma-Kaado-Dendi,Zarma-Kaado-Dendi,zarm1239,Songhay,song1307,Africa,1,Songhay,African Savannah,Songhay
hame1242,hame1241,Hamer-Banna,language,amf,amf,5.06515,36.5176,['Africa'],"['Ethiopia', 'Kenya']",,Hamer-Karo,Hamer-Karo,hame1242,South Omotic,sout2845,Africa,1,South Omotic,Greater Abyssinia,Afro-Asiatic
naas1242,cent2394,Naasioi,language,nas,nas,-6.46022,155.632,['Papunesia'],['Papua New Guinea'],,Nasioiic,Central Nasioi,naas1242,South Bougainville,sout2948,Papunesia,1,South Bougainville,Oceania,South Bougainville
murl1244,didi1256,Murle,language,mur,mur,6.69756,33.988,['Africa'],"['Ethiopia', 'South Sudan']",,Didinga-Murle,Didinga-Murle,murl1244,Surmic,surm1244,Africa,1,South Surmic,African Savannah,Eastern Sudanic
tabo1241,,Tabo,language,knv,knv,-8.09387,143.305,['Papunesia'],['Papua New Guinea'],,,,tabo1241,,,Papunesia,1,,,
pure1242,tara1323,Purepecha,language,tsz,tsz,19.2467,-101.631,['North America'],"['Mexico', 'United States']",,,Tarascan,pure1242,Tarascan,tara1323,North America,1,Tarascan,Mesoamerica,Tarascan
dadi1250,tebe1251,Dadibi,language,mps,mps,-6.65765,144.511,['Papunesia'],['Papua New Guinea'],,,Teberan,dadi1250,Teberan,tebe1251,Papunesia,1,Teberan,S New Guinea,Teberan-Pawaian
folo1238,tebe1251,Folopa,language,ppo,ppo,-6.86321,144.458,['Papunesia'],['Papua New Guinea'],,,Teberan,folo1238,Teberan,tebe1251,Papunesia,1,Teberan,S New Guinea,Teberan-Pawaian
high1242,tequ1244,Highland Oaxaca Chontal,language,chd,chd,16.1849,-95.7301,['North America'],['Mexico'],,,Tequistlatecan,high1242,Tequistlatecan,tequ1244,North America,1,Tequistlatecan,Mesoamerica,Hokan
ticu1245,ticu1244,Ticuna,language,tca,tca,-3.66289,-69.8723,['South America'],"['Brazil', 'Colombia', 'Peru']",,,Ticuna-Yuri,ticu1245,Ticuna-Yuri,ticu1244,South America,1,Ticuna,NE South America,Ticuna
hueh1236,tepe1243,Huehuetla Tepehua,language,tee,tee,20.6189,-97.9347,['North America'],['Mexico'],,Tepehua,Tepehua,hueh1236,Totonacan,toto1251,North America,1,Totonacan,Mesoamerica,Totonacan
pisa1237,tepe1243,Pisaflores Tepehua,language,tpp,tpp,20.7039,-98.0305,['North America'],['Mexico'],,Tepehua,Tepehua,pisa1237,Totonacan,toto1251,North America,1,,,
tlac1235,tepe1243,Tlachichilco Tepehua,language,tpt,tpt,20.704,-98.1947,['North America'],['Mexico'],,Tepehua,Tepehua,tlac1235,Totonacan,toto1251,North America,1,,,
high1243,lowl1244,Highland Totonac,language,tos,tos,20.3798,-97.6159,['North America'],['Mexico'],,Sierra Totonacan,Sierra Totonacan,high1243,Totonacan,toto1251,North America,1,Totonacan,Mesoamerica,Totonacan
papa1238,lowl1271,Papantla Totonac,language,top,top,20.5671,-97.2554,['North America'],['Mexico'],,Lowland-Sierra Totonacan,Lowland-Sierra Totonacan,papa1238,Totonacan,toto1251,North America,1,Totonacan,Mesoamerica,Totonacan
uppe1275,neca1234,Upper Necaxa Totonac,language,tku,tku,20.236,-97.81,['North America'],['Mexico'],,Northern Totonacan,Necaxan,uppe1275,Totonacan,toto1251,North America,1,,,
xico1235,nort3265,Xicotepec De Juárez Totonac,language,too,too,20.6532,-97.7463,['North America'],['Mexico'],,Northern Totonacan,Northern Totonacan,xico1235,Totonacan,toto1251,North America,1,Totonacan,Mesoamerica,Totonacan
tatu1247,bara1401,Tatuyo,language,tav,tav,0.55582,-70.5327,['South America'],['Colombia'],,Bara-Tatuyo,Bara-Tatuyo,tatu1247,Tucanoan,tuca1253,South America,1,Tucanoan,NE South America,Tucanoan
waim1255,bara1401,Waimaha,language,bao,bao,0.30416,-70.1644,['South America'],"['Brazil', 'Colombia']",,Bara-Tatuyo,Bara-Tatuyo,waim1255,Tucanoan,tuca1253,South America,1,Tucanoan,NE South America,Tucanoan
tuca1252,east2707,Tucano,language,tuo,tuo,0.579755,-69.5763,['South America'],"['Brazil', 'Colombia']",,Eastern Eastern Tucanoan I,Eastern Eastern Tucanoan I,tuca1252,Tucanoan,tuca1253,South America,1,Tucanoan,NE South America,Tucanoan
cara1272,pisa1247,Carapana,language,cbc,cbc,0.06168,-69.6465,['South America'],"['Brazil', 'Colombia']",,Pisamira-Carapana,Pisamira-Carapana,cara1272,Tucanoan,tuca1253,South America,1,Tucanoan,NE South America,Tucanoan
tuyu1244,tuyu1245,Tuyuca,language,tue,tue,0.39441,-70.043515,['South America'],"['Brazil', 'Colombia']",,Tuyuca-Yuruti,Tuyuca-Yuruti,tuyu1244,Tucanoan,tuca1253,South America,1,Tucanoan,NE South America,Tucanoan
guan1269,wana1272,Kotiria,language,gvc,gvc,1.07554,-69.5705,['South America'],"['Brazil', 'Colombia']",,Kotiria-Piratapuyo,Kotiria-Piratapuyo,guan1269,Tucanoan,tuca1253,South America,1,Tucanoan,NE South America,Tucanoan
pira1254,wana1272,Wa'ikhana,language,pir,pir,0.50714,-69.5032,['South America'],"['Brazil', 'Colombia']",,Kotiria-Piratapuyo,Kotiria-Piratapuyo,pira1254,Tucanoan,tuca1253,South America,1,Tucanoan,NE South America,Tucanoan
cube1242,cube1243,Cubeo,language,cub,cub,1.32382,-70.1939,['South America'],"['Brazil', 'Colombia', 'Venezuela, Bolivarian Republic of']",,Cubeo-Desano,Cubeo-Desano,cube1242,Tucanoan,tuca1253,South America,1,Tucanoan,NE South America,Tucanoan
desa1247,siri1280,Desano,language,des,des,0.58157,-69.4955,['South America'],"['Brazil', 'Colombia']",,Siriano-Desano,Siriano-Desano,desa1247,Tucanoan,tuca1253,South America,1,Tucanoan,NE South America,Tucanoan
siri1274,siri1280,Siriano,language,sri,sri,0.436515,-70.184,['South America'],"['Brazil', 'Colombia']",,Siriano-Desano,Siriano-Desano,siri1274,Tucanoan,tuca1253,South America,1,Tucanoan,NE South America,Tucanoan
bara1380,sout3006,Barasana-Eduria,language,bsn,bsn,0.02193,-70.808,['South America'],['Colombia'],,Barasano-Eduria-Macuna,Barasano-Eduria-Macuna,bara1380,Tucanoan,tuca1253,South America,1,Tucanoan,NE South America,Tucanoan
macu1260,sout3006,Macuna,language,myy,myy,-0.14459,-70.0749,['South America'],"['Brazil', 'Colombia']",,Barasano-Eduria-Macuna,Barasano-Eduria-Macuna,macu1260,Tucanoan,tuca1253,South America,1,Tucanoan,NE South America,Tucanoan
kore1283,kore1286,Koreguaje,language,coe,coe,0.92316,-75.3475,['South America'],['Colombia'],,Western Tucanoan,Koreguaje-Tama,kore1283,Tucanoan,tuca1253,South America,1,Tucanoan,NE South America,Tucanoan
seco1241,sion1248,Secoya,language,sey,sey,-0.459785,-75.5547,['South America'],"['Colombia', 'Ecuador', 'Peru']",,Siona-Secoya,Siona-Secoya,seco1241,Tucanoan,tuca1253,South America,1,Tucanoan,NE South America,Tucanoan
sion1247,sion1249,Siona-Tetete,language,snn,snn,0.31733,-76.0237,['South America'],"['Colombia', 'Ecuador']",,Siona-Secoya,Sionan,sion1247,Tucanoan,tuca1253,South America,1,Tucanoan,NE South America,Tucanoan
even1260,nort3147,Even,language,eve,eve,70.6687,130.914,['Eurasia'],['Russian Federation'],,Northern Tungusic,Northern Tungusic,even1260,Tungusic,tung1282,Eurasia,1,Tungusic,Inner Asia,Altaic
mund1330,mund1329,Mundurukú,language,myu,myu,-8.41095,-57.691,['South America'],['Brazil'],,Mundurukuic,Mundurukuic,mund1330,Tupian,tupi1275,South America,1,Munduruku,NE South America,Tupian
chuv1255,bolg1249,Chuvash,language,chv,chv,55.48701,47.16298,['Eurasia'],"['Estonia', 'Kazakhstan', 'Russian Federation']",,Bolgar,Bolgar,chuv1255,Turkic,turk1311,Eurasia,1,Turkic,Inner Asia,Altaic
tuvi1240,saya1244,Tuvinian,language,tyv,tyv,51.7,94.36667,['Eurasia'],"['China', 'Mongolia', 'Russian Federation']",,Sayan,Sayan,tuvi1240,Turkic,turk1311,Eurasia,1,Turkic,Inner Asia,Altaic
shor1247,yeni1251,Shor,language,cjs,cjs,52.32607,88.4344,['Eurasia'],['Russian Federation'],,Yenisey Turkic,Yenisey Turkic,shor1247,Turkic,turk1311,Eurasia,1,Turkic,Inner Asia,Altaic
uigh1240,uigh1243,Uighur,language,uig,uig,43.88,87.38,['Eurasia'],"['China', 'India', 'Kyrgyzstan', 'Kazakhstan', 'Mongolia', 'Pakistan', 'Uzbekistan']",,Uighur-Ili,Uighur-Ili,uigh1240,Turkic,turk1311,Eurasia,1,Turkic,Inner Asia,Altaic
kirg1245,east2791,Kirghiz,language,kir,kir,42.0,74.0,['Eurasia'],"['Afghanistan', 'China', 'Kyrgyzstan', 'Kazakhstan', 'Tajikistan', 'Uzbekistan']",,East Kipchak,East Kipchak,kirg1245,Turkic,turk1311,Eurasia,1,Turkic,Inner Asia,Altaic
bash1264,nort2696,Bashkir,language,bak,bak,53.59671,56.55937,['Eurasia'],"['Kazakhstan', 'Russian Federation', 'Ukraine']",,North Kipchak,North Kipchak,bash1264,Turkic,turk1311,Eurasia,1,Turkic,Inner Asia,Altaic
tata1255,nort2696,Tatar,language,tat,tat,55.79592,49.11577,['Eurasia'],"['Azerbaijan', 'Belarus', 'China', 'Estonia', 'Finland', 'Georgia', 'Kazakhstan', 'Lithuania', 'Latvia', 'Russian Federation', 'Ukraine']",,North Kipchak,North Kipchak,tata1255,Turkic,turk1311,Eurasia,1,Turkic,Inner Asia,Altaic
kara1467,sout2701,Kara-Kalpak,language,kaa,kaa,39.98005,63.32233,['Eurasia'],"['Afghanistan', 'Kyrgyzstan', 'Kazakhstan', 'Turkmenistan', 'Uzbekistan']",,South Kipchak,South Kipchak,kara1467,Turkic,turk1311,Eurasia,1,Turkic,Inner Asia,Altaic
kaza1248,sout2701,Kazakh,language,kaz,kaz,51.17,71.454,['Eurasia'],"['Afghanistan', 'China', 'Iran, Islamic Republic of', 'Kyrgyzstan', 'Kazakhstan', 'Mongolia', 'Russian Federation', 'Tajikistan', 'Turkmenistan', 'Uzbekistan']",,South Kipchak,South Kipchak,kaza1248,Turkic,turk1311,Eurasia,1,Turkic,Inner Asia,Altaic
noga1249,sout2701,Nogai,language,nog,nog,44.89776,43.1656,['Eurasia'],"['Kazakhstan', 'Russian Federation']",,South Kipchak,South Kipchak,noga1249,Turkic,turk1311,Eurasia,1,Turkic,Inner Asia,Altaic
crim1257,crim1259,Crimean Tatar,language,crh,crh,45.0,34.08,['Eurasia'],"['Bulgaria', 'Moldova, Republic of', 'Romania', 'Ukraine', 'Uzbekistan']",,Crimeaic,Crimeaic,crim1257,Turkic,turk1311,Eurasia,1,Turkic,Inner Asia,Altaic
kara1465,kauk1241,Karachay-Balkar,language,krc,krc,43.565,42.2606,['Eurasia'],"['Azerbaijan', 'Georgia', 'Kazakhstan', 'Russian Federation']",,West Kipchak,Kaukasus Kipchak,kara1465,Turkic,turk1311,Eurasia,1,Turkic,Greater Mesopotamia,Altaic
kumy1244,kauk1241,Kumyk,language,kum,kum,43.0,47.0,['Eurasia'],"['Kazakhstan', 'Russian Federation']",,West Kipchak,Kaukasus Kipchak,kumy1244,Turkic,turk1311,Eurasia,1,Turkic,Greater Mesopotamia,Altaic
yaku1245,nort2688,Sakha,language,sah,sah,61.69744,133.98031,['Eurasia'],['Russian Federation'],,North Siberian Turkic,North Siberian Turkic,yaku1245,Turkic,turk1311,Eurasia,1,Turkic,Inner Asia,Altaic
turk1304,east2334,Turkmen,language,tuk,tuk,37.08719,59.17574,['Eurasia'],"['Afghanistan', 'Iraq', 'Iran, Islamic Republic of', 'Pakistan', 'Tajikistan', 'Turkmenistan', 'Turkey', 'Uzbekistan']",,East Oghuz,East Oghuz,turk1304,Turkic,turk1311,Eurasia,1,Turkic,Inner Asia,Altaic
nucl1301,west2406,Turkish,language,tur,tur,39.8667,32.8667,['Eurasia'],"['Albania', 'Armenia', 'Azerbaijan', 'Bulgaria', 'Cyprus', 'Georgia', 'Greece', 'Iraq', 'Iran, Islamic Republic of', 'North Macedonia', 'Syrian Arab Republic', 'Turkey']",,West Oghuz,West Oghuz,nucl1301,Turkic,turk1311,Eurasia,1,Turkic,Greater Mesopotamia,Altaic
finn1318,nucl1717,Finnish,language,fin,fin,64.7628,25.5577,['Eurasia'],"['Estonia', 'Finland', 'Norway', 'Russian Federation', 'Sweden']",,Nuclear Finnish,Nuclear Finnish,finn1318,Uralic,ural1272,Eurasia,1,Finnic,Inner Asia,Uralic
hung1274,ural1272,Hungarian,language,hun,hun,46.9068585714,19.6555271429,['Eurasia'],"['Austria', 'Croatia', 'Hungary', 'Romania', 'Serbia', 'Slovenia', 'Slovakia', 'Ukraine']",,,Uralic,hung1274,Uralic,ural1272,Eurasia,1,Ugric,Europe,Uralic
east2328,mari1278,Eastern Mari,language,mhr,mhr,55.8307,48.405,['Eurasia'],"['Kazakhstan', 'Russian Federation']",,Mari,Mari,east2328,Uralic,ural1272,Eurasia,1,Mari,Inner Asia,Uralic
erzy1239,mord1256,Erzya,language,myv,myv,52.8548,45.3901,['Eurasia'],"['Azerbaijan', 'Belarus', 'Estonia', 'Kazakhstan', 'Lithuania', 'Latvia', 'Russian Federation', 'Ukraine']",,Mordvin,Mordvin,erzy1239,Uralic,ural1272,Eurasia,1,Mordvin,Inner Asia,Uralic
komi1268,komi1267,Komi-Zyrian,language,kpv,kpv,64.0527,54.946,['Eurasia'],['Russian Federation'],,Komi,Komi,komi1268,Uralic,ural1272,Eurasia,1,Permic,Inner Asia,Uralic
nort2671,cent2240,North Saami,language,sme,sme,68.725,22.1113,['Eurasia'],"['Finland', 'Norway', 'Sweden']",,Central Western Saami,Central Western Saami,nort2671,Uralic,ural1272,Eurasia,1,Saami,Inner Asia,Uralic
nene1249,nene1251,Tundra Nenets,language,yrk,yrk,66.1775,71.0234,['Eurasia'],['Russian Federation'],,Nenets,Nenets,nene1249,Uralic,ural1272,Eurasia,1,Samoyedic,Inner Asia,Uralic
hopi1249,nort2953,Hopi,language,hop,hop,35.7653,-110.535,['North America'],['United States'],,Northern Uto-Aztecan,Northern Uto-Aztecan,hopi1249,Uto-Aztecan,utoa1244,North America,1,Northern Uto-Aztecan,Basin and Plains,Uto-Aztecan
nort2954,west2621,Northern Paiute,language,pao,pao,40.0799,-119.536,['North America'],['United States'],,Western Numic,Western Numic,nort2954,Uto-Aztecan,utoa1244,North America,1,Northern Uto-Aztecan,Basin and Plains,Uto-Aztecan
mayo1264,cahi1243,Mayo,language,mfy,mfy,26.4522,-108.981,['North America'],['Mexico'],,Cahitan,Cahitan,mayo1264,Uto-Aztecan,utoa1244,North America,1,Cahita,Mesoamerica,Uto-Aztecan
yaqu1251,cahi1243,Yaqui,language,yaq,yaq,29.9446,-110.681,['North America'],"['Mexico', 'United States']",,Cahitan,Cahitan,yaqu1251,Uto-Aztecan,utoa1244,North America,1,Cahita,Mesoamerica,Uto-Aztecan
guer1241,east2720,Central Guerrero Nahuatl,language,ngu,ngu,17.8583,-99.0023,['North America'],['Mexico'],,Eastern Nahuatl,Eastern Nahuatl,guer1241,Uto-Aztecan,utoa1244,North America,1,Aztecan,Mesoamerica,Uto-Aztecan
high1278,east2720,Highland Puebla Nahuatl,language,azz,azz,20.1554,-97.5556,['North America'],['Mexico'],,Eastern Nahuatl,Eastern Nahuatl,high1278,Uto-Aztecan,utoa1244,North America,1,Aztecan,Mesoamerica,Uto-Aztecan
cent2134,huas1257,Central Huasteca Nahuatl,language,nch,nch,21.0963,-98.4356,['North America'],['Mexico'],,Huasteca Nahuatl,Huasteca Nahuatl,cent2134,Uto-Aztecan,utoa1244,North America,1,,,
east2538,huas1257,Eastern Huasteca Nahuatl,language,nhe,nhe,21.0639,-97.9077,['North America'],['Mexico'],,Huasteca Nahuatl,Huasteca Nahuatl,east2538,Uto-Aztecan,utoa1244,North America,1,,,
west2624,huas1257,Western Huasteca Nahuatl,language,nhw,nhw,21.3711,-98.7711,['North America'],['Mexico'],,Huasteca Nahuatl,Huasteca Nahuatl,west2624,Uto-Aztecan,utoa1244,North America,1,,,
isth1242,isth1245,Isthmus-Mecayapan Nahuatl,language,nhx,nhx,18.2,-94.7547,['North America'],['Mexico'],,Isthmus Nahuatl,Isthmus Nahuatl,isth1242,Uto-Aztecan,utoa1244,North America,1,Aztecan,Mesoamerica,Uto-Aztecan
nort2958,east2720,Northern Oaxaca Nahuatl,language,nhy,nhy,18.1884,-96.9748,['North America'],['Mexico'],,Eastern Nahuatl,Eastern Nahuatl,nort2958,Uto-Aztecan,utoa1244,North America,1,,,
sout2973,tehu1244,"Nahuatl, Southeastern Puebla",language,npl,npl,18.39688,-97.12655,['North America'],['Mexico'],,Tehuacanic,Tehuacanic,sout2973,Uto-Aztecan,utoa1244,North America,1,,,
zaca1241,tehu1244,Zacatlán-Ahuacatlán-Tepetzintla Nahuatl,language,nhi,nhi,20.0581,-97.8974,['North America'],['Mexico'],,Tehuacanic,Tehuacanic,zaca1241,Uto-Aztecan,utoa1244,North America,1,,,
nort2957,cent2258,Northern Puebla Nahuatl,language,ncj,ncj,20.1356,-97.9814,['North America'],['Mexico'],,Central Nahuatl,Central Nahuatl,nort2957,Uto-Aztecan,utoa1244,North America,1,Aztecan,Mesoamerica,Uto-Aztecan
tete1251,cent2258,Tetelcingo Nahuatl,language,nhg,nhg,18.8854,-98.893,['North America'],['Mexico'],,Central Nahuatl,Central Nahuatl,tete1251,Uto-Aztecan,utoa1244,North America,1,Aztecan,Mesoamerica,Uto-Aztecan
mich1245,west2825,Michoacán Nahuatl,language,ncl,ncl,18.3412,-103.361,['North America'],['Mexico'],,Western Periphery Nahuatl,Western Periphery Nahuatl,mich1245,Uto-Aztecan,utoa1244,North America,1,Aztecan,Mesoamerica,Uto-Aztecan
elna1235,cora1260,El Nayar Cora,language,crn,crn,22.4099,-104.467,['North America'],"['Mexico', 'United States']",,Coran,Coran,elna1235,Uto-Aztecan,utoa1244,North America,1,Corachol,Mesoamerica,Uto-Aztecan
huic1243,cora1259,Huichol,language,hch,hch,21.954,-104.062,['North America'],['Mexico'],,Corachol,Corachol,huic1243,Uto-Aztecan,utoa1244,North America,1,Corachol,Mesoamerica,Uto-Aztecan
cent2131,tara1321,Central Tarahumara,language,tar,tar,27.5648,-107.154,['North America'],['Mexico'],,Tarahumaran,Tarahumaran,cent2131,Uto-Aztecan,utoa1244,North America,1,Tarahumaran,Mesoamerica,Uto-Aztecan
toho1245,pima1249,Tohono O'odham,language,ood,ood,31.7973,-111.995,['North America'],"['Mexico', 'United States']",,Piman,Piman,toho1245,Uto-Aztecan,utoa1244,North America,1,Tepiman,Basin and Plains,Uto-Aztecan
nort2959,tepe1281,Northern Tepehuan,language,ntp,ntp,26.4348,-107.379,['North America'],['Mexico'],,Tepehuan,Tepehuan,nort2959,Uto-Aztecan,utoa1244,North America,1,Tepiman,Mesoamerica,Uto-Aztecan
waor1240,,Waorani,language,auc,auc,-1.12312,-76.683,['South America'],['Ecuador'],,,,waor1240,,,South America,1,Waorani,NE South America,Waorani
wiru1244,,Wiru,language,wiu,wiu,-6.35863,144.214,['Papunesia'],['Papua New Guinea'],,,,wiru1244,,,Papunesia,1,,,
yano1262,yano1267,Yanomám,language,wca,wca,2.48999,-62.8522,['South America'],"['Brazil', 'Venezuela, Bolivarian Republic of']",,Yanomam-Yanimamo,Yanomam-Yanimamo,yano1262,Yanomamic,yano1268,South America,1,Yanomam,NE South America,Yanomam
sanu1240,yano1268,Sanumá,language,xsu,xsu,4.5,-64.5,['South America'],"['Brazil', 'Venezuela, Bolivarian Republic of']",,,Yanomamic,sanu1240,Yanomamic,yano1268,South America,1,Yanomam,NE South America,Yanomam
anem1248,dori1247,Aneme Wake,language,aby,aby,-9.75911,148.479,['Papunesia'],['Papua New Guinea'],,Doriri-Abia,Doriri-Abia,anem1248,Yareban,yare1250,Papunesia,1,,,
yare1248,yare1251,Yareba,language,yrb,yrb,-9.50651,148.605,['Papunesia'],['Papua New Guinea'],,Yareba-Bariji-Nawaru,Yareba-Bariji-Nawaru,yare1248,Yareban,yare1250,Papunesia,1,Yareban,S New Guinea,Trans-New Guinea
yele1255,,Yele,language,yle,yle,-11.3796,154.127,['Papunesia'],['Papua New Guinea'],,,,yele1255,,,Papunesia,1,Yele,S New Guinea,Yele
yura1255,,Yuracaré,language,yuz,yuz,-16.7479,-65.1224,['South America'],"['Bolivia, Plurinational State of']",,,,yura1255,,,South America,1,Yuracare,NE South America,Yuracare
cham1315,zamu1243,Chamacoco,language,ceg,ceg,-20.5899,-58.2005,['South America'],"['Bolivia, Plurinational State of', 'Brazil', 'Paraguay']",,,Zamucoan,cham1315,Zamucoan,zamu1243,South America,1,,,
ayor1240,zamu1244,Ayoreo,language,ayo,ayo,-19.220055,-60.217495,['South America'],"['Bolivia, Plurinational State of', 'Paraguay']",,Zamuco-Ayoreo,Zamuco-Ayoreo,ayor1240,Zamucoan,zamu1243,South America,1,Zamucoan,SE South America,Zamucoan
arab1268,arab1396,Arabela,language,arl,arl,-1.96126,-75.0612,['South America'],['Peru'],,Arabela-Andoa,Arabela-Andoa,arab1268,Zaparoan,zapa1251,South America,1,Zaparoan,NE South America,Zaparoan
